{"type":"FeatureCollection","features":[{"type":"Feature","geometry":{"type":"MultiPolygon","coordinates":[[[[126.16667,37.04222],[126.16667,36.68333],[125.7,36.68333],[125.7,37.03694],[126.16667,37.04222]]]]},"properties":{"acm_lbl_1":"ACMI A","acm_lbl_2":"5 000 AMSL","acm_lbl_3":"SFC"},"id":"LT_C_AISACMC.1"},{"type":"Feature","geometry":{"type":"MultiPolygon","coordinates":[[[[126.39833,37.04417],[126.425,37.00278],[126.48333,36.8],[126.48333,36.73333],[126.475,36.68333],[126.16667,36.68333],[125.7,36.53333],[125.6,36.53333],[125.6,37.03556],[126.39833,37.04417]]]]},"properties":{"acm_lbl_1":"ACMI C","acm_lbl_2":"FL 600","acm_lbl_3":"10 000 AMSL"},"id":"LT_C_AISACMC.2"},{"type":"Feature","geometry":{"type":"MultiPolygon","coordinates":[[[[126.16667,37.04222],[126.16667,36.68333],[125.7,36.68333],[125.7,37.03694],[126.16667,37.04222]]]]},"properties":{"acm_lbl_1":"ACMI B","acm_lbl_2":"9 000 AMSL","acm_lbl_3":"6 000 AMSL"},"id":"LT_C_AISACMC.3"},{"type":"Feature","geometry":{"type":"MultiPolygon","coordinates":[[[[125.7,37.03694],[125.7,36.53333],[125.6,36.53333],[125.6,37.03556],[125.7,37.03694]]]]},"properties":{"acm_lbl_1":"ACMI D","acm_lbl_2":"FL 600","acm_lbl_3":"SFC"},"id":"LT_C_AISACMC.4"},{"type":"Feature","geometry":{"type":"MultiPolygon","coordinates":[[[[126.16667,36.68333],[125.7,36.53333],[125.7,36.68333],[126.16667,36.68333]]]]},"properties":{"acm_lbl_1":"ACMI E","acm_lbl_2":"FL 600","acm_lbl_3":"10 000 AMSL"},"id":"LT_C_AISACMC.5"}]}