{"type":"FeatureCollection","features":[{"type":"Feature","geometry":{"type":"MultiPolygon","coordinates":[[[[127.26491,36.6177],[127.26563,36.61804],[127.26761,36.61888],[127.26962,36.61966],[127.27166,36.62038],[127.27373,36.62104],[127.27583,36.62164],[127.27796,36.62218],[127.28011,36.62266],[127.28228,36.62308],[127.28446,36.62343],[127.28667,36.62372],[127.28888,36.62394],[127.2911,36.62411],[127.29333,36.6242],[127.29556,36.62423],[127.29779,36.6242],[127.30001,36.62411],[127.30223,36.62394],[127.30445,36.62372],[127.30665,36.62343],[127.30883,36.62308],[127.311,36.62266],[127.31315,36.62218],[127.31528,36.62164],[127.31738,36.62104],[127.31945,36.62038],[127.3215,36.61966],[127.3235,36.61888],[127.32548,36.61804],[127.32741,36.61714],[127.3293,36.61619],[127.33115,36.61519],[127.33296,36.61413],[127.33471,36.61302],[127.33642,36.61186],[127.33807,36.61066],[127.33967,36.6094],[127.34121,36.6081],[127.34269,36.60676],[127.34411,36.60537],[127.34546,36.60395],[127.34676,36.60248],[127.34798,36.60098],[127.34848,36.60033],[127.34914,36.59945],[127.35023,36.59788],[127.35125,36.59628],[127.3522,36.59465],[127.35308,36.593],[127.35388,36.59132],[127.3546,36.58962],[127.35525,36.5879],[127.35583,36.58617],[127.35632,36.58441],[127.35657,36.58334],[127.35674,36.58265],[127.35707,36.58087],[127.35733,36.57909],[127.35751,36.57729],[127.35761,36.5755],[127.35763,36.5737],[127.35757,36.5719],[127.35742,36.57011],[127.3572,36.56832],[127.3569,36.56654],[127.35652,36.56477],[127.35606,36.56301],[127.35553,36.56127],[127.35492,36.55954],[127.35423,36.55783],[127.35346,36.55614],[127.35262,36.55448],[127.35171,36.55284],[127.35072,36.55122],[127.34966,36.54964],[127.34854,36.54809],[127.34734,36.54657],[127.34608,36.54509],[127.34475,36.54365],[127.34336,36.54224],[127.34191,36.54088],[127.3404,36.53956],[127.33883,36.53828],[127.33721,36.53705],[127.33553,36.53587],[127.3338,36.53474],[127.33202,36.53366],[127.3302,36.53263],[127.32833,36.53165],[127.32641,36.53073],[127.32446,36.52986],[127.32247,36.52905],[127.32045,36.5283],[127.31839,36.52761],[127.31631,36.52698],[127.3142,36.52641],[127.31206,36.5259],[127.3099,36.52546],[127.30773,36.52507],[127.30553,36.52475],[127.30333,36.52449],[127.30112,36.5243],[127.29889,36.52417],[127.29667,36.52411],[127.29444,36.52411],[127.29222,36.52417],[127.28999,36.5243],[127.28778,36.52449],[127.28558,36.52475],[127.28338,36.52507],[127.28121,36.52546],[127.27905,36.5259],[127.27692,36.52641],[127.2748,36.52698],[127.27272,36.52761],[127.27066,36.5283],[127.26864,36.52905],[127.26665,36.52986],[127.2647,36.53073],[127.26278,36.53165],[127.26091,36.53263],[127.25943,36.53346],[127.25909,36.53366],[127.25731,36.53474],[127.25558,36.53587],[127.2539,36.53705],[127.25228,36.53828],[127.25071,36.53956],[127.2492,36.54088],[127.24775,36.54224],[127.24636,36.54365],[127.24503,36.54509],[127.24377,36.54657],[127.24257,36.54809],[127.24145,36.54964],[127.24039,36.55122],[127.2394,36.55284],[127.23849,36.55448],[127.23765,36.55614],[127.23689,36.55783],[127.2362,36.55954],[127.23558,36.56127],[127.23505,36.56301],[127.23459,36.56477],[127.23421,36.56654],[127.23391,36.56832],[127.23369,36.57011],[127.23355,36.5719],[127.23348,36.5737],[127.2335,36.5755],[127.2336,36.57729],[127.23374,36.57866],[127.23722,36.57936],[127.24257,36.5811],[127.24751,36.5834],[127.24757,36.58343],[127.25212,36.5863],[127.25613,36.58964],[127.25953,36.59341],[127.26224,36.59752],[127.26422,36.6019],[127.26542,36.60645],[127.26583,36.6111],[127.26543,36.61574],[127.26491,36.6177]]]]},"properties":{"atm_lbl_1":"Jochiwon ATZ","atm_lbl_2":"1 500 AGL","atm_lbl_3":"SFC"},"id":"LT_C_AISATZC.1"},{"type":"Feature","geometry":{"type":"MultiPolygon","coordinates":[[[[127.21889,37.64032],[127.22114,37.64027],[127.22339,37.64012],[127.22562,37.63988],[127.22783,37.63955],[127.23002,37.63912],[127.23218,37.6386],[127.2343,37.63799],[127.23637,37.63728],[127.23839,37.63649],[127.24036,37.63562],[127.24226,37.63466],[127.2441,37.63362],[127.24586,37.63251],[127.24755,37.63132],[127.24915,37.63006],[127.25067,37.62873],[127.25209,37.62734],[127.25342,37.6259],[127.25465,37.6244],[127.25578,37.62284],[127.25679,37.62124],[127.2577,37.61961],[127.2585,37.61793],[127.25919,37.61622],[127.25975,37.61449],[127.2602,37.61273],[127.26053,37.61096],[127.26074,37.60918],[127.26083,37.60739],[127.2608,37.60559],[127.26065,37.60381],[127.26038,37.60203],[127.25999,37.60026],[127.25948,37.59852],[127.25885,37.5968],[127.25811,37.5951],[127.25725,37.59345],[127.25628,37.59183],[127.25521,37.59025],[127.25403,37.58873],[127.25275,37.58725],[127.25137,37.58583],[127.2499,37.58448],[127.24834,37.58318],[127.2467,37.58196],[127.24497,37.58081],[127.24317,37.57973],[127.2413,37.57874],[127.23937,37.57782],[127.23737,37.57699],[127.23532,37.57624],[127.23323,37.57558],[127.23109,37.57502],[127.22892,37.57454],[127.22672,37.57416],[127.2245,37.57387],[127.22226,37.57368],[127.22001,37.57358],[127.21776,37.57358],[127.21551,37.57368],[127.21328,37.57387],[127.21105,37.57416],[127.20885,37.57454],[127.20668,37.57502],[127.20455,37.57558],[127.20245,37.57624],[127.20041,37.57699],[127.19841,37.57782],[127.19648,37.57874],[127.19461,37.57973],[127.19281,37.58081],[127.19108,37.58196],[127.18944,37.58318],[127.18788,37.58448],[127.1864,37.58583],[127.18503,37.58725],[127.18375,37.58873],[127.18257,37.59025],[127.18149,37.59183],[127.18053,37.59345],[127.17967,37.5951],[127.17893,37.5968],[127.1783,37.59852],[127.17779,37.60026],[127.1774,37.60203],[127.17713,37.60381],[127.17698,37.60559],[127.17694,37.60739],[127.17703,37.60918],[127.17724,37.61096],[127.17757,37.61273],[127.17802,37.61449],[127.17859,37.61622],[127.17928,37.61793],[127.18007,37.61961],[127.18098,37.62124],[127.182,37.62284],[127.18313,37.6244],[127.18436,37.6259],[127.18569,37.62734],[127.18711,37.62873],[127.18863,37.63006],[127.19023,37.63132],[127.19192,37.63251],[127.19368,37.63362],[127.19552,37.63466],[127.19742,37.63562],[127.19939,37.63649],[127.20141,37.63728],[127.20348,37.63799],[127.2056,37.6386],[127.20776,37.63912],[127.20994,37.63955],[127.21216,37.63988],[127.21439,37.64012],[127.21664,37.64027],[127.21889,37.64032]]]]},"properties":{"atm_lbl_1":"Deokso ATZ","atm_lbl_2":"1 000 AGL","atm_lbl_3":"SFC"},"id":"LT_C_AISATZC.10"},{"type":"Feature","geometry":{"type":"MultiPolygon","coordinates":[[[[128.75727,36.02762],[128.7581,36.03404],[128.75967,36.03958],[128.76037,36.03926],[128.76229,36.03836],[128.7642,36.03744],[128.7661,36.03651],[128.76798,36.03556],[128.76986,36.03459],[128.77171,36.03361],[128.77356,36.03261],[128.77539,36.03159],[128.77721,36.03056],[128.77902,36.02952],[128.78081,36.02845],[128.78258,36.02737],[128.78435,36.02628],[128.78609,36.02517],[128.78783,36.02404],[128.78954,36.0229],[128.79125,36.02175],[128.79293,36.02058],[128.7946,36.01939],[128.79626,36.01819],[128.7979,36.01698],[128.79952,36.01575],[128.80113,36.01451],[128.80272,36.01325],[128.80429,36.01198],[128.80584,36.0107],[128.80738,36.0094],[128.8089,36.00809],[128.81041,36.00677],[128.81189,36.00543],[128.81336,36.00408],[128.81481,36.00271],[128.81624,36.00134],[128.81766,35.99995],[128.81905,35.99855],[128.82043,35.99714],[128.82178,35.99571],[128.82312,35.99427],[128.82444,35.99283],[128.82574,35.99137],[128.82702,35.9899],[128.82828,35.98841],[128.82952,35.98692],[128.83074,35.98541],[128.83194,35.9839],[128.83312,35.98237],[128.83428,35.98084],[128.83542,35.97929],[128.83654,35.97774],[128.83665,35.97758],[128.83098,35.97642],[128.82442,35.97565],[128.82,35.97546],[128.81336,35.97565],[128.8068,35.97642],[128.80037,35.97776],[128.79415,35.97966],[128.79017,35.98122],[128.78447,35.98398],[128.78089,35.9861],[128.77589,35.98964],[128.77283,35.99224],[128.76868,35.99646],[128.76584,36.00001],[128.76219,36.00585],[128.75991,36.01091],[128.75876,36.01439],[128.75763,36.0197],[128.75727,36.02329],[128.75727,36.02762]]]]},"properties":{"atm_lbl_1":"Youngcheon ATZ","atm_lbl_2":"1 000 AGL","atm_lbl_3":"SFC"},"id":"LT_C_AISATZC.11"},{"type":"Feature","geometry":{"type":"MultiPolygon","coordinates":[[[[126.8075,37.04145],[126.80974,37.04142],[126.81198,37.04132],[126.81421,37.04116],[126.81644,37.04094],[126.81865,37.04065],[126.82085,37.04029],[126.82303,37.03988],[126.82519,37.0394],[126.82733,37.03886],[126.82944,37.03826],[126.83153,37.0376],[126.83358,37.03687],[126.8356,37.03609],[126.83758,37.03526],[126.83953,37.03436],[126.84143,37.03341],[126.84329,37.03241],[126.8451,37.03135],[126.84687,37.03024],[126.84858,37.02908],[126.85024,37.02788],[126.85185,37.02662],[126.8534,37.02532],[126.85489,37.02398],[126.85632,37.02259],[126.85768,37.02117],[126.85898,37.0197],[126.86021,37.0182],[126.86138,37.01667],[126.86248,37.0151],[126.8635,37.0135],[126.86446,37.01187],[126.86533,37.01022],[126.86614,37.00854],[126.86687,37.00684],[126.86752,37.00513],[126.8681,37.00339],[126.86859,37.00164],[126.86901,36.99987],[126.86935,36.99809],[126.86961,36.99631],[126.86979,36.99452],[126.86989,36.99272],[126.86991,36.99092],[126.86985,36.98913],[126.8697,36.98733],[126.86948,36.98554],[126.86918,36.98376],[126.8688,36.98199],[126.86834,36.98023],[126.8678,36.97849],[126.86718,36.97676],[126.86649,36.97505],[126.86572,36.97336],[126.86487,36.9717],[126.86396,36.97006],[126.86296,36.96845],[126.8619,36.96686],[126.86077,36.96531],[126.85957,36.9638],[126.8583,36.96232],[126.85697,36.96087],[126.85557,36.95947],[126.85411,36.9581],[126.85259,36.95678],[126.85101,36.95551],[126.84938,36.95428],[126.84769,36.95309],[126.84595,36.95196],[126.84417,36.95088],[126.84233,36.94985],[126.84045,36.94887],[126.83853,36.94795],[126.83656,36.94709],[126.83456,36.94628],[126.83253,36.94553],[126.83046,36.94484],[126.82836,36.94421],[126.82624,36.94364],[126.82409,36.94313],[126.82192,36.94268],[126.81974,36.9423],[126.81753,36.94198],[126.81532,36.94172],[126.81309,36.94153],[126.81086,36.9414],[126.80862,36.94133],[126.80638,36.94133],[126.80414,36.9414],[126.80191,36.94153],[126.79968,36.94172],[126.79747,36.94198],[126.79526,36.9423],[126.79308,36.94268],[126.79091,36.94313],[126.78876,36.94364],[126.78664,36.94421],[126.78454,36.94484],[126.78247,36.94553],[126.78044,36.94628],[126.77844,36.94709],[126.77647,36.94795],[126.77455,36.94887],[126.77267,36.94985],[126.77083,36.95088],[126.76905,36.95196],[126.76731,36.95309],[126.76562,36.95428],[126.76399,36.95551],[126.76241,36.95678],[126.76089,36.9581],[126.75943,36.95947],[126.75803,36.96087],[126.7567,36.96232],[126.75543,36.9638],[126.75423,36.96531],[126.7531,36.96686],[126.75204,36.96845],[126.75104,36.97006],[126.75013,36.9717],[126.74928,36.97336],[126.74851,36.97505],[126.74782,36.97676],[126.7472,36.97849],[126.74666,36.98023],[126.7462,36.98199],[126.74582,36.98376],[126.74552,36.98554],[126.7453,36.98733],[126.74515,36.98913],[126.74509,36.99092],[126.74511,36.99272],[126.74521,36.99452],[126.74539,36.99631],[126.74565,36.99809],[126.74599,36.99987],[126.74641,37.00164],[126.7469,37.00339],[126.74748,37.00513],[126.74813,37.00684],[126.74886,37.00854],[126.74967,37.01022],[126.75054,37.01187],[126.7515,37.0135],[126.75252,37.0151],[126.75362,37.01667],[126.75479,37.0182],[126.75602,37.0197],[126.75732,37.02117],[126.75868,37.02259],[126.76011,37.02398],[126.7616,37.02532],[126.76315,37.02662],[126.76476,37.02788],[126.76642,37.02908],[126.76813,37.03024],[126.7699,37.03135],[126.77171,37.03241],[126.77357,37.03341],[126.77547,37.03436],[126.77742,37.03526],[126.7794,37.03609],[126.78142,37.03687],[126.78347,37.0376],[126.78556,37.03826],[126.78767,37.03886],[126.78981,37.0394],[126.79197,37.03988],[126.79415,37.04029],[126.79635,37.04065],[126.79856,37.04094],[126.80079,37.04116],[126.80302,37.04132],[126.80526,37.04142],[126.8075,37.04145]]]]},"properties":{"atm_lbl_1":"Poseung ATZ","atm_lbl_2":"1 000 AGL","atm_lbl_3":"SFC"},"id":"LT_C_AISATZC.12"},{"type":"Feature","geometry":{"type":"MultiPolygon","coordinates":[[[[126.25278,36.62944],[126.25334,36.62988],[126.25391,36.6303],[126.25448,36.63072],[126.25506,36.63114],[126.25564,36.63155],[126.25622,36.63195],[126.25681,36.63235],[126.2574,36.63274],[126.258,36.63312],[126.2586,36.6335],[126.2592,36.63388],[126.25981,36.63424],[126.26042,36.6346],[126.26104,36.63496],[126.26165,36.63531],[126.26228,36.63565],[126.2629,36.63599],[126.26353,36.63632],[126.26416,36.63664],[126.2648,36.63696],[126.26543,36.63727],[126.26607,36.63757],[126.26672,36.63787],[126.26737,36.63816],[126.26802,36.63844],[126.26867,36.63872],[126.26933,36.63899],[126.26998,36.63926],[126.27064,36.63952],[126.27131,36.63977],[126.27197,36.64002],[126.27264,36.64025],[126.27331,36.64049],[126.27399,36.64071],[126.27466,36.64093],[126.27534,36.64114],[126.27602,36.64135],[126.2767,36.64154],[126.27739,36.64173],[126.27807,36.64192],[126.27876,36.64209],[126.27945,36.64227],[126.28014,36.64243],[126.28083,36.64258],[126.28152,36.64273],[126.28222,36.64288],[126.28292,36.64301],[126.28361,36.64314],[126.28431,36.64326],[126.28501,36.64338],[126.28572,36.64348],[126.28642,36.64358],[126.28712,36.64368],[126.28783,36.64376],[126.28853,36.64384],[126.28924,36.64391],[126.28995,36.64398],[126.29065,36.64404],[126.29136,36.64409],[126.29207,36.64413],[126.29278,36.64417],[126.30194,36.62139],[126.33028,36.58889],[126.35444,36.57528],[126.35409,36.5747],[126.35373,36.57412],[126.35337,36.57354],[126.353,36.57297],[126.35263,36.57241],[126.35224,36.57185],[126.35186,36.57129],[126.35146,36.57073],[126.35106,36.57018],[126.35066,36.56964],[126.35025,36.5691],[126.34983,36.56856],[126.34941,36.56803],[126.34898,36.5675],[126.34855,36.56698],[126.34811,36.56646],[126.34766,36.56595],[126.34721,36.56544],[126.34676,36.56493],[126.3463,36.56443],[126.34583,36.56394],[126.34536,36.56345],[126.34488,36.56296],[126.3444,36.56248],[126.34392,36.56201],[126.34343,36.56154],[126.34293,36.56107],[126.34243,36.56061],[126.34192,36.56016],[126.34141,36.55971],[126.3409,36.55927],[126.34038,36.55883],[126.33985,36.5584],[126.33932,36.55797],[126.33879,36.55755],[126.33825,36.55714],[126.33771,36.55673],[126.33716,36.55632],[126.33661,36.55593],[126.33606,36.55553],[126.3355,36.55515],[126.33494,36.55477],[126.33437,36.55439],[126.3338,36.55402],[126.33322,36.55366],[126.33264,36.55331],[126.33206,36.55296],[126.33148,36.55261],[126.33089,36.55227],[126.33029,36.55194],[126.3297,36.55162],[126.3291,36.5513],[126.32849,36.55099],[126.32789,36.55068],[126.32728,36.55038],[126.32666,36.55009],[126.32605,36.5498],[126.32543,36.54952],[126.32481,36.54925],[126.32418,36.54898],[126.32355,36.54872],[126.32292,36.54846],[126.32229,36.54822],[126.32165,36.54798],[126.32102,36.54774],[126.32038,36.54752],[126.31973,36.5473],[126.31909,36.54708],[126.31844,36.54688],[126.31779,36.54668],[126.31714,36.54648],[126.31649,36.5463],[126.31583,36.54612],[126.31517,36.54595],[126.31451,36.54578],[126.31385,36.54562],[126.31319,36.54547],[126.31253,36.54533],[126.31186,36.54519],[126.31119,36.54506],[126.31053,36.54494],[126.30986,36.54482],[126.30919,36.54471],[126.30851,36.54461],[126.30784,36.54451],[126.30717,36.54443],[126.30649,36.54434],[126.30582,36.54427],[126.30514,36.5442],[126.30446,36.54415],[126.30379,36.54409],[126.30311,36.54405],[126.30243,36.54401],[126.30175,36.54398],[126.30107,36.54396],[126.30039,36.54394],[126.29971,36.54393],[126.29903,36.54393],[126.29835,36.54393],[126.29767,36.54395],[126.297,36.54397],[126.29632,36.54399],[126.29564,36.54403],[126.29496,36.54407],[126.29428,36.54412],[126.2936,36.54417],[126.29806,36.56944],[126.26528,36.59778],[126.26528,36.61583],[126.25278,36.62944]]]]},"properties":{"atm_lbl_1":"Taean ATZ","atm_lbl_2":"1 500 AGL","atm_lbl_3":"SFC"},"id":"LT_C_AISATZC.13"},{"type":"Feature","geometry":{"type":"MultiPolygon","coordinates":[[[[126.29278,36.64417],[126.29338,36.6443],[126.29398,36.64442],[126.29458,36.64454],[126.29519,36.64465],[126.29579,36.64475],[126.2964,36.64485],[126.29701,36.64493],[126.29761,36.64502],[126.29822,36.64509],[126.29883,36.64516],[126.29945,36.64522],[126.30006,36.64527],[126.30067,36.64532],[126.30128,36.64536],[126.3019,36.64539],[126.30251,36.64541],[126.30312,36.64543],[126.30374,36.64544],[126.30435,36.64544],[126.30497,36.64544],[126.30558,36.64543],[126.30619,36.64541],[126.30681,36.64539],[126.30742,36.64535],[126.30803,36.64531],[126.30864,36.64527],[126.30926,36.64521],[126.30987,36.64515],[126.31048,36.64509],[126.31109,36.64501],[126.3117,36.64493],[126.3123,36.64484],[126.31291,36.64475],[126.31352,36.64464],[126.31412,36.64453],[126.31472,36.64442],[126.31532,36.64429],[126.31592,36.64416],[126.31652,36.64402],[126.31712,36.64388],[126.31771,36.64373],[126.31831,36.64357],[126.3189,36.6434],[126.31949,36.64323],[126.32008,36.64305],[126.32066,36.64287],[126.32124,36.64267],[126.32182,36.64247],[126.3224,36.64227],[126.32298,36.64206],[126.32355,36.64184],[126.32412,36.64161],[126.32469,36.64138],[126.32526,36.64114],[126.32582,36.64089],[126.32638,36.64064],[126.32694,36.64038],[126.32749,36.64012],[126.32804,36.63984],[126.32859,36.63957],[126.32913,36.63928],[126.32967,36.63899],[126.33021,36.63869],[126.33075,36.63839],[126.33128,36.63808],[126.3318,36.63777],[126.33233,36.63745],[126.33285,36.63712],[126.33336,36.63679],[126.33387,36.63645],[126.33438,36.6361],[126.33489,36.63575],[126.33538,36.63539],[126.33588,36.63503],[126.33637,36.63466],[126.33686,36.63429],[126.33734,36.63391],[126.33782,36.63352],[126.33829,36.63313],[126.33876,36.63273],[126.33923,36.63233],[126.33969,36.63193],[126.34014,36.63151],[126.34059,36.6311],[126.34104,36.63067],[126.34148,36.63024],[126.34191,36.62981],[126.34234,36.62937],[126.34277,36.62893],[126.34319,36.62848],[126.3436,36.62803],[126.34401,36.62757],[126.34442,36.62711],[126.34482,36.62664],[126.34521,36.62617],[126.3456,36.6257],[126.34598,36.62522],[126.34636,36.62473],[126.34673,36.62424],[126.34709,36.62375],[126.34745,36.62325],[126.34781,36.62275],[126.34815,36.62224],[126.3485,36.62173],[126.34883,36.62122],[126.34916,36.6207],[126.34949,36.62018],[126.34981,36.61965],[126.35012,36.61913],[126.35042,36.61859],[126.35072,36.61806],[126.35102,36.61752],[126.3513,36.61697],[126.35158,36.61643],[126.35186,36.61588],[126.35213,36.61533],[126.35239,36.61477],[126.35264,36.61421],[126.35289,36.61365],[126.35314,36.61309],[126.35337,36.61252],[126.3536,36.61195],[126.35382,36.61138],[126.35404,36.6108],[126.35425,36.61023],[126.35445,36.60965],[126.35465,36.60906],[126.35483,36.60848],[126.35502,36.60789],[126.35519,36.60731],[126.35536,36.60671],[126.35552,36.60612],[126.35568,36.60553],[126.35583,36.60493],[126.35597,36.60433],[126.3561,36.60374],[126.35623,36.60313],[126.35635,36.60253],[126.35646,36.60193],[126.35657,36.60132],[126.35667,36.60072],[126.35676,36.60011],[126.35684,36.5995],[126.35692,36.59889],[126.35699,36.59828],[126.35706,36.59767],[126.35711,36.59706],[126.35716,36.59645],[126.3572,36.59584],[126.35724,36.59522],[126.35727,36.59461],[126.35729,36.594],[126.3573,36.59338],[126.35731,36.59277],[126.35731,36.59215],[126.3573,36.59154],[126.35729,36.59093],[126.35727,36.59031],[126.35724,36.5897],[126.3572,36.58909],[126.35716,36.58847],[126.35711,36.58786],[126.35705,36.58725],[126.35699,36.58664],[126.35692,36.58603],[126.35684,36.58542],[126.35676,36.58481],[126.35666,36.58421],[126.35656,36.5836],[126.35646,36.58299],[126.35634,36.58239],[126.35622,36.58179],[126.3561,36.58119],[126.35596,36.58059],[126.35582,36.57999],[126.35567,36.5794],[126.35552,36.5788],[126.35536,36.57821],[126.35519,36.57762],[126.35501,36.57703],[126.35483,36.57644],[126.35464,36.57586],[126.35444,36.57528],[126.33028,36.58889],[126.30194,36.62139],[126.29278,36.64417]]]]},"properties":{"atm_lbl_1":"Taean ATZ","atm_lbl_2":"1 000 AGL","atm_lbl_3":"SFC"},"id":"LT_C_AISATZC.14"},{"type":"Feature","geometry":{"type":"MultiPolygon","coordinates":[[[[127.01694,35.83132],[127.01473,35.83132],[127.01252,35.83139],[127.01032,35.83152],[127.00813,35.83171],[127.00594,35.83197],[127.00377,35.83229],[127.00161,35.83267],[126.99947,35.83312],[126.99736,35.83363],[126.99526,35.8342],[126.9932,35.83483],[126.99116,35.83552],[126.98915,35.83627],[126.98718,35.83708],[126.98524,35.83795],[126.98335,35.83887],[126.9815,35.83984],[126.97969,35.84087],[126.97792,35.84196],[126.97621,35.84309],[126.97454,35.84427],[126.97293,35.8455],[126.97138,35.84678],[126.96988,35.8481],[126.96844,35.84946],[126.96707,35.85087],[126.96575,35.85231],[126.9645,35.85379],[126.96332,35.85531],[126.9622,35.85686],[126.96115,35.85844],[126.96017,35.86006],[126.95927,35.8617],[126.95844,35.86336],[126.95768,35.86505],[126.95699,35.86676],[126.95639,35.86849],[126.95586,35.87023],[126.9554,35.87199],[126.95502,35.87376],[126.95473,35.87554],[126.95451,35.87733],[126.95437,35.87913],[126.95431,35.88092],[126.95433,35.88272],[126.95442,35.88452],[126.9546,35.88631],[126.95486,35.88809],[126.95519,35.88987],[126.9556,35.89164],[126.95609,35.89339],[126.95666,35.89513],[126.9573,35.89685],[126.95802,35.89855],[126.95882,35.90023],[126.95968,35.90188],[126.96062,35.90351],[126.96163,35.9051],[126.96272,35.90667],[126.96386,35.90821],[126.96508,35.90971],[126.96636,35.91117],[126.96771,35.9126],[126.96912,35.91399],[126.97058,35.91533],[126.97211,35.91663],[126.97369,35.91788],[126.97533,35.91909],[126.97702,35.92025],[126.97876,35.92136],[126.98055,35.92242],[126.98238,35.92342],[126.98426,35.92437],[126.98618,35.92526],[126.98813,35.9261],[126.99012,35.92688],[126.99215,35.92761],[126.9942,35.92827],[126.99628,35.92887],[126.99839,35.92941],[127.00052,35.92989],[127.00267,35.9303],[127.00484,35.93066],[127.00702,35.93095],[127.00921,35.93117],[127.01142,35.93133],[127.01362,35.93143],[127.01583,35.93146],[127.01804,35.93143],[127.02025,35.93133],[127.02245,35.93117],[127.02465,35.93095],[127.02683,35.93066],[127.02899,35.9303],[127.03114,35.92989],[127.03327,35.92941],[127.03538,35.92887],[127.03747,35.92827],[127.03952,35.92761],[127.04155,35.92688],[127.04354,35.9261],[127.04549,35.92526],[127.04741,35.92437],[127.04929,35.92342],[127.05112,35.92242],[127.05291,35.92136],[127.05465,35.92025],[127.05634,35.91909],[127.05797,35.91788],[127.05956,35.91663],[127.06108,35.91533],[127.06255,35.91399],[127.06396,35.9126],[127.0653,35.91117],[127.06659,35.90971],[127.0678,35.90821],[127.06895,35.90667],[127.07003,35.9051],[127.07104,35.90351],[127.07198,35.90188],[127.07285,35.90023],[127.07364,35.89855],[127.07436,35.89685],[127.07501,35.89513],[127.07557,35.89339],[127.07606,35.89164],[127.07648,35.88987],[127.07681,35.88809],[127.07707,35.88631],[127.07724,35.88452],[127.07734,35.88272],[127.07736,35.88092],[127.0773,35.87913],[127.07716,35.87733],[127.07694,35.87554],[127.07664,35.87376],[127.07627,35.87199],[127.07581,35.87023],[127.07528,35.86849],[127.07467,35.86676],[127.07399,35.86505],[127.07323,35.86336],[127.0724,35.8617],[127.07149,35.86006],[127.07051,35.85844],[127.06947,35.85686],[127.06835,35.85531],[127.06717,35.85379],[127.06592,35.85231],[127.0646,35.85087],[127.06322,35.84946],[127.06178,35.8481],[127.06029,35.84678],[127.05873,35.8455],[127.05712,35.84427],[127.05546,35.84309],[127.05374,35.84196],[127.05198,35.84087],[127.05017,35.83984],[127.04832,35.83887],[127.04642,35.83795],[127.04449,35.83708],[127.04251,35.83627],[127.04051,35.83552],[127.03847,35.83483],[127.0364,35.8342],[127.03431,35.83363],[127.03219,35.83312],[127.03005,35.83267],[127.0279,35.83229],[127.02573,35.83197],[127.02354,35.83171],[127.02135,35.83152],[127.01914,35.83139],[127.01694,35.83132]]]]},"properties":{"atm_lbl_1":"Jeonju ATZ","atm_lbl_2":"1 500 AGL","atm_lbl_3":"SFC"},"id":"LT_C_AISATZC.15"},{"type":"Feature","geometry":{"type":"MultiPolygon","coordinates":[[[[127.29367,37.80897],[127.31544,37.81822],[127.37267,37.84252],[127.39445,37.85176],[127.39468,37.85162],[127.39647,37.85051],[127.3982,37.84936],[127.39988,37.84815],[127.4015,37.84689],[127.40307,37.8456],[127.40457,37.84425],[127.40602,37.84287],[127.4074,37.84144],[127.40871,37.83998],[127.40996,37.83848],[127.41114,37.83694],[127.41225,37.83537],[127.41328,37.83378],[127.41425,37.83215],[127.41514,37.8305],[127.41595,37.82882],[127.41669,37.82712],[127.41735,37.8254],[127.41793,37.82366],[127.41843,37.82191],[127.41885,37.82015],[127.4192,37.81837],[127.41946,37.81658],[127.41964,37.81479],[127.41974,37.813],[127.41976,37.8112],[127.4197,37.8094],[127.41955,37.80761],[127.41933,37.80582],[127.41902,37.80404],[127.41864,37.80227],[127.41817,37.80051],[127.41763,37.79877],[127.417,37.79704],[127.4163,37.79533],[127.41552,37.79364],[127.41467,37.79198],[127.41374,37.79034],[127.41274,37.78873],[127.41166,37.78715],[127.41052,37.7856],[127.40931,37.78408],[127.40802,37.7826],[127.40667,37.78115],[127.40526,37.77975],[127.40379,37.77839],[127.40225,37.77707],[127.40066,37.77579],[127.399,37.77456],[127.3973,37.77338],[127.39554,37.77225],[127.39373,37.77116],[127.39188,37.77013],[127.38998,37.76916],[127.38803,37.76824],[127.38605,37.76737],[127.38403,37.76656],[127.38197,37.76581],[127.37988,37.76512],[127.37776,37.76449],[127.37561,37.76392],[127.37344,37.76341],[127.37125,37.76297],[127.36904,37.76258],[127.36681,37.76226],[127.36457,37.762],[127.36232,37.76181],[127.36006,37.76168],[127.3578,37.76162],[127.35553,37.76162],[127.35327,37.76168],[127.35101,37.76181],[127.34876,37.762],[127.34652,37.76226],[127.3443,37.76258],[127.34208,37.76297],[127.33989,37.76341],[127.33772,37.76392],[127.33557,37.76449],[127.33345,37.76512],[127.33136,37.76581],[127.32931,37.76656],[127.32729,37.76737],[127.3253,37.76824],[127.32336,37.76916],[127.32146,37.77013],[127.3196,37.77116],[127.31779,37.77225],[127.31603,37.77338],[127.31433,37.77456],[127.31268,37.77579],[127.31108,37.77707],[127.30955,37.77839],[127.30807,37.77975],[127.30666,37.78115],[127.30531,37.7826],[127.30403,37.78408],[127.30281,37.7856],[127.30167,37.78715],[127.30059,37.78873],[127.29959,37.79034],[127.29866,37.79198],[127.29781,37.79364],[127.29703,37.79533],[127.29633,37.79704],[127.29571,37.79877],[127.29516,37.80051],[127.2947,37.80227],[127.29431,37.80404],[127.294,37.80582],[127.29378,37.80761],[127.29367,37.80897]]]]},"properties":{"atm_lbl_1":"Gapyeong ATZ","atm_lbl_2":"1 500 AGL","atm_lbl_3":"SFC"},"id":"LT_C_AISATZC.2"},{"type":"Feature","geometry":{"type":"MultiPolygon","coordinates":[[[[127.63,37.5331],[127.63225,37.53305],[127.63449,37.5329],[127.63672,37.53266],[127.63893,37.53233],[127.64112,37.5319],[127.64327,37.53138],[127.64538,37.53076],[127.64745,37.53006],[127.64947,37.52927],[127.65144,37.5284],[127.65334,37.52744],[127.65517,37.5264],[127.65693,37.52528],[127.65862,37.5241],[127.66022,37.52284],[127.66173,37.52151],[127.66316,37.52012],[127.66448,37.51868],[127.66571,37.51717],[127.66683,37.51562],[127.66785,37.51402],[127.66876,37.51238],[127.66956,37.51071],[127.67024,37.509],[127.67081,37.50727],[127.67126,37.50551],[127.67159,37.50374],[127.6718,37.50195],[127.67188,37.50016],[127.67185,37.49837],[127.6717,37.49658],[127.67143,37.4948],[127.67104,37.49304],[127.67053,37.49129],[127.6699,37.48957],[127.66916,37.48788],[127.66831,37.48622],[127.66734,37.48461],[127.66627,37.48303],[127.66509,37.4815],[127.66381,37.48003],[127.66244,37.47861],[127.66097,37.47725],[127.65941,37.47596],[127.65777,37.47474],[127.65604,37.47359],[127.65425,37.47251],[127.65238,37.47151],[127.65045,37.4706],[127.64846,37.46976],[127.64641,37.46902],[127.64432,37.46836],[127.64219,37.46779],[127.64002,37.46732],[127.63782,37.46694],[127.6356,37.46665],[127.63337,37.46646],[127.63112,37.46636],[127.62888,37.46636],[127.62663,37.46646],[127.6244,37.46665],[127.62218,37.46694],[127.61998,37.46732],[127.61781,37.46779],[127.61568,37.46836],[127.61359,37.46902],[127.61154,37.46976],[127.60955,37.4706],[127.60762,37.47151],[127.60575,37.47251],[127.60396,37.47359],[127.60223,37.47474],[127.60059,37.47596],[127.59903,37.47725],[127.59756,37.47861],[127.59619,37.48003],[127.59491,37.4815],[127.59373,37.48303],[127.59266,37.48461],[127.59169,37.48622],[127.59084,37.48788],[127.5901,37.48957],[127.58947,37.49129],[127.58896,37.49304],[127.58857,37.4948],[127.5883,37.49658],[127.58815,37.49837],[127.58812,37.50016],[127.5882,37.50195],[127.58841,37.50374],[127.58874,37.50551],[127.58919,37.50727],[127.58976,37.509],[127.59044,37.51071],[127.59124,37.51238],[127.59215,37.51402],[127.59317,37.51562],[127.59429,37.51717],[127.59552,37.51868],[127.59684,37.52012],[127.59827,37.52151],[127.59978,37.52284],[127.60138,37.5241],[127.60307,37.52528],[127.60483,37.5264],[127.60666,37.52744],[127.60856,37.5284],[127.61053,37.52927],[127.61255,37.53006],[127.61462,37.53076],[127.61673,37.53138],[127.61888,37.5319],[127.62107,37.53233],[127.62328,37.53266],[127.62551,37.5329],[127.62775,37.53305],[127.63,37.5331]]]]},"properties":{"atm_lbl_1":"Yangpyeong ATZ","atm_lbl_2":"1 500 AGL","atm_lbl_3":"SFC"},"id":"LT_C_AISATZC.3"},{"type":"Feature","geometry":{"type":"MultiPolygon","coordinates":[[[[127.90583,37.73671],[127.90809,37.73666],[127.91034,37.73651],[127.91257,37.73627],[127.91479,37.73594],[127.91698,37.73551],[127.91914,37.73499],[127.92126,37.73437],[127.92334,37.73367],[127.92536,37.73288],[127.92733,37.73201],[127.92924,37.73105],[127.93108,37.73001],[127.93284,37.72889],[127.93453,37.72771],[127.93614,37.72645],[127.93765,37.72512],[127.93908,37.72373],[127.94041,37.72229],[127.94164,37.72078],[127.94277,37.71923],[127.94379,37.71763],[127.9447,37.71599],[127.9455,37.71432],[127.94618,37.71261],[127.94675,37.71088],[127.9472,37.70912],[127.94753,37.70735],[127.94774,37.70556],[127.94783,37.70377],[127.9478,37.70198],[127.94765,37.70019],[127.94738,37.69842],[127.94698,37.69665],[127.94647,37.69491],[127.94584,37.69318],[127.9451,37.69149],[127.94424,37.68984],[127.94328,37.68822],[127.9422,37.68664],[127.94102,37.68511],[127.93974,37.68364],[127.93836,37.68222],[127.93689,37.68087],[127.93532,37.67957],[127.93368,37.67835],[127.93195,37.6772],[127.93015,37.67612],[127.92827,37.67513],[127.92634,37.67421],[127.92434,37.67338],[127.92229,37.67263],[127.92019,37.67197],[127.91805,37.67141],[127.91588,37.67093],[127.91368,37.67055],[127.91145,37.67026],[127.90921,37.67007],[127.90696,37.66997],[127.90471,37.66997],[127.90246,37.67007],[127.90021,37.67026],[127.89799,37.67055],[127.89579,37.67093],[127.89361,37.67141],[127.89147,37.67197],[127.88938,37.67263],[127.88733,37.67338],[127.88533,37.67421],[127.88339,37.67513],[127.88152,37.67612],[127.87972,37.6772],[127.87799,37.67835],[127.87634,37.67957],[127.87478,37.68087],[127.87331,37.68222],[127.87193,37.68364],[127.87065,37.68511],[127.86947,37.68664],[127.86839,37.68822],[127.86742,37.68984],[127.86657,37.69149],[127.86582,37.69318],[127.86519,37.69491],[127.86468,37.69665],[127.86429,37.69842],[127.86402,37.70019],[127.86387,37.70198],[127.86383,37.70377],[127.86392,37.70556],[127.86413,37.70735],[127.86447,37.70912],[127.86492,37.71088],[127.86548,37.71261],[127.86617,37.71432],[127.86697,37.71599],[127.86788,37.71763],[127.8689,37.71923],[127.87003,37.72078],[127.87126,37.72229],[127.87259,37.72373],[127.87401,37.72512],[127.87553,37.72645],[127.87714,37.72771],[127.87883,37.72889],[127.88059,37.73001],[127.88243,37.73105],[127.88434,37.73201],[127.88631,37.73288],[127.88833,37.73367],[127.89041,37.73437],[127.89253,37.73499],[127.89469,37.73551],[127.89688,37.73594],[127.89909,37.73627],[127.90133,37.73651],[127.90358,37.73666],[127.90583,37.73671]]]]},"properties":{"atm_lbl_1":"Hongcheon ATZ","atm_lbl_2":"1 500 AGL","atm_lbl_3":"SFC"},"id":"LT_C_AISATZC.4"},{"type":"Feature","geometry":{"type":"MultiPolygon","coordinates":[[[[128.31639,38.00644],[128.31866,38.00641],[128.32093,38.00632],[128.32319,38.00615],[128.32544,38.00593],[128.32768,38.00564],[128.32991,38.00529],[128.33212,38.00487],[128.33431,38.00439],[128.33648,38.00385],[128.33862,38.00325],[128.34073,38.00259],[128.34281,38.00187],[128.34485,38.00109],[128.34686,38.00025],[128.34883,37.99935],[128.35076,37.9984],[128.35264,37.9974],[128.35448,37.99634],[128.35627,37.99524],[128.358,37.99408],[128.35969,37.99287],[128.36131,37.99162],[128.36288,37.99032],[128.36439,37.98897],[128.36584,37.98759],[128.36722,37.98616],[128.36854,37.9847],[128.36979,37.9832],[128.37097,37.98166],[128.37208,37.9801],[128.37312,37.9785],[128.37408,37.97687],[128.37497,37.97522],[128.37579,37.97354],[128.37653,37.97184],[128.37719,37.97012],[128.37777,37.96839],[128.37827,37.96663],[128.3787,37.96487],[128.37904,37.96309],[128.3793,37.96131],[128.37949,37.95952],[128.37959,37.95772],[128.37961,37.95592],[128.37954,37.95413],[128.3794,37.95233],[128.37917,37.95054],[128.37887,37.94876],[128.37848,37.94699],[128.37801,37.94523],[128.37747,37.94349],[128.37684,37.94176],[128.37614,37.94005],[128.37536,37.93837],[128.37451,37.9367],[128.37357,37.93506],[128.37257,37.93345],[128.37149,37.93187],[128.37035,37.93032],[128.36913,37.9288],[128.36785,37.92732],[128.36649,37.92588],[128.36508,37.92447],[128.3636,37.92311],[128.36206,37.92179],[128.36046,37.92051],[128.35881,37.91928],[128.3571,37.9181],[128.35534,37.91697],[128.35353,37.91589],[128.35167,37.91486],[128.34976,37.91388],[128.34782,37.91296],[128.34583,37.91209],[128.3438,37.91129],[128.34174,37.91054],[128.33965,37.90985],[128.33752,37.90921],[128.33537,37.90864],[128.3332,37.90814],[128.331,37.90769],[128.32878,37.9073],[128.32655,37.90698],[128.32431,37.90673],[128.32205,37.90653],[128.31979,37.90641],[128.31752,37.90634],[128.31525,37.90634],[128.31299,37.90641],[128.31073,37.90653],[128.30847,37.90673],[128.30623,37.90698],[128.30399,37.9073],[128.30178,37.90769],[128.29958,37.90814],[128.29741,37.90864],[128.29525,37.90921],[128.29313,37.90985],[128.29104,37.91054],[128.28898,37.91129],[128.28695,37.91209],[128.28496,37.91296],[128.28301,37.91388],[128.28111,37.91486],[128.27925,37.91589],[128.27744,37.91697],[128.27568,37.9181],[128.27397,37.91928],[128.27231,37.92051],[128.27072,37.92179],[128.26918,37.92311],[128.2677,37.92447],[128.26628,37.92588],[128.26493,37.92732],[128.26365,37.9288],[128.26243,37.93032],[128.26128,37.93187],[128.26021,37.93345],[128.2592,37.93506],[128.25827,37.9367],[128.25742,37.93837],[128.25664,37.94005],[128.25593,37.94176],[128.25531,37.94349],[128.25476,37.94523],[128.2543,37.94699],[128.25391,37.94876],[128.2536,37.95054],[128.25338,37.95233],[128.25324,37.95413],[128.25317,37.95592],[128.25319,37.95772],[128.25329,37.95952],[128.25347,37.96131],[128.25374,37.96309],[128.25408,37.96487],[128.2545,37.96663],[128.25501,37.96839],[128.25559,37.97012],[128.25625,37.97184],[128.25699,37.97354],[128.25781,37.97522],[128.2587,37.97687],[128.25966,37.9785],[128.2607,37.9801],[128.26181,37.98166],[128.26299,37.9832],[128.26424,37.9847],[128.26556,37.98616],[128.26694,37.98759],[128.26839,37.98897],[128.2699,37.99032],[128.27146,37.99162],[128.27309,37.99287],[128.27477,37.99408],[128.27651,37.99524],[128.2783,37.99634],[128.28013,37.9974],[128.28202,37.9984],[128.28394,37.99935],[128.28591,38.00025],[128.28792,38.00109],[128.28997,38.00187],[128.29205,38.00259],[128.29416,38.00325],[128.2963,38.00385],[128.29847,38.00439],[128.30066,38.00487],[128.30287,38.00529],[128.30509,38.00564],[128.30733,38.00593],[128.30959,38.00615],[128.31185,38.00632],[128.31412,38.00641],[128.31639,38.00644]]]]},"properties":{"atm_lbl_1":"Hyeonri ATZ","atm_lbl_2":"1 500 AGL","atm_lbl_3":"SFC"},"id":"LT_C_AISATZC.5"},{"type":"Feature","geometry":{"type":"MultiPolygon","coordinates":[[[[127.28499,37.3028],[127.28516,37.3024],[127.28581,37.30068],[127.28639,37.29894],[127.28689,37.29719],[127.28731,37.29542],[127.28765,37.29365],[127.28791,37.29186],[127.28809,37.29007],[127.28819,37.28828],[127.28821,37.28648],[127.28815,37.28468],[127.288,37.28289],[127.28778,37.2811],[127.28748,37.27932],[127.28709,37.27755],[127.28663,37.27579],[127.28609,37.27404],[127.28547,37.27232],[127.28477,37.27061],[127.284,37.26892],[127.28315,37.26725],[127.28223,37.26562],[127.28124,37.264],[127.28017,37.26242],[127.27903,37.26087],[127.27783,37.25935],[127.27655,37.25787],[127.27521,37.25643],[127.27381,37.25502],[127.27235,37.25366],[127.27143,37.25286],[127.27082,37.25234],[127.26924,37.25106],[127.2676,37.24983],[127.2659,37.24865],[127.26416,37.24752],[127.26236,37.24644],[127.26052,37.24541],[127.25863,37.24443],[127.2567,37.24351],[127.25473,37.24265],[127.25272,37.24184],[127.25068,37.24109],[127.24861,37.2404],[127.2465,37.23976],[127.24437,37.23919],[127.24221,37.23869],[127.24004,37.23824],[127.23784,37.23785],[127.23563,37.23753],[127.2334,37.23728],[127.23117,37.23708],[127.22893,37.23696],[127.22668,37.23689],[127.22443,37.23689],[127.22219,37.23696],[127.21994,37.23708],[127.21771,37.23728],[127.21548,37.23753],[127.21327,37.23785],[127.21108,37.23824],[127.2089,37.23869],[127.20674,37.23919],[127.20461,37.23976],[127.2025,37.2404],[127.20043,37.24109],[127.19839,37.24184],[127.19638,37.24265],[127.19441,37.24351],[127.19248,37.24443],[127.19059,37.24541],[127.18875,37.24644],[127.18695,37.24752],[127.18521,37.24865],[127.18351,37.24983],[127.18187,37.25106],[127.18029,37.25234],[127.17971,37.25284],[127.17876,37.25366],[127.1773,37.25502],[127.1759,37.25643],[127.17456,37.25787],[127.17328,37.25935],[127.17208,37.26087],[127.17094,37.26242],[127.16987,37.264],[127.16888,37.26562],[127.16796,37.26725],[127.16711,37.26892],[127.16634,37.27061],[127.16564,37.27232],[127.16502,37.27404],[127.16448,37.27579],[127.16402,37.27755],[127.16363,37.27932],[127.16333,37.2811],[127.16311,37.28289],[127.16297,37.28468],[127.1629,37.28648],[127.16292,37.28828],[127.16302,37.29007],[127.1632,37.29186],[127.16346,37.29365],[127.1638,37.29542],[127.16422,37.29719],[127.16472,37.29894],[127.1653,37.30068],[127.16595,37.3024],[127.16612,37.30279],[127.16669,37.3041],[127.1675,37.30578],[127.16838,37.30743],[127.16934,37.30906],[127.17036,37.31065],[127.17147,37.31222],[127.17264,37.31376],[127.17387,37.31526],[127.17518,37.31672],[127.17655,37.31815],[127.17798,37.31953],[127.17948,37.32088],[127.18103,37.32218],[127.18264,37.32343],[127.18431,37.32464],[127.18603,37.3258],[127.1878,37.3269],[127.18962,37.32796],[127.19149,37.32897],[127.1934,37.32992],[127.19535,37.33081],[127.19734,37.33165],[127.19937,37.33243],[127.20143,37.33315],[127.20353,37.33381],[127.20565,37.33441],[127.20779,37.33495],[127.20996,37.33543],[127.21215,37.33585],[127.21436,37.3362],[127.21658,37.33649],[127.21882,37.33672],[127.22106,37.33688],[127.2233,37.33697],[127.22556,37.33701],[127.22682,37.33699],[127.23064,37.33425],[127.23547,37.33164],[127.24071,37.3296],[127.24626,37.32816],[127.252,37.32736],[127.25783,37.32719],[127.26218,37.32756],[127.26331,37.3269],[127.26508,37.3258],[127.2668,37.32464],[127.26847,37.32343],[127.27008,37.32218],[127.27163,37.32088],[127.27313,37.31953],[127.27456,37.31815],[127.27593,37.31672],[127.27724,37.31526],[127.27848,37.31376],[127.27965,37.31222],[127.28075,37.31065],[127.28178,37.30906],[127.28273,37.30743],[127.28362,37.30578],[127.28442,37.3041],[127.28499,37.3028]]]]},"properties":{"atm_lbl_1":"Yongin ATZ","atm_lbl_2":"1 500 AGL","atm_lbl_3":"SFC"},"id":"LT_C_AISATZC.6"},{"type":"Feature","geometry":{"type":"MultiPolygon","coordinates":[[[[128.81889,36.07566],[128.82111,36.07562],[128.82332,36.07553],[128.82552,36.07537],[128.82772,36.07514],[128.82991,36.07485],[128.83208,36.0745],[128.83424,36.07408],[128.83637,36.0736],[128.83849,36.07306],[128.84058,36.07246],[128.84264,36.0718],[128.84466,36.07108],[128.84666,36.07029],[128.84862,36.06946],[128.85054,36.06856],[128.85242,36.06761],[128.85426,36.0666],[128.85605,36.06555],[128.8578,36.06444],[128.85949,36.06328],[128.86113,36.06207],[128.86272,36.06081],[128.86425,36.05951],[128.86572,36.05817],[128.86713,36.05678],[128.86848,36.05536],[128.86977,36.05389],[128.87099,36.05239],[128.87214,36.05085],[128.87322,36.04928],[128.87423,36.04768],[128.87518,36.04606],[128.87605,36.0444],[128.87684,36.04272],[128.87756,36.04102],[128.87821,36.0393],[128.87878,36.03756],[128.87927,36.03581],[128.87968,36.03404],[128.88002,36.03226],[128.88027,36.03048],[128.88045,36.02868],[128.88055,36.02689],[128.88057,36.02509],[128.88051,36.02329],[128.88037,36.02149],[128.88015,36.0197],[128.87985,36.01792],[128.87947,36.01615],[128.87902,36.01439],[128.87848,36.01264],[128.87787,36.01091],[128.87719,36.0092],[128.87643,36.00751],[128.87559,36.00585],[128.87468,36.00421],[128.87371,36.00259],[128.87266,36.00101],[128.87154,35.99946],[128.87035,35.99794],[128.8691,35.99646],[128.86778,35.99501],[128.8664,35.99361],[128.86495,35.99224],[128.86345,35.99092],[128.86189,35.98964],[128.86028,35.98841],[128.85861,35.98723],[128.85689,35.9861],[128.85513,35.98501],[128.85331,35.98398],[128.85145,35.98301],[128.84955,35.98208],[128.84761,35.98122],[128.84564,35.98041],[128.84363,35.97966],[128.84158,35.97897],[128.83951,35.97833],[128.83741,35.97776],[128.83529,35.97725],[128.83315,35.97681],[128.83098,35.97642],[128.82881,35.9761],[128.82662,35.97584],[128.82442,35.97565],[128.82221,35.97552],[128.82,35.97546],[128.81778,35.97546],[128.81557,35.97552],[128.81336,35.97565],[128.81116,35.97584],[128.80897,35.9761],[128.8068,35.97642],[128.80463,35.97681],[128.80249,35.97725],[128.80037,35.97776],[128.79827,35.97833],[128.7962,35.97897],[128.79415,35.97966],[128.79214,35.98041],[128.79017,35.98122],[128.78823,35.98208],[128.78633,35.98301],[128.78447,35.98398],[128.78265,35.98501],[128.78089,35.9861],[128.77917,35.98723],[128.7775,35.98841],[128.77589,35.98964],[128.77433,35.99092],[128.77283,35.99224],[128.77138,35.99361],[128.77,35.99501],[128.76868,35.99646],[128.76743,35.99794],[128.76624,35.99946],[128.76512,36.00101],[128.76407,36.00259],[128.76309,36.00421],[128.76219,36.00585],[128.76135,36.00751],[128.76059,36.0092],[128.75991,36.01091],[128.7593,36.01264],[128.75876,36.01439],[128.75831,36.01615],[128.75793,36.01792],[128.75763,36.0197],[128.75741,36.02149],[128.75727,36.02329],[128.75721,36.02509],[128.75723,36.02689],[128.75733,36.02868],[128.75751,36.03048],[128.75776,36.03226],[128.7581,36.03404],[128.75851,36.03581],[128.759,36.03756],[128.75957,36.0393],[128.76022,36.04102],[128.76094,36.04272],[128.76173,36.0444],[128.7626,36.04606],[128.76355,36.04768],[128.76456,36.04928],[128.76564,36.05085],[128.76679,36.05239],[128.76801,36.05389],[128.7693,36.05536],[128.77065,36.05678],[128.77206,36.05817],[128.77353,36.05951],[128.77506,36.06081],[128.77665,36.06207],[128.77829,36.06328],[128.77998,36.06444],[128.78173,36.06555],[128.78352,36.0666],[128.78536,36.06761],[128.78724,36.06856],[128.78916,36.06946],[128.79112,36.07029],[128.79312,36.07108],[128.79514,36.0718],[128.7972,36.07246],[128.79929,36.07306],[128.80141,36.0736],[128.80354,36.07408],[128.8057,36.0745],[128.80787,36.07485],[128.81006,36.07514],[128.81226,36.07537],[128.81446,36.07553],[128.81667,36.07562],[128.81889,36.07566]]]]},"properties":{"atm_lbl_1":"Youngcheon ATZ","atm_lbl_2":"1 500 AGL","atm_lbl_3":"SFC"},"id":"LT_C_AISATZC.7"},{"type":"Feature","geometry":{"type":"MultiPolygon","coordinates":[[[[127.5625,37.05229],[127.56474,37.05225],[127.56698,37.05216],[127.56921,37.052],[127.57144,37.05177],[127.57365,37.05148],[127.57585,37.05113],[127.57803,37.05071],[127.58019,37.05023],[127.58233,37.04969],[127.58445,37.04909],[127.58653,37.04843],[127.58858,37.04771],[127.5906,37.04693],[127.59259,37.04609],[127.59453,37.0452],[127.59644,37.04425],[127.5983,37.04324],[127.60011,37.04218],[127.60188,37.04108],[127.60359,37.03992],[127.60525,37.03871],[127.60686,37.03746],[127.6084,37.03616],[127.60989,37.03481],[127.61132,37.03343],[127.61269,37.032],[127.61399,37.03054],[127.61522,37.02904],[127.61639,37.0275],[127.61748,37.02593],[127.61851,37.02433],[127.61946,37.02271],[127.62034,37.02106],[127.62115,37.01938],[127.62188,37.01768],[127.62253,37.01596],[127.62311,37.01422],[127.6236,37.01247],[127.62402,37.0107],[127.62436,37.00893],[127.62462,37.00714],[127.6248,37.00535],[127.6249,37.00355],[127.62492,37.00176],[127.62486,36.99996],[127.62471,36.99817],[127.62449,36.99638],[127.62419,36.9946],[127.62381,36.99283],[127.62335,36.99107],[127.62281,36.98932],[127.62219,36.98759],[127.6215,36.98588],[127.62073,36.9842],[127.61988,36.98253],[127.61896,36.98089],[127.61797,36.97928],[127.61691,36.9777],[127.61578,36.97615],[127.61458,36.97463],[127.61331,36.97315],[127.61197,36.97171],[127.61058,36.9703],[127.60912,36.96894],[127.6076,36.96762],[127.60602,36.96634],[127.60439,36.96511],[127.6027,36.96393],[127.60096,36.9628],[127.59917,36.96171],[127.59733,36.96068],[127.59545,36.95971],[127.59353,36.95879],[127.59157,36.95792],[127.58957,36.95711],[127.58753,36.95636],[127.58546,36.95567],[127.58337,36.95504],[127.58124,36.95447],[127.5791,36.95396],[127.57693,36.95351],[127.57474,36.95313],[127.57253,36.95281],[127.57032,36.95255],[127.56809,36.95236],[127.56586,36.95223],[127.56362,36.95217],[127.56138,36.95217],[127.55914,36.95223],[127.55691,36.95236],[127.55468,36.95255],[127.55247,36.95281],[127.55026,36.95313],[127.54807,36.95351],[127.5459,36.95396],[127.54376,36.95447],[127.54163,36.95504],[127.53954,36.95567],[127.53747,36.95636],[127.53543,36.95711],[127.53343,36.95792],[127.53147,36.95879],[127.52955,36.95971],[127.52767,36.96068],[127.52583,36.96171],[127.52404,36.9628],[127.5223,36.96393],[127.52061,36.96511],[127.51898,36.96634],[127.5174,36.96762],[127.51588,36.96894],[127.51442,36.9703],[127.51303,36.97171],[127.51169,36.97315],[127.51042,36.97463],[127.50922,36.97615],[127.50809,36.9777],[127.50703,36.97928],[127.50604,36.98089],[127.50512,36.98253],[127.50427,36.9842],[127.5035,36.98588],[127.50281,36.98759],[127.50219,36.98932],[127.50165,36.99107],[127.50119,36.99283],[127.50081,36.9946],[127.50051,36.99638],[127.50029,36.99817],[127.50014,36.99996],[127.50008,37.00176],[127.5001,37.00355],[127.5002,37.00535],[127.50038,37.00714],[127.50064,37.00893],[127.50098,37.0107],[127.5014,37.01247],[127.50189,37.01422],[127.50247,37.01596],[127.50312,37.01768],[127.50385,37.01938],[127.50466,37.02106],[127.50554,37.02271],[127.50649,37.02433],[127.50752,37.02593],[127.50861,37.0275],[127.50978,37.02904],[127.51101,37.03054],[127.51231,37.032],[127.51368,37.03343],[127.51511,37.03481],[127.5166,37.03616],[127.51814,37.03746],[127.51975,37.03871],[127.52141,37.03992],[127.52312,37.04108],[127.52489,37.04218],[127.5267,37.04324],[127.52856,37.04425],[127.53047,37.0452],[127.53241,37.04609],[127.5344,37.04693],[127.53642,37.04771],[127.53847,37.04843],[127.54055,37.04909],[127.54267,37.04969],[127.54481,37.05023],[127.54697,37.05071],[127.54915,37.05113],[127.55135,37.05148],[127.55356,37.05177],[127.55579,37.052],[127.55802,37.05216],[127.56026,37.05225],[127.5625,37.05229]]]]},"properties":{"atm_lbl_1":"Geumwang ATZ","atm_lbl_2":"1 500 AGL","atm_lbl_3":"SFC"},"id":"LT_C_AISATZC.8"},{"type":"Feature","geometry":{"type":"MultiPolygon","coordinates":[[[[127.71231,37.96439],[127.71394,37.96565],[127.71562,37.96686],[127.71736,37.96801],[127.71914,37.96912],[127.72098,37.97018],[127.72286,37.97118],[127.72479,37.97213],[127.72676,37.97303],[127.72877,37.97387],[127.73081,37.97465],[127.73152,37.97489],[127.76369,37.97896],[127.76402,37.97893],[127.76627,37.97871],[127.76851,37.97842],[127.77074,37.97806],[127.77295,37.97765],[127.77514,37.97717],[127.7773,37.97663],[127.77944,37.97603],[127.78155,37.97537],[127.78333,37.97475],[127.78363,37.97465],[127.78568,37.97387],[127.78769,37.97303],[127.78965,37.97213],[127.79158,37.97118],[127.79346,37.97018],[127.7953,37.96912],[127.79709,37.96801],[127.79882,37.96686],[127.8005,37.96565],[127.80213,37.96439],[127.8037,37.96309],[127.80521,37.96175],[127.80665,37.96037],[127.80803,37.95894],[127.80935,37.95748],[127.8106,37.95598],[127.81178,37.95444],[127.81289,37.95287],[127.81393,37.95128],[127.81489,37.94965],[127.81578,37.948],[127.8166,37.94632],[127.81734,37.94462],[127.818,37.9429],[127.81858,37.94116],[127.81908,37.93941],[127.81951,37.93765],[127.81985,37.93587],[127.82011,37.93408],[127.8203,37.93229],[127.8204,37.9305],[127.82042,37.9287],[127.82035,37.9269],[127.82021,37.92511],[127.81998,37.92332],[127.81968,37.92154],[127.81929,37.91977],[127.81882,37.91801],[127.81828,37.91627],[127.81765,37.91454],[127.81695,37.91283],[127.81617,37.91114],[127.81532,37.90948],[127.81439,37.90784],[127.81338,37.90623],[127.81231,37.90465],[127.81116,37.9031],[127.80994,37.90158],[127.80866,37.9001],[127.80731,37.89865],[127.80589,37.89725],[127.80442,37.89589],[127.80288,37.89457],[127.80128,37.89329],[127.79963,37.89206],[127.79792,37.89088],[127.79616,37.88975],[127.79435,37.88866],[127.79249,37.88763],[127.79058,37.88666],[127.78864,37.88574],[127.78665,37.88487],[127.78463,37.88406],[127.78333,37.88359],[127.78256,37.88331],[127.78047,37.88262],[127.77835,37.88199],[127.7762,37.88142],[127.77402,37.88091],[127.77183,37.88047],[127.76961,37.88008],[127.76738,37.87976],[127.76514,37.8795],[127.76288,37.87931],[127.76062,37.87918],[127.75836,37.87912],[127.75609,37.87912],[127.75382,37.87918],[127.75156,37.87931],[127.74931,37.8795],[127.74706,37.87976],[127.74483,37.88008],[127.74262,37.88047],[127.74042,37.88091],[127.73825,37.88142],[127.7361,37.88199],[127.73397,37.88262],[127.73188,37.88331],[127.72982,37.88406],[127.72779,37.88487],[127.72581,37.88574],[127.72386,37.88666],[127.72196,37.88763],[127.7201,37.88866],[127.71829,37.88975],[127.71653,37.89088],[127.71482,37.89206],[127.71316,37.89329],[127.71157,37.89457],[127.71003,37.89589],[127.70855,37.89725],[127.70713,37.89865],[127.70578,37.9001],[127.7045,37.90158],[127.70328,37.9031],[127.70214,37.90465],[127.70106,37.90623],[127.70006,37.90784],[127.69913,37.90948],[127.69827,37.91114],[127.69749,37.91283],[127.69679,37.91454],[127.69617,37.91627],[127.69562,37.91801],[127.69515,37.91977],[127.69477,37.92154],[127.69446,37.92332],[127.69424,37.92511],[127.69409,37.9269],[127.69403,37.9287],[127.69405,37.9305],[127.69415,37.93229],[127.69433,37.93408],[127.69459,37.93587],[127.69494,37.93765],[127.69536,37.93941],[127.69586,37.94116],[127.69645,37.9429],[127.69711,37.94462],[127.69785,37.94632],[127.69866,37.948],[127.69955,37.94965],[127.70052,37.95128],[127.70155,37.95287],[127.70266,37.95444],[127.70384,37.95598],[127.70509,37.95748],[127.70641,37.95894],[127.70779,37.96037],[127.70924,37.96175],[127.71075,37.96309],[127.71231,37.96439]]]]},"properties":{"atm_lbl_1":"Chuncheon ATZ","atm_lbl_2":"1 500 AGL","atm_lbl_3":"SFC"},"id":"LT_C_AISATZC.9"}]}