{"type":"FeatureCollection","features":[{"type":"Feature","geometry":{"type":"MultiPolygon","coordinates":[[[[127.44499,36.40445],[127.44279,36.40445],[127.4406,36.40463],[127.43846,36.40501],[127.43637,36.40557],[127.43437,36.4063],[127.43248,36.4072],[127.43071,36.40826],[127.4291,36.40947],[127.42765,36.4108],[127.42638,36.41226],[127.42532,36.41381],[127.42446,36.41545],[127.42383,36.41715],[127.42342,36.41889],[127.42325,36.42067],[127.4233,36.42244],[127.42359,36.4242],[127.42412,36.42593],[127.42486,36.4276],[127.42582,36.4292],[127.42699,36.4307],[127.42835,36.4321],[127.42988,36.43337],[127.43157,36.43451],[127.4334,36.43549],[127.43535,36.43631],[127.4374,36.43696],[127.43952,36.43742],[127.44169,36.43771],[127.44389,36.4378],[127.44608,36.43771],[127.44826,36.43742],[127.45038,36.43696],[127.45242,36.43631],[127.45437,36.43549],[127.45621,36.43451],[127.4579,36.43337],[127.45943,36.4321],[127.46079,36.4307],[127.46196,36.4292],[127.46292,36.4276],[127.46366,36.42593],[127.46418,36.4242],[127.46447,36.42244],[127.46453,36.42067],[127.46436,36.41889],[127.46395,36.41715],[127.46331,36.41545],[127.46246,36.41381],[127.46139,36.41226],[127.46013,36.4108],[127.45868,36.40947],[127.45707,36.40826],[127.4553,36.4072],[127.45341,36.4063],[127.45141,36.40557],[127.44932,36.40501],[127.44717,36.40463],[127.44499,36.40445]]]]},"properties":{"dng_lbl_1":"D16","dng_lbl_2":"2 000 AGL","dng_lbl_3":"GND"},"id":"LT_C_AISDNGC.10"},{"type":"Feature","geometry":{"type":"MultiPolygon","coordinates":[[[[129.50718,35.70463],[129.50758,35.69999],[129.50718,35.69534],[129.50599,35.69078],[129.50403,35.68641],[129.50135,35.6823],[129.49799,35.67853],[129.49403,35.67518],[129.48953,35.67231],[129.48458,35.66999],[129.47929,35.66824],[129.47375,35.66712],[129.46808,35.66663],[129.46237,35.66679],[129.45675,35.6676],[129.45132,35.66904],[129.44619,35.67108],[129.44146,35.67368],[129.43722,35.6768],[129.43355,35.68037],[129.43052,35.68431],[129.4282,35.68857],[129.42662,35.69305],[129.42582,35.69766],[129.42582,35.70231],[129.42661,35.70693],[129.42819,35.7114],[129.43051,35.71566],[129.43353,35.71961],[129.4372,35.72318],[129.44144,35.7263],[129.44618,35.7289],[129.45131,35.73094],[129.45674,35.73238],[129.46237,35.73319],[129.46808,35.73336],[129.47376,35.73287],[129.4793,35.73174],[129.4846,35.73],[129.48954,35.72767],[129.49404,35.7248],[129.49801,35.72145],[129.50136,35.71768],[129.50404,35.71357],[129.50599,35.70919],[129.50718,35.70463]]]]},"properties":{"dng_lbl_1":"D2","dng_lbl_2":"10 000 AGL","dng_lbl_3":"GND"},"id":"LT_C_AISDNGC.11"},{"type":"Feature","geometry":{"type":"MultiPolygon","coordinates":[[[[128.99699,35.96315],[128.99719,35.96083],[128.99699,35.95851],[128.9964,35.95623],[128.99542,35.95404],[128.99407,35.95199],[128.99239,35.9501],[128.9904,35.94843],[128.98814,35.94699],[128.98566,35.94583],[128.98301,35.94496],[128.98023,35.94439],[128.97738,35.94415],[128.97452,35.94423],[128.9717,35.94464],[128.96897,35.94536],[128.9664,35.94638],[128.96402,35.94768],[128.9619,35.94924],[128.96005,35.95102],[128.95854,35.95299],[128.95737,35.95512],[128.95658,35.95736],[128.95618,35.95967],[128.95618,35.96199],[128.95658,35.9643],[128.95737,35.96654],[128.95853,35.96867],[128.96005,35.97064],[128.96189,35.97242],[128.96402,35.97398],[128.9664,35.97529],[128.96897,35.97631],[128.97169,35.97703],[128.97452,35.97743],[128.97738,35.97751],[128.98023,35.97727],[128.98301,35.97671],[128.98566,35.97583],[128.98814,35.97467],[128.9904,35.97323],[128.99239,35.97156],[128.99407,35.96967],[128.99542,35.96762],[128.9964,35.96543],[128.99699,35.96315]]]]},"properties":{"dng_lbl_1":"D9","dng_lbl_2":"3 000 AGL","dng_lbl_3":"GND"},"id":"LT_C_AISDNGC.12"},{"type":"Feature","geometry":{"type":"MultiPolygon","coordinates":[[[[126.44842,35.41269],[126.44882,35.40804],[126.44842,35.4034],[126.44723,35.39884],[126.44529,35.39446],[126.44261,35.39035],[126.43927,35.38658],[126.43532,35.38324],[126.43083,35.38037],[126.42591,35.37804],[126.42063,35.3763],[126.41512,35.37517],[126.40946,35.37468],[126.40378,35.37485],[126.39818,35.37565],[126.39277,35.37709],[126.38766,35.37913],[126.38294,35.38174],[126.37871,35.38485],[126.37506,35.38842],[126.37204,35.39237],[126.36972,35.39662],[126.36815,35.4011],[126.36736,35.40571],[126.36736,35.41037],[126.36815,35.41498],[126.36971,35.41946],[126.37203,35.42372],[126.37504,35.42767],[126.3787,35.43124],[126.38292,35.43435],[126.38764,35.43696],[126.39276,35.439],[126.39817,35.44044],[126.40377,35.44125],[126.40946,35.44141],[126.41512,35.44093],[126.42064,35.4398],[126.42592,35.43805],[126.43085,35.43572],[126.43533,35.43286],[126.43928,35.4295],[126.44263,35.42573],[126.4453,35.42162],[126.44724,35.41724],[126.44842,35.41269]]]]},"properties":{"dng_lbl_1":"D7","dng_lbl_2":"10 000 AGL","dng_lbl_3":"GND"},"id":"LT_C_AISDNGC.13"},{"type":"Feature","geometry":{"type":"MultiPolygon","coordinates":[[[[129.42458,37.10463],[129.42498,37.09999],[129.42457,37.09534],[129.42336,37.09079],[129.42137,37.08641],[129.41864,37.0823],[129.41522,37.07853],[129.41119,37.07519],[129.40661,37.07232],[129.40157,37.06999],[129.39619,37.06825],[129.39055,37.06712],[129.38477,37.06664],[129.37896,37.0668],[129.37324,37.06761],[129.36771,37.06905],[129.36249,37.07109],[129.35767,37.07369],[129.35335,37.0768],[129.34961,37.08037],[129.34653,37.08432],[129.34417,37.08857],[129.34256,37.09305],[129.34175,37.09766],[129.34175,37.10231],[129.34255,37.10692],[129.34415,37.1114],[129.34652,37.11566],[129.3496,37.11961],[129.35333,37.12317],[129.35765,37.12629],[129.36247,37.12889],[129.3677,37.13094],[129.37323,37.13238],[129.37896,37.13318],[129.38477,37.13335],[129.39055,37.13286],[129.3962,37.13173],[129.40159,37.12999],[129.40662,37.12766],[129.4112,37.12479],[129.41524,37.12144],[129.41866,37.11767],[129.42139,37.11356],[129.42337,37.10919],[129.42458,37.10463]]]]},"properties":{"dng_lbl_1":"D8","dng_lbl_2":"8 000 AGL","dng_lbl_3":"GND"},"id":"LT_C_AISDNGC.14"},{"type":"Feature","geometry":{"type":"MultiPolygon","coordinates":[[[[126.87444,37.5339],[126.87661,37.53367],[126.87864,37.533],[126.88037,37.53194],[126.8817,37.53056],[126.88254,37.52895],[126.88283,37.52722],[126.88254,37.52549],[126.8817,37.52388],[126.88037,37.5225],[126.87863,37.52144],[126.87661,37.52078],[126.87444,37.52055],[126.87228,37.52078],[126.87025,37.52144],[126.86852,37.5225],[126.86719,37.52388],[126.86635,37.52549],[126.86606,37.52722],[126.86635,37.52895],[126.86719,37.53056],[126.86852,37.53194],[126.87025,37.533],[126.87228,37.53367],[126.87444,37.5339]]]]},"properties":{"dng_lbl_1":"D30","dng_lbl_2":"1 900 AGL","dng_lbl_3":"GND"},"id":"LT_C_AISDNGC.15"},{"type":"Feature","geometry":{"type":"MultiPolygon","coordinates":[[[[128.99944,35.21334],[129.00153,35.21304],[129.00337,35.21217],[129.00473,35.21084],[129.00545,35.2092],[129.00545,35.20746],[129.00473,35.20583],[129.00337,35.2045],[129.00153,35.20363],[128.99944,35.20333],[128.99736,35.20363],[128.99552,35.2045],[128.99416,35.20583],[128.99344,35.20746],[128.99344,35.2092],[128.99416,35.21084],[128.99552,35.21217],[128.99736,35.21304],[128.99944,35.21334]]]]},"properties":{"dng_lbl_1":"D31","dng_lbl_2":"1 600 AGL","dng_lbl_3":"GND"},"id":"LT_C_AISDNGC.16"},{"type":"Feature","geometry":{"type":"MultiPolygon","coordinates":[[[[129.08306,35.2275],[129.0925,35.22361],[129.085,35.21],[129.07417,35.21444],[129.08306,35.2275]]]]},"properties":{"dng_lbl_1":"D32","dng_lbl_2":"1 600 AGL","dng_lbl_3":"GND"},"id":"LT_C_AISDNGC.17"},{"type":"Feature","geometry":{"type":"MultiPolygon","coordinates":[[[[127.25417,35.69644],[127.25636,35.69639],[127.25855,35.69625],[127.26073,35.69601],[127.26289,35.69567],[127.26502,35.69524],[127.26713,35.69472],[127.26919,35.69411],[127.27121,35.6934],[127.27318,35.69261],[127.2751,35.69174],[127.27696,35.69078],[127.27875,35.68974],[127.28047,35.68863],[127.28211,35.68744],[127.28368,35.68618],[127.28516,35.68485],[127.28655,35.68346],[127.28784,35.68201],[127.28904,35.68051],[127.29014,35.67896],[127.29113,35.67736],[127.29202,35.67572],[127.2928,35.67405],[127.29346,35.67234],[127.29402,35.6706],[127.29446,35.66885],[127.29478,35.66707],[127.29498,35.66529],[127.29507,35.6635],[127.29504,35.6617],[127.29489,35.65992],[127.29463,35.65814],[127.29424,35.65637],[127.29375,35.65463],[127.29313,35.6529],[127.29241,35.65121],[127.29158,35.64955],[127.29063,35.64793],[127.28959,35.64636],[127.28844,35.64483],[127.28719,35.64336],[127.28585,35.64194],[127.28441,35.64058],[127.28289,35.63929],[127.28128,35.63806],[127.2796,35.63691],[127.27785,35.63584],[127.27602,35.63484],[127.27414,35.63392],[127.27219,35.63309],[127.27019,35.63234],[127.26815,35.63168],[127.26607,35.63112],[127.26395,35.63064],[127.26181,35.63026],[127.25964,35.62997],[127.25746,35.62978],[127.25526,35.62968],[127.25307,35.62968],[127.25088,35.62978],[127.24869,35.62997],[127.24653,35.63026],[127.24438,35.63064],[127.24226,35.63112],[127.24018,35.63168],[127.23814,35.63234],[127.23614,35.63309],[127.2342,35.63392],[127.23231,35.63484],[127.23049,35.63584],[127.22873,35.63691],[127.22705,35.63806],[127.22544,35.63929],[127.22392,35.64058],[127.22249,35.64194],[127.22114,35.64336],[127.2199,35.64483],[127.21875,35.64636],[127.2177,35.64793],[127.21676,35.64955],[127.21592,35.65121],[127.2152,35.6529],[127.21459,35.65463],[127.21409,35.65637],[127.21371,35.65814],[127.21344,35.65992],[127.21329,35.6617],[127.21326,35.6635],[127.21335,35.66529],[127.21356,35.66707],[127.21388,35.66885],[127.21432,35.6706],[127.21487,35.67234],[127.21554,35.67405],[127.21631,35.67572],[127.2172,35.67736],[127.2182,35.67896],[127.21929,35.68051],[127.22049,35.68201],[127.22179,35.68346],[127.22318,35.68485],[127.22466,35.68618],[127.22622,35.68744],[127.22786,35.68863],[127.22958,35.68974],[127.23137,35.69078],[127.23323,35.69174],[127.23515,35.69261],[127.23712,35.6934],[127.23914,35.69411],[127.24121,35.69472],[127.24331,35.69524],[127.24544,35.69567],[127.2476,35.69601],[127.24978,35.69625],[127.25197,35.69639],[127.25417,35.69644]]]]},"properties":{"dng_lbl_1":"D17","dng_lbl_2":"3 000 AGL","dng_lbl_3":"GND"},"id":"LT_C_AISDNGC.18"},{"type":"Feature","geometry":{"type":"MultiPolygon","coordinates":[[[[127.70722,36.08752],[127.70941,36.08743],[127.71157,36.08715],[127.71368,36.08668],[127.71572,36.08603],[127.71766,36.08521],[127.71948,36.08423],[127.72117,36.0831],[127.7227,36.08182],[127.72405,36.08043],[127.72521,36.07892],[127.72616,36.07732],[127.72691,36.07565],[127.72743,36.07392],[127.72772,36.07216],[127.72777,36.07039],[127.7276,36.06862],[127.72719,36.06687],[127.72656,36.06517],[127.72571,36.06353],[127.72465,36.06198],[127.72339,36.06053],[127.72195,36.05919],[127.72034,36.05798],[127.71859,36.05692],[127.7167,36.05602],[127.71471,36.05529],[127.71263,36.05473],[127.71049,36.05436],[127.70832,36.05417],[127.70613,36.05417],[127.70395,36.05436],[127.70181,36.05473],[127.69974,36.05529],[127.69774,36.05602],[127.69586,36.05692],[127.6941,36.05798],[127.69249,36.05919],[127.69105,36.06053],[127.6898,36.06198],[127.68874,36.06353],[127.68788,36.06517],[127.68725,36.06687],[127.68685,36.06862],[127.68667,36.07039],[127.68673,36.07216],[127.68702,36.07392],[127.68754,36.07565],[127.68828,36.07732],[127.68924,36.07892],[127.6904,36.08043],[127.69175,36.08182],[127.69327,36.0831],[127.69496,36.08423],[127.69678,36.08521],[127.69873,36.08603],[127.70076,36.08668],[127.70288,36.08715],[127.70504,36.08743],[127.70722,36.08752]]]]},"properties":{"dng_lbl_1":"D18","dng_lbl_2":"3 000 AGL","dng_lbl_3":"GND"},"id":"LT_C_AISDNGC.19"},{"type":"Feature","geometry":{"type":"MultiPolygon","coordinates":[[[[128.24807,37.07136],[128.24582,37.07136],[128.24358,37.07147],[128.24136,37.07169],[128.23915,37.07201],[128.23697,37.07243],[128.23483,37.07296],[128.23273,37.07359],[128.23068,37.07432],[128.22869,37.07515],[128.22676,37.07607],[128.22491,37.07709],[128.22313,37.07818],[128.22144,37.07937],[128.21985,37.08063],[128.21834,37.08196],[128.21695,37.08337],[128.21565,37.08484],[128.21447,37.08637],[128.21341,37.08795],[128.21247,37.08958],[128.21165,37.09125],[128.21095,37.09296],[128.21039,37.0947],[128.20995,37.09646],[128.20965,37.09824],[128.20948,37.10004],[128.20945,37.10183],[128.20955,37.10363],[128.20978,37.10542],[128.21015,37.10719],[128.21065,37.10894],[128.21127,37.11067],[128.21203,37.11236],[128.21291,37.11401],[128.21391,37.11562],[128.21504,37.11718],[128.21627,37.11868],[128.21762,37.12011],[128.21907,37.12148],[128.22062,37.12278],[128.22226,37.12401],[128.224,37.12515],[128.22581,37.12621],[128.2277,37.12717],[128.22966,37.12805],[128.23169,37.12883],[128.23376,37.12951],[128.23589,37.13009],[128.23805,37.13057],[128.24025,37.13094],[128.24247,37.13121],[128.2447,37.13137],[128.24694,37.13143],[128.24919,37.13137],[128.25142,37.13121],[128.25364,37.13094],[128.25584,37.13057],[128.258,37.13009],[128.26013,37.12951],[128.2622,37.12883],[128.26423,37.12805],[128.26619,37.12717],[128.26808,37.12621],[128.26989,37.12515],[128.27163,37.12401],[128.27327,37.12278],[128.27482,37.12148],[128.27627,37.12011],[128.27762,37.11868],[128.27885,37.11718],[128.27997,37.11562],[128.28098,37.11401],[128.28186,37.11236],[128.28261,37.11067],[128.28324,37.10894],[128.28374,37.10719],[128.28411,37.10542],[128.28434,37.10363],[128.28444,37.10183],[128.28441,37.10004],[128.28424,37.09824],[128.28394,37.09646],[128.2835,37.0947],[128.28294,37.09296],[128.28224,37.09125],[128.28142,37.08958],[128.28048,37.08795],[128.27941,37.08637],[128.27824,37.08484],[128.27694,37.08337],[128.27554,37.08196],[128.27404,37.08063],[128.27244,37.07937],[128.27075,37.07818],[128.26898,37.07709],[128.26713,37.07607],[128.2652,37.07515],[128.26321,37.07432],[128.26116,37.07359],[128.25906,37.07296],[128.25692,37.07243],[128.25474,37.07201],[128.25253,37.07169],[128.2503,37.07147],[128.24807,37.07136]]]]},"properties":{"dng_lbl_1":"D14","dng_lbl_2":"3 000 AGL","dng_lbl_3":"GND"},"id":"LT_C_AISDNGC.2"},{"type":"Feature","geometry":{"type":"MultiPolygon","coordinates":[[[[127.09639,37.53889],[127.09848,37.53845],[127.10002,37.53722],[127.10058,37.53556],[127.10002,37.53389],[127.09848,37.53267],[127.09639,37.53222],[127.09429,37.53267],[127.09276,37.53389],[127.0922,37.53556],[127.09276,37.53722],[127.09429,37.53845],[127.09639,37.53889]]]]},"properties":{"dng_lbl_1":"D20","dng_lbl_2":"1 600 AGL","dng_lbl_3":"GND"},"id":"LT_C_AISDNGC.20"},{"type":"Feature","geometry":{"type":"MultiPolygon","coordinates":[[[[127.07278,37.54251],[127.07493,37.5422],[127.07682,37.54133],[127.07822,37.54],[127.07897,37.53837],[127.07897,37.53663],[127.07822,37.535],[127.07682,37.53367],[127.07493,37.5328],[127.07278,37.53249],[127.07063,37.5328],[127.06874,37.53367],[127.06733,37.535],[127.06659,37.53663],[127.06659,37.53837],[127.06733,37.54],[127.06874,37.54133],[127.07063,37.5422],[127.07278,37.54251]]]]},"properties":{"dng_lbl_1":"D21","dng_lbl_2":"1 700 AGL","dng_lbl_3":"GND"},"id":"LT_C_AISDNGC.21"},{"type":"Feature","geometry":{"type":"MultiPolygon","coordinates":[[[[127.74611,36.99614],[127.74834,36.99606],[127.75056,36.99584],[127.75275,36.99547],[127.75489,36.99496],[127.75698,36.99431],[127.75898,36.99352],[127.7609,36.99261],[127.76272,36.99156],[127.76443,36.9904],[127.76601,36.98914],[127.76745,36.98777],[127.76875,36.98631],[127.76989,36.98477],[127.77088,36.98316],[127.77169,36.98149],[127.77232,36.97977],[127.77278,36.97801],[127.77306,36.97623],[127.77315,36.97444],[127.77306,36.97265],[127.77278,36.97087],[127.77232,36.96912],[127.77168,36.9674],[127.77087,36.96573],[127.76989,36.96412],[127.76874,36.96258],[127.76745,36.96112],[127.766,36.95975],[127.76442,36.95848],[127.76272,36.95732],[127.7609,36.95628],[127.75898,36.95536],[127.75697,36.95458],[127.75489,36.95393],[127.75275,36.95341],[127.75056,36.95305],[127.74834,36.95282],[127.74611,36.95275],[127.74388,36.95282],[127.74166,36.95305],[127.73948,36.95341],[127.73733,36.95393],[127.73525,36.95458],[127.73325,36.95536],[127.73133,36.95628],[127.72951,36.95732],[127.7278,36.95848],[127.72622,36.95975],[127.72478,36.96112],[127.72348,36.96258],[127.72233,36.96412],[127.72135,36.96573],[127.72054,36.9674],[127.7199,36.96912],[127.71944,36.97087],[127.71917,36.97265],[127.71907,36.97444],[127.71916,36.97623],[127.71944,36.97801],[127.7199,36.97977],[127.72053,36.98149],[127.72135,36.98316],[127.72233,36.98477],[127.72347,36.98631],[127.72477,36.98777],[127.72621,36.98914],[127.72779,36.9904],[127.7295,36.99156],[127.73132,36.99261],[127.73324,36.99352],[127.73525,36.99431],[127.73733,36.99496],[127.73947,36.99547],[127.74166,36.99584],[127.74388,36.99606],[127.74611,36.99614]]]]},"properties":{"dng_lbl_1":"D19","dng_lbl_2":"1 000 AGL","dng_lbl_3":"GND"},"id":"LT_C_AISDNGC.22"},{"type":"Feature","geometry":{"type":"MultiPolygon","coordinates":[[[[127.05917,37.5225],[127.065,37.51861],[127.06639,37.51222],[127.055,37.50111],[127.04944,37.50556],[127.05806,37.51444],[127.05389,37.51778],[127.05917,37.5225]]]]},"properties":{"dng_lbl_1":"D22","dng_lbl_2":"1 800 AGL","dng_lbl_3":"GND"},"id":"LT_C_AISDNGC.23"},{"type":"Feature","geometry":{"type":"MultiPolygon","coordinates":[[[[127.05472,37.49],[127.05583,37.48833],[127.05167,37.48583],[127.05028,37.48806],[127.05472,37.49]]]]},"properties":{"dng_lbl_1":"D23","dng_lbl_2":"1 900 AGL","dng_lbl_3":"GND"},"id":"LT_C_AISDNGC.24"},{"type":"Feature","geometry":{"type":"MultiPolygon","coordinates":[[[[127.0375,37.50528],[127.04333,37.50056],[127.02611,37.49361],[127.02417,37.49833],[127.0375,37.50528]]]]},"properties":{"dng_lbl_1":"D24","dng_lbl_2":"1 700 AGL","dng_lbl_3":"GND"},"id":"LT_C_AISDNGC.25"},{"type":"Feature","geometry":{"type":"MultiPolygon","coordinates":[[[[127.01667,37.48834],[127.01882,37.48804],[127.0207,37.48717],[127.02211,37.48584],[127.02285,37.4842],[127.02285,37.48246],[127.02211,37.48083],[127.0207,37.4795],[127.01882,37.47863],[127.01667,37.47833],[127.01452,37.47863],[127.01263,37.4795],[127.01123,37.48083],[127.01048,37.48246],[127.01048,37.4842],[127.01123,37.48584],[127.01263,37.48717],[127.01452,37.48804],[127.01667,37.48834]]]]},"properties":{"dng_lbl_1":"D25","dng_lbl_2":"1 500 AGL","dng_lbl_3":"GND"},"id":"LT_C_AISDNGC.26"},{"type":"Feature","geometry":{"type":"MultiPolygon","coordinates":[[[[126.92444,37.49612],[126.92659,37.49582],[126.92848,37.49495],[126.92989,37.49361],[126.93063,37.49198],[126.93063,37.49024],[126.92989,37.48861],[126.92848,37.48728],[126.92659,37.48641],[126.92444,37.48611],[126.9223,37.48641],[126.92041,37.48728],[126.919,37.48861],[126.91826,37.49024],[126.91826,37.49198],[126.919,37.49361],[126.92041,37.49495],[126.9223,37.49582],[126.92444,37.49612]]]]},"properties":{"dng_lbl_1":"D26","dng_lbl_2":"1 600 AGL","dng_lbl_3":"GND"},"id":"LT_C_AISDNGC.27"},{"type":"Feature","geometry":{"type":"MultiPolygon","coordinates":[[[[126.92972,37.52861],[126.94139,37.51972],[126.93972,37.5175],[126.92083,37.51889],[126.91722,37.52167],[126.92972,37.52861]]]]},"properties":{"dng_lbl_1":"D27","dng_lbl_2":"1 900 AGL","dng_lbl_3":"GND"},"id":"LT_C_AISDNGC.28"},{"type":"Feature","geometry":{"type":"MultiPolygon","coordinates":[[[[129.08361,35.17973],[129.0857,35.17943],[129.08753,35.17856],[129.08889,35.17723],[129.08962,35.17559],[129.08962,35.17385],[129.08889,35.17222],[129.08753,35.17089],[129.0857,35.17002],[129.08361,35.16971],[129.08153,35.17002],[129.07969,35.17089],[129.07833,35.17222],[129.0776,35.17385],[129.0776,35.17559],[129.07833,35.17723],[129.07969,35.17856],[129.08152,35.17943],[129.08361,35.17973]]]]},"properties":{"dng_lbl_1":"D33","dng_lbl_2":"1 500 AGL","dng_lbl_3":"GND"},"id":"LT_C_AISDNGC.29"},{"type":"Feature","geometry":{"type":"MultiPolygon","coordinates":[[[[127.16305,36.90805],[127.16084,36.90805],[127.15864,36.90822],[127.15647,36.90857],[127.15436,36.90907],[127.15231,36.90974],[127.15036,36.91057],[127.14851,36.91154],[127.14678,36.91265],[127.1452,36.91389],[127.14378,36.91524],[127.14252,36.9167],[127.14145,36.91825],[127.14057,36.91988],[127.13988,36.92156],[127.13941,36.9233],[127.13914,36.92506],[127.13909,36.92683],[127.13925,36.9286],[127.13962,36.93035],[127.1402,36.93206],[127.14098,36.93372],[127.14196,36.93531],[127.14312,36.93682],[127.14447,36.93823],[127.14597,36.93952],[127.14762,36.9407],[127.14941,36.94174],[127.15132,36.94264],[127.15332,36.94339],[127.1554,36.94398],[127.15755,36.9444],[127.15974,36.94466],[127.16194,36.94475],[127.16415,36.94466],[127.16634,36.9444],[127.16848,36.94398],[127.17057,36.94339],[127.17257,36.94264],[127.17448,36.94174],[127.17626,36.9407],[127.17792,36.93952],[127.17942,36.93823],[127.18076,36.93682],[127.18193,36.93531],[127.18291,36.93372],[127.18369,36.93206],[127.18427,36.93035],[127.18464,36.9286],[127.1848,36.92683],[127.18475,36.92506],[127.18448,36.9233],[127.184,36.92156],[127.18332,36.91988],[127.18244,36.91825],[127.18136,36.9167],[127.18011,36.91524],[127.17868,36.91389],[127.1771,36.91265],[127.17538,36.91154],[127.17353,36.91057],[127.17158,36.90974],[127.16953,36.90907],[127.16742,36.90857],[127.16525,36.90822],[127.16305,36.90805]]]]},"properties":{"dng_lbl_1":"D13","dng_lbl_2":"3 000 AGL","dng_lbl_3":"GND"},"id":"LT_C_AISDNGC.3"},{"type":"Feature","geometry":{"type":"MultiPolygon","coordinates":[[[[129.10667,35.14529],[129.10875,35.14498],[129.11059,35.14411],[129.11195,35.14278],[129.11267,35.14115],[129.11267,35.13941],[129.11195,35.13777],[129.11059,35.13644],[129.10875,35.13557],[129.10667,35.13527],[129.10458,35.13557],[129.10275,35.13644],[129.10139,35.13777],[129.10066,35.13941],[129.10066,35.14115],[129.10139,35.14278],[129.10275,35.14411],[129.10458,35.14498],[129.10667,35.14529]]]]},"properties":{"dng_lbl_1":"D34","dng_lbl_2":"1 600 AGL","dng_lbl_3":"GND"},"id":"LT_C_AISDNGC.30"},{"type":"Feature","geometry":{"type":"MultiPolygon","coordinates":[[[[129.04833,35.15722],[129.05806,35.16389],[129.07389,35.14694],[129.06417,35.14028],[129.04833,35.15722]]]]},"properties":{"dng_lbl_1":"D35","dng_lbl_2":"2 000 AGL","dng_lbl_3":"GND"},"id":"LT_C_AISDNGC.31"},{"type":"Feature","geometry":{"type":"MultiPolygon","coordinates":[[[[129.145,35.14694],[129.11056,35.17861],[129.12083,35.18667],[129.16194,35.15889],[129.145,35.14694]]]]},"properties":{"dng_lbl_1":"D36","dng_lbl_2":"2 000 AGL","dng_lbl_3":"GND"},"id":"LT_C_AISDNGC.32"},{"type":"Feature","geometry":{"type":"MultiPolygon","coordinates":[[[[129.18278,35.17083],[129.19111,35.16444],[129.17917,35.15361],[129.17056,35.16],[129.18278,35.17083]]]]},"properties":{"dng_lbl_1":"D37","dng_lbl_2":"1 600 AGL","dng_lbl_3":"GND"},"id":"LT_C_AISDNGC.33"},{"type":"Feature","geometry":{"type":"MultiPolygon","coordinates":[[[[129.34029,35.32131],[129.34068,35.31666],[129.34029,35.31201],[129.3391,35.30746],[129.33716,35.30308],[129.33449,35.29897],[129.33115,35.2952],[129.3272,35.29185],[129.32272,35.28899],[129.3178,35.28666],[129.31253,35.28491],[129.30702,35.28379],[129.30137,35.2833],[129.29569,35.28346],[129.2901,35.28427],[129.2847,35.28571],[129.27959,35.28775],[129.27488,35.29036],[129.27066,35.29347],[129.267,35.29704],[129.26399,35.30099],[129.26168,35.30524],[129.26011,35.30972],[129.25932,35.31433],[129.25932,35.31899],[129.2601,35.3236],[129.26167,35.32808],[129.26398,35.33233],[129.26699,35.33629],[129.27064,35.33985],[129.27486,35.34297],[129.27958,35.34558],[129.28469,35.34762],[129.29009,35.34906],[129.29569,35.34987],[129.30137,35.35003],[129.30703,35.34954],[129.31254,35.34842],[129.31781,35.34667],[129.32274,35.34434],[129.32722,35.34147],[129.33116,35.33812],[129.3345,35.33435],[129.33717,35.33024],[129.33911,35.32586],[129.34029,35.32131]]]]},"properties":{"dng_lbl_1":"D1","dng_lbl_2":"10 000 AGL","dng_lbl_3":"GND"},"id":"LT_C_AISDNGC.4"},{"type":"Feature","geometry":{"type":"MultiPolygon","coordinates":[[[[127.23276,35.71621],[127.23296,35.71389],[127.23276,35.71156],[127.23217,35.70928],[127.23119,35.7071],[127.22985,35.70504],[127.22817,35.70316],[127.22619,35.70148],[127.22394,35.70005],[127.22147,35.69888],[127.21882,35.69801],[127.21605,35.69745],[127.21321,35.69721],[127.21036,35.69729],[127.20755,35.69769],[127.20483,35.69841],[127.20226,35.69943],[127.1999,35.70073],[127.19778,35.70229],[127.19594,35.70407],[127.19443,35.70605],[127.19326,35.70818],[127.19248,35.71041],[127.19208,35.71272],[127.19208,35.71505],[127.19248,35.71736],[127.19326,35.71959],[127.19442,35.72172],[127.19594,35.7237],[127.19777,35.72548],[127.19989,35.72704],[127.20226,35.72834],[127.20483,35.72936],[127.20754,35.73008],[127.21036,35.73049],[127.21321,35.73057],[127.21605,35.73032],[127.21882,35.72976],[127.22147,35.72889],[127.22394,35.72772],[127.22619,35.72629],[127.22818,35.72462],[127.22985,35.72273],[127.23119,35.72067],[127.23217,35.71849],[127.23276,35.71621]]]]},"properties":{"dng_lbl_1":"D5","dng_lbl_2":"3 000 AGL","dng_lbl_3":"GND"},"id":"LT_C_AISDNGC.5"},{"type":"Feature","geometry":{"type":"MultiPolygon","coordinates":[[[[127.7325,36.12386],[127.73028,36.12386],[127.72806,36.12398],[127.72586,36.1242],[127.72368,36.12455],[127.72154,36.125],[127.71943,36.12556],[127.71737,36.12623],[127.71536,36.127],[127.71342,36.12788],[127.71156,36.12885],[127.70977,36.12992],[127.70807,36.13107],[127.70646,36.13232],[127.70495,36.13364],[127.70355,36.13504],[127.70227,36.1365],[127.7011,36.13803],[127.70005,36.13962],[127.69912,36.14126],[127.69833,36.14294],[127.69767,36.14466],[127.69715,36.14641],[127.69676,36.14818],[127.69651,36.14997],[127.69641,36.15177],[127.69644,36.15357],[127.69662,36.15536],[127.69693,36.15714],[127.69739,36.15891],[127.69798,36.16064],[127.6987,36.16234],[127.69956,36.164],[127.70055,36.16562],[127.70165,36.16718],[127.70288,36.16868],[127.70423,36.17011],[127.70568,36.17147],[127.70724,36.17275],[127.70889,36.17396],[127.71064,36.17507],[127.71247,36.17609],[127.71437,36.17702],[127.71635,36.17784],[127.71838,36.17856],[127.72047,36.17918],[127.7226,36.17969],[127.72477,36.18008],[127.72696,36.18037],[127.72917,36.18054],[127.73139,36.1806],[127.73361,36.18054],[127.73582,36.18037],[127.73801,36.18008],[127.74018,36.17969],[127.74231,36.17918],[127.7444,36.17856],[127.74643,36.17784],[127.7484,36.17702],[127.75031,36.17609],[127.75214,36.17507],[127.75388,36.17396],[127.75554,36.17275],[127.7571,36.17147],[127.75855,36.17011],[127.75989,36.16868],[127.76112,36.16718],[127.76223,36.16562],[127.76322,36.164],[127.76408,36.16234],[127.7648,36.16064],[127.76539,36.15891],[127.76585,36.15714],[127.76616,36.15536],[127.76634,36.15357],[127.76637,36.15177],[127.76626,36.14997],[127.76602,36.14818],[127.76563,36.14641],[127.76511,36.14466],[127.76445,36.14294],[127.76365,36.14126],[127.76273,36.13962],[127.76168,36.13803],[127.76051,36.1365],[127.75922,36.13504],[127.75782,36.13364],[127.75632,36.13232],[127.75471,36.13107],[127.75301,36.12992],[127.75122,36.12885],[127.74935,36.12788],[127.74742,36.127],[127.74541,36.12623],[127.74335,36.12556],[127.74124,36.125],[127.73909,36.12455],[127.73691,36.1242],[127.73471,36.12398],[127.7325,36.12386]]]]},"properties":{"dng_lbl_1":"D6","dng_lbl_2":"3 000 AGL","dng_lbl_3":"GND"},"id":"LT_C_AISDNGC.6"},{"type":"Feature","geometry":{"type":"MultiPolygon","coordinates":[[[[126.89083,37.51306],[126.89298,37.51276],[126.89487,37.51189],[126.89628,37.51056],[126.89702,37.50892],[126.89702,37.50719],[126.89628,37.50555],[126.89487,37.50422],[126.89298,37.50335],[126.89083,37.50305],[126.88868,37.50335],[126.88679,37.50422],[126.88539,37.50555],[126.88464,37.50719],[126.88464,37.50892],[126.88539,37.51056],[126.88679,37.51189],[126.88868,37.51276],[126.89083,37.51306]]]]},"properties":{"dng_lbl_1":"D28","dng_lbl_2":"1 700 AGL","dng_lbl_3":"GND"},"id":"LT_C_AISDNGC.7"},{"type":"Feature","geometry":{"type":"MultiPolygon","coordinates":[[[[126.90083,37.52167],[126.90611,37.51722],[126.90306,37.515],[126.8975,37.51944],[126.90083,37.52167]]]]},"properties":{"dng_lbl_1":"D29","dng_lbl_2":"1 600 AGL","dng_lbl_3":"GND"},"id":"LT_C_AISDNGC.8"},{"type":"Feature","geometry":{"type":"MultiPolygon","coordinates":[[[[127.16722,36.63531],[127.165,36.63525],[127.16278,36.63531],[127.16057,36.63552],[127.15839,36.63586],[127.15625,36.63634],[127.15416,36.63694],[127.15214,36.63767],[127.15018,36.63853],[127.14832,36.6395],[127.14655,36.64058],[127.1449,36.64177],[127.14335,36.64306],[127.14194,36.64444],[127.14066,36.64591],[127.13953,36.64745],[127.13854,36.64905],[127.13771,36.65071],[127.13704,36.65242],[127.13653,36.65416],[127.13619,36.65593],[127.13602,36.65771],[127.13602,36.6595],[127.13619,36.66129],[127.13653,36.66306],[127.13703,36.6648],[127.1377,36.66651],[127.13853,36.66817],[127.13952,36.66977],[127.14065,36.67131],[127.14193,36.67277],[127.14335,36.67415],[127.14489,36.67544],[127.14654,36.67664],[127.14831,36.67772],[127.15018,36.67869],[127.15213,36.67955],[127.15416,36.68028],[127.15625,36.68089],[127.15839,36.68136],[127.16057,36.6817],[127.16278,36.68191],[127.165,36.68198],[127.16722,36.68191],[127.16943,36.6817],[127.17161,36.68136],[127.17375,36.68089],[127.17584,36.68028],[127.17787,36.67955],[127.17982,36.67869],[127.18169,36.67772],[127.18346,36.67664],[127.18511,36.67544],[127.18665,36.67415],[127.18807,36.67277],[127.18935,36.67131],[127.19048,36.66977],[127.19147,36.66817],[127.1923,36.66651],[127.19297,36.6648],[127.19347,36.66306],[127.19381,36.66129],[127.19398,36.6595],[127.19398,36.65771],[127.19381,36.65593],[127.19347,36.65416],[127.19296,36.65242],[127.19229,36.65071],[127.19146,36.64905],[127.19047,36.64745],[127.18934,36.64591],[127.18806,36.64444],[127.18665,36.64306],[127.1851,36.64177],[127.18345,36.64058],[127.18168,36.6395],[127.17982,36.63853],[127.17786,36.63767],[127.17584,36.63694],[127.17375,36.63634],[127.17161,36.63586],[127.16943,36.63552],[127.16722,36.63531]]]]},"properties":{"dng_lbl_1":"D15","dng_lbl_2":"3 000 AGL","dng_lbl_3":"GND"},"id":"LT_C_AISDNGC.9"}]}