{"type":"FeatureCollection","features":[{"type":"Feature","id":"lt_c_aisdronezone.1","geometry":{"type":"MultiPolygon","coordinates":[[[[127.20583,34.71128],[127.20801,34.71126],[127.21019,34.71121],[127.21236,34.71113],[127.21454,34.71102],[127.21671,34.71087],[127.21887,34.7107],[127.22104,34.71049],[127.22319,34.71025],[127.22535,34.70997],[127.22749,34.70967],[127.22963,34.70933],[127.23176,34.70896],[127.23388,34.70856],[127.236,34.70813],[127.2381,34.70766],[127.2402,34.70717],[127.24228,34.70664],[127.24435,34.70609],[127.24641,34.7055],[127.24845,34.70488],[127.25048,34.70424],[127.2525,34.70356],[127.2545,34.70285],[127.25649,34.70211],[127.25846,34.70135],[127.26041,34.70055],[127.26234,34.69973],[127.26426,34.69887],[127.26616,34.69799],[127.26804,34.69708],[127.2699,34.69615],[127.27173,34.69518],[127.27355,34.69419],[127.27534,34.69317],[127.27712,34.69213],[127.27886,34.69106],[127.28059,34.68996],[127.28229,34.68884],[127.28397,34.68769],[127.28562,34.68652],[127.28724,34.68532],[127.28884,34.6841],[127.29041,34.68286],[127.29196,34.68159],[127.29348,34.6803],[127.29496,34.67899],[127.29642,34.67766],[127.29785,34.6763],[127.29926,34.67492],[127.30063,34.67353],[127.30197,34.67211],[127.30328,34.67067],[127.30455,34.66922],[127.3058,34.66774],[127.30701,34.66625],[127.30819,34.66474],[127.30934,34.66321],[127.31045,34.66167],[127.31154,34.66011],[127.31258,34.65853],[127.31359,34.65694],[127.31457,34.65533],[127.31551,34.65371],[127.31642,34.65208],[127.31729,34.65043],[127.31813,34.64877],[127.31892,34.6471],[127.31969,34.64541],[127.32041,34.64372],[127.3211,34.64201],[127.32175,34.64029],[127.32237,34.63857],[127.32294,34.63684],[127.32348,34.63509],[127.32398,34.63334],[127.32444,34.63159],[127.32487,34.62982],[127.32525,34.62805],[127.3256,34.62628],[127.32591,34.6245],[127.32618,34.62271],[127.32641,34.62093],[127.3266,34.61913],[127.32676,34.61734],[127.32687,34.61555],[127.32695,34.61375],[127.32698,34.61195],[127.32698,34.61015],[127.32694,34.60835],[127.32686,34.60656],[127.32674,34.60476],[127.32658,34.60297],[127.32638,34.60118],[127.32615,34.59939],[127.32587,34.59761],[127.32556,34.59583],[127.32521,34.59405],[127.32481,34.59228],[127.32439,34.59052],[127.32392,34.58876],[127.32341,34.58702],[127.32287,34.58527],[127.32229,34.58354],[127.32167,34.58182],[127.32101,34.5801],[127.32032,34.5784],[127.31959,34.5767],[127.31883,34.57502],[127.31802,34.57335],[127.31719,34.57169],[127.31631,34.57005],[127.3154,34.56841],[127.31446,34.56679],[127.31348,34.56519],[127.31246,34.5636],[127.31141,34.56202],[127.31033,34.56046],[127.30921,34.55892],[127.30806,34.5574],[127.30688,34.55589],[127.30566,34.5544],[127.30442,34.55292],[127.30314,34.55147],[127.30183,34.55004],[127.30048,34.54862],[127.29911,34.54723],[127.29771,34.54585],[127.29628,34.5445],[127.29482,34.54317],[127.29333,34.54186],[127.29181,34.54057],[127.29027,34.5393],[127.2887,34.53806],[127.2871,34.53685],[127.28547,34.53565],[127.28382,34.53448],[127.28215,34.53334],[127.28045,34.53222],[127.27872,34.53112],[127.27698,34.53005],[127.27521,34.52901],[127.27341,34.52799],[127.2716,34.527],[127.26976,34.52604],[127.26791,34.52511],[127.26603,34.5242],[127.26414,34.52332],[127.26222,34.52247],[127.26029,34.52164],[127.25834,34.52085],[127.25638,34.52009],[127.25439,34.51935],[127.2524,34.51864],[127.25038,34.51797],[127.24836,34.51732],[127.24632,34.51671],[127.24426,34.51612],[127.24219,34.51557],[127.24012,34.51504],[127.23803,34.51455],[127.23593,34.51409],[127.23382,34.51365],[127.2317,34.51325],[127.22957,34.51289],[127.22744,34.51255],[127.2253,34.51225],[127.22315,34.51197],[127.221,34.51173],[127.21884,34.51152],[127.21668,34.51134],[127.21452,34.5112],[127.21235,34.51109],[127.21018,34.51101],[127.20801,34.51096],[127.20583,34.51094],[127.20366,34.51096],[127.20149,34.51101],[127.19932,34.51109],[127.19715,34.5112],[127.19499,34.51134],[127.19282,34.51152],[127.19067,34.51173],[127.18851,34.51197],[127.18637,34.51225],[127.18423,34.51255],[127.18209,34.51289],[127.17997,34.51325],[127.17785,34.51365],[127.17574,34.51409],[127.17364,34.51455],[127.17155,34.51504],[127.16947,34.51557],[127.16741,34.51612],[127.16535,34.51671],[127.16331,34.51732],[127.16128,34.51797],[127.15927,34.51864],[127.15727,34.51935],[127.15529,34.52009],[127.15332,34.52085],[127.15137,34.52164],[127.14944,34.52247],[127.14753,34.52332],[127.14563,34.5242],[127.14376,34.52511],[127.1419,34.52604],[127.14007,34.527],[127.13825,34.52799],[127.13646,34.52901],[127.13469,34.53005],[127.13294,34.53112],[127.13122,34.53222],[127.12952,34.53334],[127.12784,34.53448],[127.12619,34.53565],[127.12457,34.53685],[127.12297,34.53806],[127.1214,34.5393],[127.11985,34.54057],[127.11834,34.54186],[127.11685,34.54317],[127.11539,34.5445],[127.11396,34.54585],[127.11255,34.54723],[127.11118,34.54862],[127.10984,34.55004],[127.10853,34.55147],[127.10725,34.55292],[127.106,34.5544],[127.10479,34.55589],[127.10361,34.5574],[127.10246,34.55892],[127.10134,34.56046],[127.10026,34.56202],[127.09921,34.5636],[127.09819,34.56519],[127.09721,34.56679],[127.09627,34.56841],[127.09536,34.57005],[127.09448,34.57169],[127.09364,34.57335],[127.09284,34.57502],[127.09207,34.5767],[127.09134,34.5784],[127.09065,34.5801],[127.09,34.58182],[127.08938,34.58354],[127.0888,34.58527],[127.08825,34.58702],[127.08775,34.58876],[127.08728,34.59052],[127.08685,34.59228],[127.08646,34.59405],[127.08611,34.59583],[127.0858,34.59761],[127.08552,34.59939],[127.08528,34.60118],[127.08509,34.60297],[127.08493,34.60476],[127.08481,34.60656],[127.08473,34.60835],[127.08469,34.61015],[127.08468,34.61195],[127.08472,34.61375],[127.08479,34.61555],[127.08491,34.61734],[127.08506,34.61913],[127.08526,34.62093],[127.08549,34.62271],[127.08576,34.6245],[127.08607,34.62628],[127.08641,34.62805],[127.0868,34.62982],[127.08722,34.63159],[127.08769,34.63334],[127.08819,34.63509],[127.08872,34.63684],[127.0893,34.63857],[127.08991,34.64029],[127.09057,34.64201],[127.09125,34.64372],[127.09198,34.64541],[127.09274,34.6471],[127.09354,34.64877],[127.09438,34.65043],[127.09525,34.65208],[127.09615,34.65371],[127.0971,34.65533],[127.09807,34.65694],[127.09908,34.65853],[127.10013,34.66011],[127.10121,34.66167],[127.10233,34.66321],[127.10347,34.66474],[127.10465,34.66625],[127.10587,34.66774],[127.10711,34.66922],[127.10839,34.67067],[127.1097,34.67211],[127.11104,34.67353],[127.11241,34.67492],[127.11381,34.6763],[127.11524,34.67766],[127.1167,34.67899],[127.11819,34.6803],[127.11971,34.68159],[127.12125,34.68286],[127.12282,34.6841],[127.12442,34.68532],[127.12605,34.68652],[127.1277,34.68769],[127.12938,34.68884],[127.13108,34.68996],[127.1328,34.69106],[127.13455,34.69213],[127.13632,34.69317],[127.13812,34.69419],[127.13993,34.69518],[127.14177,34.69615],[127.14363,34.69708],[127.14551,34.69799],[127.14741,34.69887],[127.14932,34.69973],[127.15126,34.70055],[127.15321,34.70135],[127.15518,34.70211],[127.15717,34.70285],[127.15917,34.70356],[127.16118,34.70424],[127.16321,34.70488],[127.16526,34.7055],[127.16732,34.70609],[127.16939,34.70664],[127.17147,34.70717],[127.17356,34.70766],[127.17567,34.70813],[127.17778,34.70856],[127.1799,34.70896],[127.18204,34.70933],[127.18417,34.70967],[127.18632,34.70997],[127.18847,34.71025],[127.19063,34.71049],[127.19279,34.7107],[127.19496,34.71087],[127.19713,34.71102],[127.1993,34.71113],[127.20148,34.71121],[127.20366,34.71126],[127.20583,34.71128]]]]},"geometry_name":"ag_geom","properties":{"id":1,"name":"고흥 (Goheung)","lateral":"A circle radius 11.1 km (6 NM) centered on 34°36'40\"N 127°12'21\"E","vertical":"1 500 ft","remarks":null},"bbox":[127.08468294,34.51094214,127.32698372,34.71127843]},{"type":"Feature","id":"lt_c_aisdronezone.2","geometry":{"type":"MultiPolygon","coordinates":[[[[128.37278,35.69644],[128.37497,35.69639],[128.37716,35.69625],[128.37934,35.69601],[128.3815,35.69567],[128.38363,35.69524],[128.38574,35.69472],[128.3878,35.69411],[128.38982,35.6934],[128.3918,35.69261],[128.39371,35.69174],[128.39557,35.69078],[128.39736,35.68974],[128.39908,35.68863],[128.40073,35.68744],[128.40229,35.68618],[128.40377,35.68485],[128.40516,35.68346],[128.40645,35.68201],[128.40765,35.68051],[128.40875,35.67896],[128.40974,35.67736],[128.41063,35.67572],[128.41141,35.67405],[128.41207,35.67234],[128.41263,35.6706],[128.41307,35.66885],[128.41339,35.66707],[128.41359,35.66529],[128.41368,35.6635],[128.41365,35.6617],[128.4135,35.65992],[128.41324,35.65814],[128.41286,35.65637],[128.41236,35.65463],[128.41175,35.6529],[128.41102,35.65121],[128.41019,35.64955],[128.40924,35.64793],[128.4082,35.64636],[128.40705,35.64483],[128.4058,35.64336],[128.40446,35.64194],[128.40302,35.64058],[128.4015,35.63929],[128.3999,35.63806],[128.39821,35.63691],[128.39646,35.63584],[128.39463,35.63484],[128.39275,35.63392],[128.3908,35.63309],[128.38881,35.63234],[128.38676,35.63168],[128.38468,35.63112],[128.38256,35.63064],[128.38042,35.63026],[128.37825,35.62997],[128.37607,35.62978],[128.37388,35.62968],[128.37168,35.62968],[128.36949,35.62978],[128.3673,35.62997],[128.36514,35.63026],[128.36299,35.63064],[128.36087,35.63112],[128.35879,35.63168],[128.35675,35.63234],[128.35475,35.63309],[128.35281,35.63392],[128.35092,35.63484],[128.3491,35.63584],[128.34734,35.63691],[128.34566,35.63806],[128.34406,35.63929],[128.34253,35.64058],[128.3411,35.64194],[128.33976,35.64336],[128.33851,35.64483],[128.33736,35.64636],[128.33631,35.64793],[128.33537,35.64955],[128.33453,35.65121],[128.33381,35.6529],[128.3332,35.65463],[128.3327,35.65637],[128.33232,35.65814],[128.33205,35.65992],[128.3319,35.6617],[128.33187,35.6635],[128.33196,35.66529],[128.33217,35.66707],[128.33249,35.66885],[128.33293,35.6706],[128.33348,35.67234],[128.33415,35.67405],[128.33493,35.67572],[128.33581,35.67736],[128.33681,35.67896],[128.33791,35.68051],[128.3391,35.68201],[128.3404,35.68346],[128.34179,35.68485],[128.34327,35.68618],[128.34483,35.68744],[128.34647,35.68863],[128.34819,35.68974],[128.34999,35.69078],[128.35184,35.69174],[128.35376,35.69261],[128.35573,35.6934],[128.35775,35.69411],[128.35982,35.69472],[128.36192,35.69524],[128.36405,35.69567],[128.36621,35.69601],[128.36839,35.69625],[128.37058,35.69639],[128.37278,35.69644]]]]},"geometry_name":"ag_geom","properties":{"id":2,"name":"대구","lateral":"A circle radius 3.7 km (2 NM) centered on 35°39'47\"N 128°22'22\"E","vertical":"1 500 ft","remarks":null},"bbox":[128.3318737,35.62968392,128.41368185,35.69643904]},{"type":"Feature","id":"lt_c_aisdronezone.3","geometry":{"type":"MultiPolygon","coordinates":[[[[127.0925,35.77614],[127.09468,35.77604],[127.09683,35.77576],[127.09893,35.77529],[127.10096,35.77464],[127.1029,35.77382],[127.10471,35.77284],[127.10639,35.77171],[127.10791,35.77043],[127.10926,35.76904],[127.11042,35.76753],[127.11137,35.76593],[127.11211,35.76426],[127.11262,35.76254],[127.11291,35.76077],[127.11297,35.759],[127.1128,35.75723],[127.11239,35.75548],[127.11176,35.75378],[127.11091,35.75214],[127.10986,35.75059],[127.10861,35.74914],[127.10717,35.7478],[127.10557,35.74659],[127.10382,35.74553],[127.10194,35.74463],[127.09996,35.7439],[127.09789,35.74334],[127.09576,35.74297],[127.09359,35.74278],[127.09141,35.74278],[127.08924,35.74297],[127.08711,35.74334],[127.08504,35.7439],[127.08306,35.74463],[127.08118,35.74553],[127.07943,35.74659],[127.07783,35.7478],[127.07639,35.74914],[127.07514,35.75059],[127.07409,35.75214],[127.07324,35.75378],[127.07261,35.75548],[127.0722,35.75723],[127.07203,35.759],[127.07209,35.76077],[127.07238,35.76254],[127.07289,35.76426],[127.07363,35.76593],[127.07458,35.76753],[127.07574,35.76904],[127.07709,35.77043],[127.07861,35.77171],[127.08029,35.77284],[127.0821,35.77382],[127.08404,35.77464],[127.08607,35.77529],[127.08817,35.77576],[127.09032,35.77604],[127.0925,35.77614]]]]},"geometry_name":"ag_geom","properties":{"id":3,"name":"전주","lateral":"A circle radius 1 NM centered on 35°45'34\"N 127°05'33\"E","vertical":"SFC ~ 1 000 ft","remarks":null},"bbox":[127.07202896,35.74277655,127.11297104,35.77613594]},{"type":"Feature","id":"lt_c_aisdronezone.4","geometry":{"type":"MultiPolygon","coordinates":[[[[127.78497,35.03935],[127.78714,35.03931],[127.78931,35.03918],[127.79147,35.03896],[127.79361,35.03866],[127.79573,35.03827],[127.79783,35.0378],[127.7999,35.03724],[127.80193,35.0366],[127.80392,35.03588],[127.80587,35.03508],[127.80776,35.03421],[127.8096,35.03325],[127.81139,35.03223],[127.81311,35.03114],[127.81476,35.02998],[127.81634,35.02875],[127.81785,35.02746],[127.81928,35.02612],[127.82063,35.02471],[127.8219,35.02326],[127.82307,35.02175],[127.82416,35.0202],[127.82515,35.01861],[127.82605,35.01698],[127.82685,35.01532],[127.82755,35.01363],[127.82815,35.01191],[127.82865,35.01017],[127.82905,35.00841],[127.82933,35.00664],[127.82952,35.00485],[127.8296,35.00307],[127.82957,35.00128],[127.82944,34.99949],[127.8292,34.99772],[127.82885,34.99595],[127.82841,34.9942],[127.82786,34.99247],[127.8272,34.99076],[127.82645,34.98908],[127.8256,34.98744],[127.82465,34.98583],[127.82361,34.98426],[127.82248,34.98273],[127.82126,34.98125],[127.81995,34.97982],[127.81856,34.97845],[127.81709,34.97713],[127.81554,34.97588],[127.81392,34.97468],[127.81224,34.97356],[127.81048,34.9725],[127.80867,34.97151],[127.8068,34.9706],[127.80488,34.96976],[127.80291,34.969],[127.8009,34.96832],[127.79886,34.96773],[127.79678,34.96721],[127.79467,34.96678],[127.79254,34.96643],[127.79039,34.96617],[127.78822,34.966],[127.78605,34.96591],[127.78388,34.96591],[127.78171,34.966],[127.77955,34.96617],[127.7774,34.96643],[127.77527,34.96678],[127.77316,34.96721],[127.77108,34.96773],[127.76903,34.96832],[127.76702,34.969],[127.76505,34.96976],[127.76313,34.9706],[127.76126,34.97151],[127.75945,34.9725],[127.7577,34.97356],[127.75601,34.97468],[127.75439,34.97588],[127.75284,34.97713],[127.75137,34.97845],[127.74998,34.97982],[127.74868,34.98125],[127.74745,34.98273],[127.74632,34.98426],[127.74528,34.98583],[127.74433,34.98744],[127.74348,34.98908],[127.74273,34.99076],[127.74208,34.99247],[127.74153,34.9942],[127.74108,34.99595],[127.74074,34.99772],[127.7405,34.99949],[127.74036,35.00128],[127.74034,35.00307],[127.74041,35.00485],[127.7406,35.00664],[127.74089,35.00841],[127.74128,35.01017],[127.74178,35.01191],[127.74238,35.01363],[127.74308,35.01532],[127.74388,35.01698],[127.74478,35.01861],[127.74577,35.0202],[127.74686,35.02175],[127.74804,35.02326],[127.7493,35.02471],[127.75065,35.02612],[127.75208,35.02746],[127.75359,35.02875],[127.75517,35.02998],[127.75683,35.03114],[127.75855,35.03223],[127.76033,35.03325],[127.76217,35.03421],[127.76407,35.03508],[127.76601,35.03588],[127.768,35.0366],[127.77004,35.03724],[127.7721,35.0378],[127.7742,35.03827],[127.77632,35.03866],[127.77847,35.03896],[127.78062,35.03918],[127.78279,35.03931],[127.78497,35.03935]]]]},"geometry_name":"ag_geom","properties":{"id":4,"name":"광양","lateral":"A circle radius 4 km (2.2 NM) centered on 35°00'09.46\"N 127°47'05.88\"E","vertical":"1 500 ft","remarks":"1. 광양(Gwangyang) Restricted area operating day : From MON to FRI (EXC SAT and SUN) 2. UA 25 Ultralight vehicle flight area operating day : SAT and SUN (EXC From MON to FRI)"},"bbox":[127.74033602,34.9659126,127.82959731,35.03935362]},{"type":"Feature","id":"lt_c_aisdronezone.5","geometry":{"type":"MultiPolygon","coordinates":[[[[126.30861,33.31808],[126.31073,33.31796],[126.31281,33.31761],[126.31482,33.31702],[126.31672,33.31622],[126.31847,33.31521],[126.32005,33.31401],[126.32142,33.31265],[126.32256,33.31114],[126.32346,33.30952],[126.32409,33.30782],[126.32444,33.30606],[126.32451,33.30427],[126.3243,33.3025],[126.3238,33.30076],[126.32304,33.2991],[126.32202,33.29753],[126.32076,33.2961],[126.31928,33.29481],[126.31761,33.29371],[126.31579,33.2928],[126.31383,33.2921],[126.31178,33.29163],[126.30967,33.29139],[126.30755,33.29139],[126.30544,33.29163],[126.30339,33.2921],[126.30144,33.2928],[126.29961,33.29371],[126.29794,33.29481],[126.29646,33.2961],[126.2952,33.29753],[126.29418,33.2991],[126.29342,33.30076],[126.29292,33.3025],[126.29271,33.30427],[126.29278,33.30606],[126.29314,33.30782],[126.29376,33.30952],[126.29466,33.31114],[126.2958,33.31265],[126.29717,33.31401],[126.29875,33.31521],[126.3005,33.31622],[126.3024,33.31702],[126.30441,33.31761],[126.30649,33.31796],[126.30861,33.31808]]]]},"geometry_name":"ag_geom","properties":{"id":5,"name":"서귀포","lateral":"A circle radius 1.5 km (0.8 NM) centered on 33°18'17.00\"N 126°18'31.00\"E","vertical":"1 000 ft","remarks":null},"bbox":[126.29271124,33.29139344,126.32451098,33.3180808]},{"type":"Feature","id":"lt_c_aisdronezone.6","geometry":{"type":"MultiPolygon","coordinates":[[[[128.7775,36.25889],[128.78944,36.23806],[128.75917,36.22667],[128.76389,36.21889],[128.70722,36.19694],[128.69056,36.22472],[128.7775,36.25889]]]]},"geometry_name":"ag_geom","properties":{"id":6,"name":"의성","lateral":"36°13'29\"N 128°41'26\"E - 36°15'32\"N 128°46'39\"E - 36°14'17\"N 128°47'22\"E - 36°13'36\"N 128°45'33\"E - 36°13'08\"N 128°45'50\"E - 36°11'49\"N 128°42'26\"E - to the beginning","vertical":"SFC ~ 1 000 ft AGL","remarks":null},"bbox":[128.69055556,36.19694444,128.78944444,36.25888889]},{"type":"Feature","id":"lt_c_aisdronezone.7","geometry":{"type":"MultiPolygon","coordinates":[[[[126.76182,37.2913],[126.78474,37.2913],[126.7861,37.25082],[126.7546,37.25013],[126.74663,37.26013],[126.74653,37.27685],[126.76182,37.2913]]]]},"geometry_name":"ag_geom","properties":{"id":7,"name":"화성","lateral":"37°17'28.68\"N 126°45'42.54\"E - 37°16'36.66\"N 126°44'47.52\"E - 37°15'36.48\"N 126°44'47.88\"E - 37°15'00.48\"N 126°45'16.56\"E - 37°15'02.94\"N 126°47'09.96\"E - 37°17'28.68\"N 126°47'05.07\"E - to the beginning","vertical":"1 000 ft","remarks":"1. 화성(Hwaseong) Restricted area operating day : From MON to FRI (EXC SAT and SUN) 2. UA 19 Ultralight vehicle flight area operating day : SAT and SUN (EXC From MON to FRI)"},"bbox":[126.74653333,37.25013333,126.7861,37.2913]},{"type":"Feature","id":"lt_c_aisdronezone.8","geometry":{"type":"MultiPolygon","coordinates":[[[[129.1491,35.09477],[129.14946,35.09383],[129.15017,35.09213],[129.15081,35.09041],[129.15137,35.08867],[129.15186,35.08692],[129.15226,35.08515],[129.15259,35.08337],[129.15285,35.08159],[129.15302,35.0798],[129.15312,35.078],[129.15314,35.0762],[129.15308,35.0744],[129.15294,35.07261],[129.15272,35.07082],[129.15243,35.06904],[129.15206,35.06727],[129.15161,35.06551],[129.15108,35.06376],[129.15048,35.06203],[129.1498,35.06032],[129.14905,35.05864],[129.14823,35.05697],[129.14733,35.05533],[129.14636,35.05372],[129.14532,35.05214],[129.14422,35.05058],[129.14305,35.04907],[129.14181,35.04758],[129.14051,35.04614],[129.13914,35.04474],[129.13772,35.04337],[129.13624,35.04205],[129.1347,35.04077],[129.1331,35.03954],[129.13145,35.03836],[129.12976,35.03723],[129.12801,35.03615],[129.12622,35.03512],[129.12438,35.03414],[129.12251,35.03322],[129.12059,35.03235],[129.11864,35.03154],[129.11665,35.03079],[129.11464,35.0301],[129.09222,35.07667],[129.1491,35.09477]]]]},"geometry_name":"ag_geom","properties":{"id":8,"name":"부산","lateral":"A sector of circle radius 5.5 km (3 NM) arc centered on 35°04'36\"N 129°05'32\"E, starting from 35°05'36.6\"N 129°08'41.0\"E to 35°01'58.7\"N 129°06'48.9\"E clockwise","vertical":"within 0.5 km, 1 000 ft / within 0.5~5.5km,  1 500 ft","remarks":null},"bbox":[129.09222222,35.03010099,129.15313851,35.09477098]}]}