{"type":"FeatureCollection","features":[{"type":"Feature","id":"lt_c_aistemp.1","geometry":{"type":"MultiPolygon","coordinates":[[[[126.57833,37.36028],[126.62083,37.36028],[126.62083,37.33556],[126.57833,37.33556],[126.57833,37.36028]]]]},"geometry_name":"ag_geom","properties":{"prohibited":"<FNT name='TW Cen MT' size='6'><red='13' green='23' blue='110'><UND>500 AGL</UND> SFC</CLR></FNT>","notam":"A)RKRR  B)2501311500  C)2504301459","prh_lbl_1":null,"prh_lbl_2":"500 AGL","prh_lbl_3":"SFC"},"bbox":[126.57833333,37.33555556,126.62083333,37.36027778]},{"type":"Feature","id":"lt_c_aistemp.2","geometry":{"type":"MultiPolygon","coordinates":[[[[126.97472,37.59473],[126.9769,37.59455],[126.97899,37.59401],[126.98089,37.59314],[126.98251,37.59197],[126.9838,37.59056],[126.98469,37.58897],[126.98515,37.58726],[126.98515,37.58552],[126.98469,37.58381],[126.9838,37.58222],[126.98251,37.58081],[126.98088,37.57964],[126.97899,37.57877],[126.9769,37.57823],[126.97472,37.57805],[126.97254,37.57823],[126.97046,37.57877],[126.96856,37.57964],[126.96693,37.58081],[126.96564,37.58222],[126.96475,37.58381],[126.9643,37.58552],[126.9643,37.58726],[126.96475,37.58897],[126.96564,37.59056],[126.96693,37.59197],[126.96856,37.59314],[126.97046,37.59401],[126.97254,37.59455],[126.97472,37.59473]]]]},"geometry_name":"ag_geom","properties":{"prohibited":"<UND>1700 FT</UND> SFC","notam":"A)RKRR B)2507311500 C)2510301459","prh_lbl_1":null,"prh_lbl_2":"1700 FT","prh_lbl_3":"SFC"},"bbox":[126.96429534,37.57804569,126.9851491,37.59473208]},{"type":"Feature","id":"lt_c_aistemp.3","geometry":{"type":"MultiPolygon","coordinates":[[[[126.97556,37.62309],[126.97781,37.62305],[126.98005,37.6229],[126.98229,37.62266],[126.9845,37.62233],[126.98669,37.6219],[126.98884,37.62138],[126.99096,37.62076],[126.99303,37.62006],[126.99505,37.61927],[126.99702,37.6184],[126.99892,37.61744],[127.00076,37.6164],[127.00252,37.61528],[127.00421,37.6141],[127.00581,37.61284],[127.00733,37.61151],[127.00875,37.61012],[127.01008,37.60868],[127.01131,37.60717],[127.01243,37.60562],[127.01345,37.60402],[127.01436,37.60238],[127.01516,37.60071],[127.01584,37.599],[127.01641,37.59727],[127.01686,37.59551],[127.01719,37.59374],[127.0174,37.59195],[127.01749,37.59016],[127.01746,37.58837],[127.01731,37.58658],[127.01703,37.5848],[127.01664,37.58304],[127.01613,37.58129],[127.01551,37.57957],[127.01476,37.57788],[127.01391,37.57622],[127.01294,37.57461],[127.01187,37.57303],[127.01069,37.5715],[127.00941,37.57003],[127.00803,37.56861],[127.00656,37.56725],[127.005,37.56596],[127.00336,37.56474],[127.00163,37.56359],[126.99983,37.56251],[126.99796,37.56151],[126.99603,37.5606],[126.99403,37.55976],[126.99199,37.55902],[126.98989,37.55836],[126.98776,37.55779],[126.98559,37.55732],[126.98339,37.55694],[126.98117,37.55665],[126.97893,37.55646],[126.97668,37.55636],[126.97443,37.55636],[126.97218,37.55646],[126.96994,37.55665],[126.96772,37.55694],[126.96552,37.55732],[126.96335,37.55779],[126.96122,37.55836],[126.95912,37.55902],[126.95708,37.55976],[126.95508,37.5606],[126.95315,37.56151],[126.95128,37.56251],[126.94948,37.56359],[126.94775,37.56474],[126.94611,37.56596],[126.94455,37.56725],[126.94308,37.56861],[126.9417,37.57003],[126.94042,37.5715],[126.93924,37.57303],[126.93817,37.57461],[126.9372,37.57622],[126.93635,37.57788],[126.93561,37.57957],[126.93498,37.58129],[126.93447,37.58304],[126.93408,37.5848],[126.9338,37.58658],[126.93365,37.58837],[126.93362,37.59016],[126.93371,37.59195],[126.93392,37.59374],[126.93425,37.59551],[126.9347,37.59727],[126.93527,37.599],[126.93595,37.60071],[126.93675,37.60238],[126.93766,37.60402],[126.93868,37.60562],[126.9398,37.60717],[126.94103,37.60868],[126.94236,37.61012],[126.94378,37.61151],[126.9453,37.61284],[126.9469,37.6141],[126.94859,37.61528],[126.95035,37.6164],[126.95219,37.61744],[126.95409,37.6184],[126.95606,37.61927],[126.95808,37.62006],[126.96015,37.62076],[126.96227,37.62138],[126.96442,37.6219],[126.96661,37.62233],[126.96883,37.62266],[126.97106,37.6229],[126.9733,37.62305],[126.97556,37.62309]]]]},"geometry_name":"ag_geom","properties":{"prohibited":"D3554/25","notam":"D3554/25 E)TEMPO PROHIBITED AREA ACT AS FLW A CIRCLE RADIUS 2NM CENTERED ON 373523N1265832E","prh_lbl_1":"D3554/25","prh_lbl_2":"UND","prh_lbl_3":"SFC"},"bbox":[126.93362046,37.55636139,127.01749065,37.62309489]}]}