{"type":"FeatureCollection","features":[{"type":"Feature","geometry":{"type":"MultiPolygon","coordinates":[[[[127.0075,35.75587],[127.00968,35.75577],[127.01183,35.75549],[127.01394,35.75502],[127.01597,35.75438],[127.0179,35.75356],[127.01972,35.75257],[127.0214,35.75144],[127.02292,35.75016],[127.02427,35.74877],[127.02542,35.74726],[127.02638,35.74566],[127.02712,35.74399],[127.02763,35.74226],[127.02792,35.7405],[127.02798,35.73872],[127.02781,35.73695],[127.0274,35.7352],[127.02677,35.7335],[127.02592,35.73186],[127.02487,35.73031],[127.02361,35.72885],[127.02218,35.72751],[127.02057,35.72631],[127.01882,35.72525],[127.01694,35.72434],[127.01496,35.72361],[127.01289,35.72305],[127.01076,35.72268],[127.00859,35.72249],[127.00641,35.72249],[127.00424,35.72268],[127.00211,35.72305],[127.00004,35.72361],[126.99805,35.72434],[126.99618,35.72525],[126.99443,35.72631],[126.99282,35.72751],[126.99139,35.72885],[126.99013,35.73031],[126.98908,35.73186],[126.98823,35.7335],[126.9876,35.7352],[126.98719,35.73695],[126.98702,35.73872],[126.98708,35.7405],[126.98737,35.74226],[126.98788,35.74399],[126.98862,35.74566],[126.98958,35.74726],[126.99073,35.74877],[126.99208,35.75016],[126.9936,35.75144],[126.99528,35.75257],[126.9971,35.75356],[126.99903,35.75438],[127.00106,35.75502],[127.00317,35.75549],[127.00532,35.75577],[127.0075,35.75587]]]]},"properties":{"uac_lbl_1":"(UA 2) GUSEONGSAN","uac_lbl_2":"500FT HEI","uac_lbl_3":"SFC"},"id":"LT_C_AISUAC.1"},{"type":"Feature","geometry":{"type":"MultiPolygon","coordinates":[[[[126.82278,33.50301],[126.82456,33.50297],[126.82633,33.50283],[126.8281,33.50261],[126.82984,33.5023],[126.83156,33.5019],[126.83324,33.50142],[126.83489,33.50085],[126.8365,33.50021],[126.83805,33.49948],[126.83956,33.49868],[126.841,33.4978],[126.84237,33.49685],[126.84368,33.49583],[126.84491,33.49475],[126.84606,33.49362],[126.84713,33.49242],[126.84811,33.49118],[126.84901,33.48988],[126.8498,33.48855],[126.8505,33.48717],[126.8511,33.48577],[126.8516,33.48433],[126.852,33.48288],[126.85229,33.48141],[126.85248,33.47992],[126.85256,33.47843],[126.85253,33.47694],[126.8524,33.47545],[126.85216,33.47397],[126.85181,33.4725],[126.85137,33.47106],[126.85082,33.46964],[126.85016,33.46825],[126.84942,33.46689],[126.84857,33.46558],[126.84763,33.4643],[126.84661,33.46308],[126.8455,33.46192],[126.84431,33.46081],[126.84304,33.45976],[126.84169,33.45877],[126.84028,33.45786],[126.83881,33.45702],[126.83728,33.45625],[126.8357,33.45557],[126.83407,33.45496],[126.8324,33.45443],[126.8307,33.45399],[126.82897,33.45364],[126.82722,33.45337],[126.82545,33.45319],[126.82367,33.4531],[126.82189,33.4531],[126.82011,33.45319],[126.81834,33.45337],[126.81659,33.45364],[126.81485,33.45399],[126.81315,33.45443],[126.81148,33.45496],[126.80986,33.45557],[126.80827,33.45625],[126.80674,33.45702],[126.80527,33.45786],[126.80386,33.45877],[126.80252,33.45976],[126.80125,33.46081],[126.80006,33.46192],[126.79895,33.46308],[126.79792,33.4643],[126.79698,33.46558],[126.79614,33.46689],[126.79539,33.46825],[126.79474,33.46964],[126.79419,33.47106],[126.79374,33.4725],[126.7934,33.47397],[126.79316,33.47545],[126.79302,33.47694],[126.793,33.47843],[126.79308,33.47992],[126.79326,33.48141],[126.79356,33.48288],[126.79395,33.48433],[126.79445,33.48577],[126.79505,33.48717],[126.79575,33.48855],[126.79655,33.48988],[126.79744,33.49118],[126.79842,33.49242],[126.79949,33.49362],[126.80064,33.49475],[126.80188,33.49583],[126.80318,33.49685],[126.80456,33.4978],[126.806,33.49868],[126.8075,33.49948],[126.80906,33.50021],[126.81066,33.50085],[126.81231,33.50142],[126.814,33.5019],[126.81572,33.5023],[126.81746,33.50261],[126.81922,33.50283],[126.821,33.50297],[126.82278,33.50301]]]]},"properties":{"uac_lbl_1":"(UA 24) GUJOA","uac_lbl_2":"500FT HEI","uac_lbl_3":"SFC"},"id":"LT_C_AISUAC.10"},{"type":"Feature","geometry":{"type":"MultiPolygon","coordinates":[[[[127.72361,35.02972],[127.79472,35.02917],[127.79417,34.9875],[127.72333,34.98778],[127.72361,35.02972]]]]},"properties":{"uac_lbl_1":"(UA 25) HADONG","uac_lbl_2":"500FT HEI","uac_lbl_3":"SFC"},"id":"LT_C_AISUAC.11"},{"type":"Feature","geometry":{"type":"MultiPolygon","coordinates":[[[[128.40528,37.39389],[128.46944,37.40278],[128.43611,37.36472],[128.39194,37.36972],[128.40528,37.39389]]]]},"properties":{"uac_lbl_1":"(UA 26) JANGAMSAN","uac_lbl_2":"500FT HEI","uac_lbl_3":"SFC"},"id":"LT_C_AISUAC.12"},{"type":"Feature","geometry":{"type":"MultiPolygon","coordinates":[[[[127.28306,36.94891],[127.28526,36.94883],[127.28745,36.94857],[127.2896,36.94815],[127.29168,36.94756],[127.29368,36.94681],[127.29559,36.94591],[127.29738,36.94487],[127.29903,36.94369],[127.30054,36.94239],[127.30188,36.94098],[127.30304,36.93948],[127.30402,36.93788],[127.3048,36.93623],[127.30538,36.93451],[127.30576,36.93277],[127.30592,36.931],[127.30586,36.92922],[127.30559,36.92746],[127.30512,36.92573],[127.30443,36.92404],[127.30355,36.92242],[127.30248,36.92087],[127.30122,36.91941],[127.2998,36.91805],[127.29822,36.91681],[127.29649,36.9157],[127.29465,36.91473],[127.29269,36.91391],[127.29064,36.91324],[127.28853,36.91273],[127.28636,36.91239],[127.28416,36.91222],[127.28195,36.91222],[127.27975,36.91239],[127.27758,36.91273],[127.27547,36.91324],[127.27342,36.91391],[127.27147,36.91473],[127.26962,36.9157],[127.2679,36.91681],[127.26631,36.91805],[127.26489,36.91941],[127.26363,36.92087],[127.26256,36.92242],[127.26168,36.92404],[127.26099,36.92573],[127.26052,36.92746],[127.26025,36.92922],[127.2602,36.931],[127.26036,36.93277],[127.26073,36.93451],[127.26131,36.93623],[127.26209,36.93788],[127.26307,36.93948],[127.26423,36.94098],[127.26558,36.94239],[127.26708,36.94369],[127.26873,36.94487],[127.27052,36.94591],[127.27243,36.94681],[127.27443,36.94756],[127.27652,36.94815],[127.27866,36.94857],[127.28085,36.94883],[127.28306,36.94891]]]]},"properties":{"uac_lbl_1":"(UA 28) SEOUNSAN","uac_lbl_2":"500FT HEI","uac_lbl_3":"SFC"},"id":"LT_C_AISUAC.13"},{"type":"Feature","geometry":{"type":"MultiPolygon","coordinates":[[[[127.28778,36.97141],[127.28999,36.97133],[127.29217,36.97107],[127.29432,36.97065],[127.2964,36.97006],[127.29841,36.96931],[127.30031,36.96841],[127.3021,36.96737],[127.30376,36.96619],[127.30526,36.96489],[127.3066,36.96348],[127.30777,36.96198],[127.30875,36.96038],[127.30953,36.95873],[127.31011,36.95701],[127.31048,36.95527],[127.31064,36.9535],[127.31059,36.95172],[127.31032,36.94996],[127.30985,36.94823],[127.30916,36.94654],[127.30828,36.94492],[127.30721,36.94337],[127.30595,36.94191],[127.30452,36.94055],[127.30294,36.93931],[127.30122,36.9382],[127.29937,36.93723],[127.29741,36.93641],[127.29537,36.93574],[127.29325,36.93523],[127.29108,36.93489],[127.28888,36.93472],[127.28667,36.93472],[127.28447,36.93489],[127.28231,36.93523],[127.28019,36.93574],[127.27814,36.93641],[127.27618,36.93723],[127.27434,36.9382],[127.27261,36.93931],[127.27103,36.94055],[127.26961,36.94191],[127.26835,36.94337],[127.26728,36.94492],[127.26639,36.94654],[127.26571,36.94823],[127.26523,36.94996],[127.26497,36.95172],[127.26491,36.9535],[127.26507,36.95527],[127.26544,36.95701],[127.26602,36.95873],[127.26681,36.96038],[127.26779,36.96198],[127.26895,36.96348],[127.27029,36.96489],[127.2718,36.96619],[127.27345,36.96737],[127.27524,36.96841],[127.27715,36.96931],[127.27915,36.97006],[127.28124,36.97065],[127.28338,36.97107],[127.28557,36.97133],[127.28778,36.97141]]]]},"properties":{"uac_lbl_1":"(UA 29) OCHON","uac_lbl_2":"500FT HEI","uac_lbl_3":"SFC"},"id":"LT_C_AISUAC.14"},{"type":"Feature","geometry":{"type":"MultiPolygon","coordinates":[[[[127.32778,37.06336],[127.32999,37.06327],[127.33218,37.06301],[127.33433,37.06259],[127.33642,37.062],[127.33842,37.06125],[127.34033,37.06035],[127.34212,37.05931],[127.34378,37.05813],[127.34528,37.05684],[127.34663,37.05543],[127.34779,37.05392],[127.34877,37.05233],[127.34956,37.05067],[127.35014,37.04896],[127.35051,37.04721],[127.35067,37.04544],[127.35062,37.04367],[127.35035,37.04191],[127.34987,37.04018],[127.34919,37.03849],[127.3483,37.03686],[127.34723,37.03531],[127.34597,37.03385],[127.34454,37.0325],[127.34296,37.03126],[127.34124,37.03015],[127.33938,37.02918],[127.33743,37.02835],[127.33538,37.02768],[127.33326,37.02718],[127.33109,37.02684],[127.32888,37.02666],[127.32667,37.02666],[127.32447,37.02684],[127.3223,37.02718],[127.32018,37.02768],[127.31813,37.02835],[127.31617,37.02918],[127.31432,37.03015],[127.31259,37.03126],[127.31101,37.0325],[127.30958,37.03385],[127.30833,37.03531],[127.30725,37.03686],[127.30637,37.03849],[127.30568,37.04018],[127.30521,37.04191],[127.30494,37.04367],[127.30488,37.04544],[127.30504,37.04721],[127.30542,37.04896],[127.306,37.05067],[127.30678,37.05233],[127.30776,37.05392],[127.30893,37.05543],[127.31027,37.05684],[127.31178,37.05813],[127.31344,37.05931],[127.31523,37.06035],[127.31713,37.06125],[127.31914,37.062],[127.32123,37.06259],[127.32338,37.06301],[127.32557,37.06327],[127.32778,37.06336]]]]},"properties":{"uac_lbl_1":"(UA 30) BUKJWA","uac_lbl_2":"500FT HEI","uac_lbl_3":"SFC"},"id":"LT_C_AISUAC.15"},{"type":"Feature","geometry":{"type":"MultiPolygon","coordinates":[[[[126.62889,37.56667],[126.63056,37.56417],[126.62667,37.5625],[126.625,37.565],[126.62889,37.56667]]]]},"properties":{"uac_lbl_1":"(UA 31) CHEONGNA","uac_lbl_2":"500FT HEI","uac_lbl_3":"SFC"},"id":"LT_C_AISUAC.16"},{"type":"Feature","geometry":{"type":"MultiPolygon","coordinates":[[[[128.80417,35.34917],[128.80694,35.35028],[128.80917,35.34639],[128.80639,35.34528],[128.80417,35.34917]]]]},"properties":{"uac_lbl_1":"(UA 35) GIMHAE","uac_lbl_2":"500FT HEI","uac_lbl_3":"SFC"},"id":"LT_C_AISUAC.17"},{"type":"Feature","geometry":{"type":"MultiPolygon","coordinates":[[[[128.77833,35.46694],[128.78722,35.45806],[128.78306,35.45472],[128.77417,35.46389],[128.77833,35.46694]]]]},"properties":{"uac_lbl_1":"(UA 36) MIRYANG","uac_lbl_2":"500FT HEI","uac_lbl_3":"SFC"},"id":"LT_C_AISUAC.18"},{"type":"Feature","geometry":{"type":"MultiPolygon","coordinates":[[[[128.64889,35.37722],[128.65861,35.37722],[128.65861,35.37111],[128.65583,35.37028],[128.64889,35.37028],[128.64889,35.37722]]]]},"properties":{"uac_lbl_1":"(UA 37) CHANGWON","uac_lbl_2":"500FT HEI","uac_lbl_3":"SFC"},"id":"LT_C_AISUAC.19"},{"type":"Feature","geometry":{"type":"MultiPolygon","coordinates":[[[[129.09222,35.66202],[129.09441,35.66198],[129.0966,35.66185],[129.09878,35.66163],[129.10094,35.66133],[129.10308,35.66094],[129.10519,35.66047],[129.10728,35.65991],[129.10933,35.65927],[129.11133,35.65855],[129.1133,35.65775],[129.11521,35.65687],[129.11707,35.65592],[129.11886,35.6549],[129.1206,35.6538],[129.12227,35.65264],[129.12386,35.65142],[129.12538,35.65013],[129.12683,35.64878],[129.12819,35.64738],[129.12946,35.64592],[129.13065,35.64441],[129.13175,35.64286],[129.13275,35.64127],[129.13365,35.63964],[129.13446,35.63798],[129.13517,35.63628],[129.13577,35.63456],[129.13627,35.63282],[129.13667,35.63106],[129.13696,35.62929],[129.13715,35.62751],[129.13723,35.62572],[129.1372,35.62393],[129.13706,35.62214],[129.13682,35.62036],[129.13648,35.61859],[129.13603,35.61684],[129.13547,35.61511],[129.13481,35.6134],[129.13405,35.61173],[129.1332,35.61008],[129.13224,35.60847],[129.13119,35.6069],[129.13005,35.60537],[129.12882,35.60389],[129.1275,35.60246],[129.1261,35.60109],[129.12461,35.59977],[129.12305,35.59851],[129.12142,35.59732],[129.11972,35.59619],[129.11795,35.59513],[129.11613,35.59414],[129.11424,35.59323],[129.1123,35.59239],[129.11032,35.59163],[129.10829,35.59095],[129.10623,35.59036],[129.10413,35.58984],[129.102,35.58941],[129.09985,35.58906],[129.09769,35.5888],[129.09551,35.58863],[129.09332,35.58854],[129.09113,35.58854],[129.08894,35.58863],[129.08676,35.5888],[129.08459,35.58906],[129.08244,35.58941],[129.08031,35.58984],[129.07822,35.59036],[129.07615,35.59095],[129.07412,35.59163],[129.07214,35.59239],[129.0702,35.59323],[129.06832,35.59414],[129.06649,35.59513],[129.06472,35.59619],[129.06302,35.59732],[129.06139,35.59851],[129.05983,35.59977],[129.05835,35.60109],[129.05695,35.60246],[129.05563,35.60389],[129.0544,35.60537],[129.05325,35.6069],[129.0522,35.60847],[129.05125,35.61008],[129.05039,35.61173],[129.04963,35.6134],[129.04897,35.61511],[129.04842,35.61684],[129.04797,35.61859],[129.04762,35.62036],[129.04738,35.62214],[129.04724,35.62393],[129.04722,35.62572],[129.0473,35.62751],[129.04748,35.62929],[129.04777,35.63106],[129.04817,35.63282],[129.04867,35.63456],[129.04928,35.63628],[129.04998,35.63798],[129.05079,35.63964],[129.0517,35.64127],[129.0527,35.64286],[129.05379,35.64441],[129.05498,35.64592],[129.05626,35.64738],[129.05762,35.64878],[129.05906,35.65013],[129.06058,35.65142],[129.06218,35.65264],[129.06384,35.6538],[129.06558,35.6549],[129.06738,35.65592],[129.06924,35.65687],[129.07115,35.65775],[129.07311,35.65855],[129.07512,35.65927],[129.07717,35.65991],[129.07925,35.66047],[129.08136,35.66094],[129.0835,35.66133],[129.08567,35.66163],[129.08784,35.66185],[129.09003,35.66198],[129.09222,35.66202]]]]},"properties":{"uac_lbl_1":"(UA 4) BONGHWASAN","uac_lbl_2":"500FT HEI","uac_lbl_3":"SFC"},"id":"LT_C_AISUAC.2"},{"type":"Feature","geometry":{"type":"MultiPolygon","coordinates":[[[[127.3025,37.47167],[127.30465,37.47137],[127.30654,37.4705],[127.30794,37.46917],[127.30869,37.46754],[127.30868,37.4658],[127.30794,37.46416],[127.30654,37.46283],[127.30465,37.46196],[127.3025,37.46166],[127.30035,37.46196],[127.29846,37.46283],[127.29706,37.46416],[127.29632,37.4658],[127.29631,37.46754],[127.29706,37.46917],[127.29846,37.4705],[127.30035,37.47137],[127.3025,37.47167]]]]},"properties":{"uac_lbl_1":"(UA 32) TOECHON","uac_lbl_2":"500FT HEI","uac_lbl_3":""},"id":"LT_C_AISUAC.20"},{"type":"Feature","geometry":{"type":"MultiPolygon","coordinates":[[[[127.35083,36.65111],[127.35306,36.65056],[127.35167,36.64722],[127.34972,36.64778],[127.35083,36.65111]]]]},"properties":{"uac_lbl_1":"(UA 33) BYEONCHEON-CHEON","uac_lbl_2":"500FT HEI","uac_lbl_3":"SFC"},"id":"LT_C_AISUAC.21"},{"type":"Feature","geometry":{"type":"MultiPolygon","coordinates":[[[[127.34667,36.61944],[127.35139,36.61806],[127.34694,36.61],[127.3425,36.61389],[127.34667,36.61944]]]]},"properties":{"uac_lbl_1":"(UA 34) MIHO-CHEON","uac_lbl_2":"500FT HEI","uac_lbl_3":"SFC"},"id":"LT_C_AISUAC.22"},{"type":"Feature","geometry":{"type":"MultiPolygon","coordinates":[[[[129.16306,35.52472],[129.16583,35.52444],[129.16694,35.525],[129.1675,35.52389],[129.16694,35.52333],[129.16278,35.52361],[129.16306,35.52472]]]]},"properties":{"uac_lbl_1":"(UA 38) ULJU","uac_lbl_2":"500FT HEI","uac_lbl_3":"SFC"},"id":"LT_C_AISUAC.23"},{"type":"Feature","geometry":{"type":"MultiPolygon","coordinates":[[[[128.44416,35.8435],[128.44433,35.84349],[128.4445,35.84345],[128.44465,35.84338],[128.44479,35.84329],[128.4449,35.84318],[128.44498,35.84306],[128.44503,35.84292],[128.44505,35.84278],[128.44504,35.84264],[128.44499,35.84251],[128.44491,35.84238],[128.4448,35.84227],[128.44466,35.84218],[128.44451,35.84211],[128.44434,35.84207],[128.44417,35.84206],[128.444,35.84207],[128.44383,35.84211],[128.44368,35.84218],[128.44354,35.84226],[128.44343,35.84237],[128.44335,35.8425],[128.4433,35.84263],[128.44328,35.84277],[128.4433,35.84291],[128.44335,35.84305],[128.44343,35.84317],[128.44354,35.84328],[128.44367,35.84337],[128.44382,35.84344],[128.44399,35.84348],[128.44416,35.8435]]]]},"properties":{"uac_lbl_1":"(UA 40) GORYEONG","uac_lbl_2":"500FT HEI","uac_lbl_3":"SFC"},"id":"LT_C_AISUAC.24"},{"type":"Feature","geometry":{"type":"MultiPolygon","coordinates":[[[[126.8825,35.915],[126.89417,35.91611],[126.90556,35.91028],[126.90222,35.90556],[126.89194,35.91083],[126.88444,35.90972],[126.8825,35.915]]]]},"properties":{"uac_lbl_1":"(UA 39) GIMJE","uac_lbl_2":"500FT HEI","uac_lbl_3":"SFC"},"id":"LT_C_AISUAC.25"},{"type":"Feature","geometry":{"type":"MultiPolygon","coordinates":[[[[127.39056,36.465],[127.4075,36.46583],[127.41083,36.45278],[127.385,36.45194],[127.39056,36.465]]]]},"properties":{"uac_lbl_1":"(UA 41) DAEJEON","uac_lbl_2":"500FT HEI","uac_lbl_3":"SFC"},"id":"LT_C_AISUAC.26"},{"type":"Feature","geometry":{"type":"MultiPolygon","coordinates":[[[[126.86115,35.22152],[126.86112,35.22161],[126.86112,35.22169],[126.86114,35.22178],[126.86117,35.22186],[126.86123,35.22194],[126.8613,35.222],[126.86139,35.22206],[126.86149,35.22209],[126.86159,35.22211],[126.8617,35.22212],[126.86181,35.2221],[126.86191,35.22207],[126.862,35.22203],[126.86208,35.22197],[126.86214,35.22189],[126.86219,35.22181],[126.86221,35.22173],[126.86221,35.22164],[126.8622,35.22155],[126.86216,35.22147],[126.8621,35.22139],[126.86203,35.22133],[126.86194,35.22128],[126.86185,35.22124],[126.86174,35.22122],[126.86163,35.22122],[126.86153,35.22123],[126.86143,35.22126],[126.86133,35.22131],[126.86126,35.22137],[126.86119,35.22144],[126.86115,35.22152]]]]},"properties":{"uac_lbl_1":"(UA 42) GWANGJU","uac_lbl_2":"100FT HEI","uac_lbl_3":"SFC"},"id":"LT_C_AISUAC.27"},{"type":"Feature","geometry":{"type":"MultiPolygon","coordinates":[[[[128.46083,37.17667],[128.4625,37.17528],[128.46194,37.17472],[128.46028,37.17611],[128.46083,37.17667]]]]},"properties":{"uac_lbl_1":"(UA 43) YEONGWOL","uac_lbl_2":"100FT HEI","uac_lbl_3":"SFC"},"id":"LT_C_AISUAC.28"},{"type":"Feature","geometry":{"type":"MultiPolygon","coordinates":[[[[126.30556,33.38255],[126.30769,33.38248],[126.3098,33.38229],[126.3119,33.38197],[126.31397,33.38153],[126.31599,33.38097],[126.31796,33.38028],[126.31986,33.37948],[126.3217,33.37857],[126.32345,33.37755],[126.32511,33.37643],[126.32666,33.37521],[126.32812,33.3739],[126.32945,33.37251],[126.33067,33.37104],[126.33176,33.3695],[126.33271,33.3679],[126.33352,33.36625],[126.3342,33.36455],[126.33472,33.36282],[126.3351,33.36106],[126.33533,33.35928],[126.3354,33.3575],[126.33533,33.35571],[126.3351,33.35393],[126.33472,33.35217],[126.33419,33.35044],[126.33352,33.34874],[126.3327,33.34709],[126.33175,33.34549],[126.33066,33.34396],[126.32945,33.34249],[126.32811,33.3411],[126.32666,33.33979],[126.3251,33.33857],[126.32344,33.33745],[126.32169,33.33643],[126.31986,33.33552],[126.31795,33.33472],[126.31598,33.33403],[126.31396,33.33347],[126.3119,33.33303],[126.3098,33.33271],[126.30768,33.33252],[126.30556,33.33245],[126.30343,33.33252],[126.30131,33.33271],[126.29921,33.33303],[126.29715,33.33347],[126.29513,33.33403],[126.29316,33.33472],[126.29125,33.33552],[126.28942,33.33643],[126.28767,33.33745],[126.28601,33.33857],[126.28445,33.33979],[126.283,33.3411],[126.28167,33.34249],[126.28045,33.34396],[126.27936,33.34549],[126.27841,33.34709],[126.27759,33.34874],[126.27692,33.35044],[126.27639,33.35217],[126.27601,33.35393],[126.27579,33.35571],[126.27571,33.3575],[126.27578,33.35928],[126.27601,33.36106],[126.27639,33.36282],[126.27692,33.36455],[126.27759,33.36625],[126.2784,33.3679],[126.27936,33.3695],[126.28044,33.37104],[126.28166,33.37251],[126.28299,33.3739],[126.28445,33.37521],[126.28601,33.37643],[126.28766,33.37755],[126.28942,33.37857],[126.29125,33.37948],[126.29315,33.38028],[126.29512,33.38097],[126.29714,33.38153],[126.29921,33.38197],[126.30131,33.38229],[126.30343,33.38248],[126.30556,33.38255]]]]},"properties":{"uac_lbl_1":"(UA 44) GUMAK","uac_lbl_2":"1900FT ALT","uac_lbl_3":"SFC"},"id":"LT_C_AISUAC.29"},{"type":"Feature","geometry":{"type":"MultiPolygon","coordinates":[[[[127.5325,35.45148],[127.5347,35.45144],[127.53689,35.45132],[127.53908,35.45111],[127.54125,35.45083],[127.5434,35.45047],[127.54553,35.45003],[127.54764,35.44951],[127.54971,35.44892],[127.55175,35.44825],[127.55376,35.44751],[127.55571,35.44669],[127.55763,35.4458],[127.55949,35.44484],[127.56129,35.44382],[127.56304,35.44273],[127.56473,35.44157],[127.56635,35.44036],[127.56791,35.43909],[127.56939,35.43776],[127.5708,35.43638],[127.57213,35.43495],[127.57338,35.43347],[127.57455,35.43194],[127.57563,35.43038],[127.57663,35.42877],[127.57754,35.42714],[127.57835,35.42547],[127.57908,35.42377],[127.57971,35.42204],[127.58025,35.4203],[127.58069,35.41854],[127.58103,35.41676],[127.58127,35.41497],[127.58142,35.41318],[127.58147,35.41138],[127.58142,35.40958],[127.58127,35.40779],[127.58102,35.406],[127.58068,35.40422],[127.58024,35.40246],[127.5797,35.40071],[127.57907,35.39899],[127.57834,35.39729],[127.57752,35.39562],[127.57661,35.39399],[127.57561,35.39238],[127.57453,35.39082],[127.57336,35.3893],[127.57211,35.38782],[127.57077,35.38639],[127.56937,35.38501],[127.56788,35.38368],[127.56633,35.38241],[127.56471,35.38119],[127.56302,35.38004],[127.56127,35.37895],[127.55947,35.37793],[127.55761,35.37697],[127.55569,35.37608],[127.55374,35.37527],[127.55174,35.37452],[127.5497,35.37385],[127.54763,35.37326],[127.54552,35.37274],[127.54339,35.3723],[127.54124,35.37194],[127.53907,35.37166],[127.53689,35.37146],[127.5347,35.37134],[127.5325,35.3713],[127.5303,35.37134],[127.52811,35.37146],[127.52593,35.37166],[127.52376,35.37194],[127.52161,35.3723],[127.51948,35.37274],[127.51737,35.37326],[127.5153,35.37385],[127.51326,35.37452],[127.51126,35.37527],[127.5093,35.37608],[127.50739,35.37697],[127.50553,35.37793],[127.50373,35.37895],[127.50198,35.38004],[127.50029,35.38119],[127.49867,35.38241],[127.49712,35.38368],[127.49563,35.38501],[127.49423,35.38639],[127.49289,35.38782],[127.49164,35.3893],[127.49047,35.39082],[127.48939,35.39238],[127.48839,35.39399],[127.48748,35.39562],[127.48666,35.39729],[127.48593,35.39899],[127.4853,35.40071],[127.48476,35.40246],[127.48432,35.40422],[127.48398,35.406],[127.48373,35.40779],[127.48358,35.40958],[127.48353,35.41138],[127.48358,35.41318],[127.48373,35.41497],[127.48397,35.41676],[127.48431,35.41854],[127.48475,35.4203],[127.48529,35.42204],[127.48592,35.42377],[127.48664,35.42547],[127.48746,35.42714],[127.48837,35.42877],[127.48937,35.43038],[127.49045,35.43194],[127.49162,35.43347],[127.49287,35.43495],[127.4942,35.43638],[127.49561,35.43776],[127.49709,35.43909],[127.49865,35.44036],[127.50027,35.44157],[127.50196,35.44273],[127.5037,35.44382],[127.50551,35.44484],[127.50737,35.4458],[127.50928,35.44669],[127.51124,35.44751],[127.51324,35.44825],[127.51529,35.44892],[127.51736,35.44951],[127.51947,35.45003],[127.5216,35.45047],[127.52375,35.45083],[127.52592,35.45111],[127.52811,35.45132],[127.5303,35.45144],[127.5325,35.45148]]]]},"properties":{"uac_lbl_1":"(UA 5) DEOKDUSAN","uac_lbl_2":"500FT HEI","uac_lbl_3":"SFC"},"id":"LT_C_AISUAC.3"},{"type":"Feature","geometry":{"type":"MultiPolygon","coordinates":[[[[128.37833,37.01256],[128.38057,37.01253],[128.38281,37.01244],[128.38504,37.01227],[128.38727,37.01205],[128.38948,37.01176],[128.39168,37.01141],[128.39386,37.01099],[128.39602,37.01051],[128.39816,37.00997],[128.40027,37.00937],[128.40235,37.00871],[128.4044,37.00799],[128.40642,37.00721],[128.40841,37.00637],[128.41035,37.00547],[128.41225,37.00452],[128.41411,37.00352],[128.41592,37.00246],[128.41769,37.00135],[128.4194,37.00019],[128.42106,36.99899],[128.42267,36.99773],[128.42421,36.99643],[128.4257,36.99509],[128.42713,36.9937],[128.42849,36.99228],[128.42979,36.99081],[128.43103,36.98931],[128.43219,36.98778],[128.43329,36.98621],[128.43431,36.98461],[128.43527,36.98299],[128.43615,36.98133],[128.43695,36.97966],[128.43768,36.97796],[128.43833,36.97624],[128.43891,36.9745],[128.4394,36.97275],[128.43982,36.97098],[128.44016,36.9692],[128.44042,36.96742],[128.4406,36.96563],[128.4407,36.96383],[128.44072,36.96203],[128.44066,36.96024],[128.44051,36.95844],[128.44029,36.95666],[128.43999,36.95487],[128.43961,36.9531],[128.43915,36.95134],[128.43861,36.9496],[128.43799,36.94787],[128.4373,36.94616],[128.43653,36.94447],[128.43569,36.94281],[128.43477,36.94117],[128.43378,36.93956],[128.43272,36.93798],[128.43158,36.93643],[128.43038,36.93491],[128.42911,36.93343],[128.42778,36.93198],[128.42638,36.93058],[128.42493,36.92921],[128.42341,36.92789],[128.42183,36.92662],[128.4202,36.92539],[128.41851,36.92421],[128.41677,36.92307],[128.41498,36.92199],[128.41315,36.92096],[128.41127,36.91999],[128.40935,36.91906],[128.40739,36.9182],[128.40539,36.91739],[128.40335,36.91664],[128.40129,36.91595],[128.39919,36.91532],[128.39707,36.91475],[128.39492,36.91424],[128.39275,36.91379],[128.39057,36.91341],[128.38836,36.91309],[128.38615,36.91283],[128.38392,36.91264],[128.38169,36.91251],[128.37945,36.91244],[128.37721,36.91244],[128.37498,36.91251],[128.37274,36.91264],[128.37052,36.91283],[128.3683,36.91309],[128.3661,36.91341],[128.36391,36.91379],[128.36175,36.91424],[128.3596,36.91475],[128.35748,36.91532],[128.35538,36.91595],[128.35331,36.91664],[128.35128,36.91739],[128.34928,36.9182],[128.34732,36.91906],[128.3454,36.91999],[128.34352,36.92096],[128.34168,36.92199],[128.33989,36.92307],[128.33816,36.92421],[128.33647,36.92539],[128.33484,36.92662],[128.33326,36.92789],[128.33174,36.92921],[128.33028,36.93058],[128.32889,36.93198],[128.32755,36.93343],[128.32628,36.93491],[128.32508,36.93643],[128.32395,36.93798],[128.32289,36.93956],[128.3219,36.94117],[128.32098,36.94281],[128.32014,36.94447],[128.31937,36.94616],[128.31867,36.94787],[128.31806,36.9496],[128.31752,36.95134],[128.31706,36.9531],[128.31668,36.95487],[128.31637,36.95666],[128.31615,36.95844],[128.31601,36.96024],[128.31595,36.96203],[128.31597,36.96383],[128.31607,36.96563],[128.31625,36.96742],[128.3165,36.9692],[128.31684,36.97098],[128.31726,36.97275],[128.31776,36.9745],[128.31833,36.97624],[128.31899,36.97796],[128.31972,36.97966],[128.32052,36.98133],[128.3214,36.98299],[128.32235,36.98461],[128.32338,36.98621],[128.32447,36.98778],[128.32564,36.98931],[128.32687,36.99081],[128.32817,36.99228],[128.32954,36.9937],[128.33096,36.99509],[128.33245,36.99643],[128.334,36.99773],[128.33561,36.99899],[128.33727,37.00019],[128.33898,37.00135],[128.34074,37.00246],[128.34256,37.00352],[128.34441,37.00452],[128.34632,37.00547],[128.34826,37.00637],[128.35024,37.00721],[128.35226,37.00799],[128.35431,37.00871],[128.3564,37.00937],[128.35851,37.00997],[128.36065,37.01051],[128.36281,37.01099],[128.36499,37.01141],[128.36719,37.01176],[128.3694,37.01205],[128.37162,37.01227],[128.37385,37.01244],[128.37609,37.01253],[128.37833,37.01256]]]]},"properties":{"uac_lbl_1":"(UA 45) DANYANG","uac_lbl_2":"500FT HEI","uac_lbl_3":"SFC"},"id":"LT_C_AISUAC.30"},{"type":"Feature","geometry":{"type":"MultiPolygon","coordinates":[[[[127.14333,35.76785],[127.14554,35.76782],[127.14774,35.76772],[127.14994,35.76756],[127.15213,35.76734],[127.1543,35.76705],[127.15647,35.76669],[127.15861,35.76628],[127.16074,35.7658],[127.16284,35.76526],[127.16492,35.76466],[127.16697,35.764],[127.16899,35.76327],[127.17098,35.76249],[127.17293,35.76165],[127.17484,35.76076],[127.17672,35.75981],[127.17855,35.75881],[127.18033,35.75775],[127.18207,35.75664],[127.18375,35.75548],[127.18539,35.75427],[127.18697,35.75302],[127.18849,35.75172],[127.18995,35.75038],[127.19136,35.74899],[127.1927,35.74756],[127.19398,35.7461],[127.1952,35.7446],[127.19634,35.74306],[127.19742,35.74149],[127.19843,35.7399],[127.19937,35.73827],[127.20023,35.73662],[127.20102,35.73494],[127.20174,35.73324],[127.20238,35.73152],[127.20295,35.72978],[127.20344,35.72803],[127.20385,35.72626],[127.20419,35.72448],[127.20444,35.7227],[127.20462,35.72091],[127.20472,35.71911],[127.20473,35.71731],[127.20467,35.71552],[127.20453,35.71372],[127.20431,35.71193],[127.20402,35.71015],[127.20364,35.70838],[127.20319,35.70662],[127.20266,35.70488],[127.20205,35.70315],[127.20137,35.70144],[127.20061,35.69975],[127.19978,35.69808],[127.19888,35.69644],[127.1979,35.69483],[127.19686,35.69325],[127.19574,35.6917],[127.19456,35.69018],[127.19331,35.6887],[127.192,35.68725],[127.19063,35.68585],[127.18919,35.68449],[127.1877,35.68316],[127.18614,35.68189],[127.18454,35.68066],[127.18288,35.67948],[127.18117,35.67834],[127.17941,35.67726],[127.1776,35.67623],[127.17575,35.67525],[127.17386,35.67433],[127.17193,35.67347],[127.16996,35.67266],[127.16796,35.67191],[127.16592,35.67122],[127.16386,35.67059],[127.16177,35.67002],[127.15966,35.66951],[127.15752,35.66906],[127.15537,35.66868],[127.1532,35.66835],[127.15102,35.6681],[127.14883,35.6679],[127.14664,35.66778],[127.14443,35.66771],[127.14223,35.66771],[127.14003,35.66778],[127.13783,35.6679],[127.13564,35.6681],[127.13346,35.66835],[127.13129,35.66868],[127.12914,35.66906],[127.12701,35.66951],[127.12489,35.67002],[127.12281,35.67059],[127.12074,35.67122],[127.11871,35.67191],[127.11671,35.67266],[127.11474,35.67347],[127.11281,35.67433],[127.11092,35.67525],[127.10907,35.67623],[127.10726,35.67726],[127.1055,35.67834],[127.10379,35.67948],[127.10213,35.68066],[127.10052,35.68189],[127.09897,35.68316],[127.09748,35.68449],[127.09604,35.68585],[127.09467,35.68725],[127.09335,35.6887],[127.09211,35.69018],[127.09092,35.6917],[127.08981,35.69325],[127.08876,35.69483],[127.08779,35.69644],[127.08689,35.69808],[127.08605,35.69975],[127.0853,35.70144],[127.08461,35.70315],[127.08401,35.70488],[127.08348,35.70662],[127.08302,35.70838],[127.08265,35.71015],[127.08235,35.71193],[127.08213,35.71372],[127.08199,35.71552],[127.08193,35.71731],[127.08195,35.71911],[127.08205,35.72091],[127.08223,35.7227],[127.08248,35.72448],[127.08281,35.72626],[127.08323,35.72803],[127.08372,35.72978],[127.08428,35.73152],[127.08492,35.73324],[127.08564,35.73494],[127.08643,35.73662],[127.0873,35.73827],[127.08824,35.7399],[127.08925,35.74149],[127.09032,35.74306],[127.09147,35.7446],[127.09269,35.7461],[127.09396,35.74756],[127.09531,35.74899],[127.09671,35.75038],[127.09818,35.75172],[127.0997,35.75302],[127.10128,35.75427],[127.10291,35.75548],[127.1046,35.75664],[127.10634,35.75775],[127.10812,35.75881],[127.10995,35.75981],[127.11182,35.76076],[127.11374,35.76165],[127.11569,35.76249],[127.11767,35.76327],[127.11969,35.764],[127.12175,35.76466],[127.12382,35.76526],[127.12593,35.7658],[127.12805,35.76628],[127.1302,35.76669],[127.13236,35.76705],[127.13454,35.76734],[127.13673,35.76756],[127.13893,35.76772],[127.14113,35.76782],[127.14333,35.76785]]]]},"properties":{"uac_lbl_1":"(UA 46) GYEONGGAKSAN","uac_lbl_2":"500FT HEI","uac_lbl_3":"SFC"},"id":"LT_C_AISUAC.31"},{"type":"Feature","geometry":{"type":"MultiPolygon","coordinates":[[[[126.81389,36.46472],[126.81556,36.46556],[126.81639,36.46472],[126.81446,36.46389],[126.81389,36.46472]]]]},"properties":{"uac_lbl_1":"(UA 47) CHEONGYANG","uac_lbl_2":"100FT HEI","uac_lbl_3":"SFC"},"id":"LT_C_AISUAC.32"},{"type":"Feature","geometry":{"type":"MultiPolygon","coordinates":[[[[127.86722,36.4475],[127.86778,36.44861],[127.86889,36.44833],[127.86806,36.44722],[127.86722,36.4475]]]]},"properties":{"uac_lbl_1":"(UA 48) BOEUN","uac_lbl_2":"100FT HEI","uac_lbl_3":"SFC"},"id":"LT_C_AISUAC.33"},{"type":"Feature","geometry":{"type":"MultiPolygon","coordinates":[[[[126.9,36.28222],[126.90111,36.28194],[126.90083,36.28111],[126.89972,36.28167],[126.9,36.28222]]]]},"properties":{"uac_lbl_1":"(UA 49) BUYEO","uac_lbl_2":"100FT HEI","uac_lbl_3":"SFC"},"id":"LT_C_AISUAC.34"},{"type":"Feature","geometry":{"type":"MultiPolygon","coordinates":[[[[127.78139,37.865],[127.7825,37.86583],[127.78333,37.86472],[127.78167,37.86444],[127.78139,37.865]]]]},"properties":{"uac_lbl_1":"(UA 50) CHUNCHEON","uac_lbl_2":"100FT HEI","uac_lbl_3":"SFC"},"id":"LT_C_AISUAC.35"},{"type":"Feature","geometry":{"type":"MultiPolygon","coordinates":[[[[128.80389,35.36472],[128.805,35.36444],[128.805,35.36333],[128.80389,35.36361],[128.80389,35.36472]]]]},"properties":{"uac_lbl_1":"(UA 51) GIMHAE2","uac_lbl_2":"100FT HEI","uac_lbl_3":"SFC"},"id":"LT_C_AISUAC.36"},{"type":"Feature","geometry":{"type":"MultiPolygon","coordinates":[[[[128.21444,36.60417],[128.21528,36.60472],[128.21639,36.60361],[128.21556,36.60306],[128.21444,36.60417]]]]},"properties":{"uac_lbl_1":"(UA 52) MUNGYEONG","uac_lbl_2":"100FT HEI","uac_lbl_3":"SFC"},"id":"LT_C_AISUAC.37"},{"type":"Feature","geometry":{"type":"MultiPolygon","coordinates":[[[[127.95972,35.06194],[127.96111,35.06167],[127.96083,35.06083],[127.95944,35.06111],[127.95972,35.06194]]]]},"properties":{"uac_lbl_1":"(UA 53) SACHEON","uac_lbl_2":"100FT HEI","uac_lbl_3":"SFC"},"id":"LT_C_AISUAC.38"},{"type":"Feature","geometry":{"type":"MultiPolygon","coordinates":[[[[128.92417,35.97056],[128.92528,35.97],[128.92417,35.96861],[128.92306,35.96889],[128.92417,35.97056]]]]},"properties":{"uac_lbl_1":"(UA 54) YEONGCHEON","uac_lbl_2":"100FT HEI","uac_lbl_3":"SFC"},"id":"LT_C_AISUAC.39"},{"type":"Feature","geometry":{"type":"MultiPolygon","coordinates":[[[[127.98111,34.75476],[127.98326,34.75468],[127.98539,34.75442],[127.98748,34.754],[127.98951,34.75341],[127.99146,34.75266],[127.99331,34.75176],[127.99505,34.75072],[127.99666,34.74954],[127.99813,34.74824],[127.99943,34.74683],[128.00057,34.74532],[128.00152,34.74373],[128.00228,34.74207],[128.00285,34.74035],[128.00321,34.7386],[128.00336,34.73683],[128.00331,34.73506],[128.00305,34.73329],[128.00259,34.73156],[128.00192,34.72987],[128.00106,34.72824],[128.00002,34.72669],[127.9988,34.72523],[127.99741,34.72387],[127.99587,34.72263],[127.99419,34.72152],[127.99239,34.72055],[127.99049,34.71972],[127.9885,34.71905],[127.98644,34.71855],[127.98433,34.71821],[127.98219,34.71803],[127.98004,34.71803],[127.9779,34.71821],[127.97578,34.71855],[127.97372,34.71905],[127.97173,34.71972],[127.96983,34.72055],[127.96803,34.72152],[127.96635,34.72263],[127.96481,34.72387],[127.96343,34.72523],[127.9622,34.72669],[127.96116,34.72824],[127.9603,34.72987],[127.95963,34.73156],[127.95917,34.73329],[127.95891,34.73506],[127.95886,34.73683],[127.95901,34.7386],[127.95937,34.74035],[127.95994,34.74207],[127.9607,34.74373],[127.96165,34.74532],[127.96279,34.74683],[127.96409,34.74824],[127.96556,34.74954],[127.96717,34.75072],[127.96891,34.75176],[127.97076,34.75266],[127.97271,34.75341],[127.97474,34.754],[127.97683,34.75442],[127.97896,34.75468],[127.98111,34.75476]]]]},"properties":{"uac_lbl_1":"(UA 6) GUMSAN","uac_lbl_2":"500FT HEI","uac_lbl_3":"SFC"},"id":"LT_C_AISUAC.4"},{"type":"Feature","geometry":{"type":"MultiPolygon","coordinates":[[[[128.16194,35.15861],[128.16306,35.15833],[128.1625,35.15722],[128.16167,35.1575],[128.16194,35.15861]]]]},"properties":{"uac_lbl_1":"(UA 55) JINJU","uac_lbl_2":"100FT HEI","uac_lbl_3":"SFC"},"id":"LT_C_AISUAC.40"},{"type":"Feature","geometry":{"type":"MultiPolygon","coordinates":[[[[127.10111,35.76694],[127.10222,35.76694],[127.10222,35.76556],[127.10111,35.76556],[127.10111,35.76694]]]]},"properties":{"uac_lbl_1":"(UA 56) JEONJU","uac_lbl_2":"100FT HEI","uac_lbl_3":"SFC"},"id":"LT_C_AISUAC.41"},{"type":"Feature","geometry":{"type":"MultiPolygon","coordinates":[[[[127.4825,35.82278],[127.48361,35.82278],[127.48361,35.82139],[127.4825,35.82139],[127.4825,35.82278]]]]},"properties":{"uac_lbl_1":"(UA 57) JINAN","uac_lbl_2":"100FT HEI","uac_lbl_3":"SFC"},"id":"LT_C_AISUAC.42"},{"type":"Feature","geometry":{"type":"MultiPolygon","coordinates":[[[[129.37972,36.91722],[129.38,36.91722],[129.37972,36.91667],[129.37917,36.91694],[129.37972,36.91722]]]]},"properties":{"uac_lbl_1":"(UA 58) ULJIN","uac_lbl_2":"100FT HEI","uac_lbl_3":"SFC"},"id":"LT_C_AISUAC.43"},{"type":"Feature","geometry":{"type":"MultiPolygon","coordinates":[[[[128.3825,35.03613],[128.38466,35.03601],[128.38679,35.03566],[128.38884,35.03507],[128.39077,35.03427],[128.39256,35.03326],[128.39417,35.03206],[128.39557,35.0307],[128.39674,35.0292],[128.39765,35.02758],[128.39829,35.02587],[128.39865,35.02411],[128.39873,35.02233],[128.39851,35.02056],[128.398,35.01882],[128.39723,35.01716],[128.39618,35.01559],[128.3949,35.01415],[128.39339,35.01287],[128.39169,35.01177],[128.38982,35.01086],[128.38782,35.01016],[128.38573,35.00969],[128.38358,35.00945],[128.38142,35.00945],[128.37927,35.00969],[128.37718,35.01016],[128.37518,35.01086],[128.37331,35.01177],[128.37161,35.01287],[128.3701,35.01415],[128.36882,35.01559],[128.36777,35.01716],[128.367,35.01882],[128.36649,35.02056],[128.36627,35.02233],[128.36635,35.02411],[128.36671,35.02587],[128.36735,35.02758],[128.36826,35.0292],[128.36943,35.0307],[128.37083,35.03206],[128.37244,35.03326],[128.37423,35.03427],[128.37616,35.03507],[128.37821,35.03566],[128.38034,35.03601],[128.3825,35.03613]]]]},"properties":{"uac_lbl_1":"(UA 59) GOSUNG","uac_lbl_2":"1500FT HEI","uac_lbl_3":"SFC"},"id":"LT_C_AISUAC.44"},{"type":"Feature","geometry":{"type":"MultiPolygon","coordinates":[[[[128.46861,37.22228],[128.47086,37.22225],[128.4731,37.22216],[128.47534,37.22199],[128.47757,37.22177],[128.47979,37.22148],[128.48199,37.22113],[128.48418,37.22071],[128.48635,37.22023],[128.48849,37.21969],[128.49061,37.21909],[128.4927,37.21843],[128.49475,37.21771],[128.49678,37.21693],[128.49877,37.21609],[128.50072,37.21519],[128.50262,37.21424],[128.50449,37.21324],[128.50631,37.21218],[128.50807,37.21107],[128.50979,37.20992],[128.51146,37.20871],[128.51307,37.20745],[128.51462,37.20615],[128.51611,37.20481],[128.51754,37.20343],[128.51891,37.202],[128.52021,37.20054],[128.52145,37.19904],[128.52262,37.1975],[128.52372,37.19593],[128.52475,37.19433],[128.5257,37.19271],[128.52658,37.19105],[128.52739,37.18938],[128.52812,37.18768],[128.52878,37.18596],[128.52935,37.18422],[128.52985,37.18247],[128.53027,37.1807],[128.53061,37.17893],[128.53087,37.17714],[128.53105,37.17535],[128.53115,37.17355],[128.53117,37.17176],[128.53111,37.16996],[128.53096,37.16817],[128.53074,37.16638],[128.53044,37.1646],[128.53006,37.16283],[128.52959,37.16107],[128.52905,37.15932],[128.52844,37.15759],[128.52774,37.15589],[128.52697,37.1542],[128.52612,37.15253],[128.5252,37.15089],[128.52421,37.14928],[128.52314,37.1477],[128.52201,37.14615],[128.5208,37.14463],[128.51953,37.14315],[128.51819,37.14171],[128.51679,37.1403],[128.51533,37.13894],[128.51381,37.13762],[128.51223,37.13634],[128.51059,37.13511],[128.5089,37.13393],[128.50716,37.1328],[128.50536,37.13171],[128.50352,37.13069],[128.50164,37.12971],[128.49971,37.12879],[128.49774,37.12792],[128.49574,37.12711],[128.4937,37.12636],[128.49163,37.12567],[128.48953,37.12504],[128.4874,37.12447],[128.48524,37.12396],[128.48307,37.12352],[128.48088,37.12313],[128.47867,37.12281],[128.47645,37.12255],[128.47422,37.12236],[128.47198,37.12223],[128.46973,37.12217],[128.46749,37.12217],[128.46525,37.12223],[128.46301,37.12236],[128.46078,37.12255],[128.45855,37.12281],[128.45635,37.12313],[128.45415,37.12352],[128.45198,37.12396],[128.44983,37.12447],[128.4477,37.12504],[128.4456,37.12567],[128.44352,37.12636],[128.44148,37.12711],[128.43948,37.12792],[128.43751,37.12879],[128.43558,37.12971],[128.4337,37.13069],[128.43186,37.13171],[128.43007,37.1328],[128.42832,37.13393],[128.42663,37.13511],[128.42499,37.13634],[128.42341,37.13762],[128.42189,37.13894],[128.42043,37.1403],[128.41903,37.14171],[128.41769,37.14315],[128.41642,37.14463],[128.41521,37.14615],[128.41408,37.1477],[128.41301,37.14928],[128.41202,37.15089],[128.4111,37.15253],[128.41025,37.1542],[128.40948,37.15589],[128.40879,37.15759],[128.40817,37.15932],[128.40763,37.16107],[128.40717,37.16283],[128.40678,37.1646],[128.40648,37.16638],[128.40626,37.16817],[128.40612,37.16996],[128.40605,37.17176],[128.40607,37.17355],[128.40617,37.17535],[128.40635,37.17714],[128.40661,37.17893],[128.40695,37.1807],[128.40737,37.18247],[128.40787,37.18422],[128.40845,37.18596],[128.4091,37.18768],[128.40983,37.18938],[128.41064,37.19105],[128.41152,37.19271],[128.41248,37.19433],[128.4135,37.19593],[128.4146,37.1975],[128.41577,37.19904],[128.41701,37.20054],[128.41831,37.202],[128.41968,37.20343],[128.42111,37.20481],[128.4226,37.20615],[128.42416,37.20745],[128.42577,37.20871],[128.42743,37.20992],[128.42915,37.21107],[128.43092,37.21218],[128.43273,37.21324],[128.4346,37.21424],[128.43651,37.21519],[128.43846,37.21609],[128.44044,37.21693],[128.44247,37.21771],[128.44453,37.21843],[128.44662,37.21909],[128.44873,37.21969],[128.45088,37.22023],[128.45304,37.22071],[128.45523,37.22113],[128.45743,37.22148],[128.45965,37.22177],[128.46188,37.22199],[128.46412,37.22216],[128.46636,37.22225],[128.46861,37.22228]]]]},"properties":{"uac_lbl_1":"(UA 60) YEONGWOL2","uac_lbl_2":"1500FT HEI","uac_lbl_3":"SFC"},"id":"LT_C_AISUAC.45"},{"type":"Feature","geometry":{"type":"MultiPolygon","coordinates":[[[[127.80194,36.59787],[127.80416,36.59781],[127.80637,36.59763],[127.80855,36.59734],[127.81071,36.59693],[127.81283,36.5964],[127.8149,36.59577],[127.81692,36.59502],[127.81887,36.59417],[127.82074,36.59322],[127.82254,36.59217],[127.82424,36.59102],[127.82585,36.58979],[127.82735,36.58847],[127.82874,36.58708],[127.83001,36.58562],[127.83116,36.58409],[127.83218,36.5825],[127.83307,36.58087],[127.83383,36.57918],[127.83444,36.57747],[127.83491,36.57572],[127.83524,36.57395],[127.83542,36.57217],[127.83546,36.57038],[127.83535,36.5686],[127.83509,36.56682],[127.83469,36.56506],[127.83414,36.56333],[127.83346,36.56163],[127.83264,36.55997],[127.83168,36.55836],[127.83059,36.5568],[127.82938,36.5553],[127.82805,36.55387],[127.8266,36.55252],[127.82504,36.55125],[127.82339,36.55006],[127.82164,36.54896],[127.81981,36.54796],[127.81789,36.54705],[127.81591,36.54626],[127.81387,36.54557],[127.81177,36.54498],[127.80963,36.54452],[127.80746,36.54417],[127.80526,36.54393],[127.80305,36.54381],[127.80084,36.54381],[127.79863,36.54393],[127.79643,36.54417],[127.79426,36.54452],[127.79212,36.54498],[127.79002,36.54557],[127.78798,36.54626],[127.786,36.54705],[127.78408,36.54796],[127.78225,36.54896],[127.7805,36.55006],[127.77884,36.55125],[127.77729,36.55252],[127.77584,36.55387],[127.77451,36.5553],[127.7733,36.5568],[127.77221,36.55836],[127.77125,36.55997],[127.77043,36.56163],[127.76974,36.56333],[127.7692,36.56506],[127.7688,36.56682],[127.76854,36.5686],[127.76843,36.57038],[127.76847,36.57217],[127.76865,36.57395],[127.76898,36.57572],[127.76945,36.57747],[127.77006,36.57918],[127.77082,36.58087],[127.77171,36.5825],[127.77273,36.58409],[127.77388,36.58562],[127.77515,36.58708],[127.77654,36.58847],[127.77804,36.58979],[127.77965,36.59102],[127.78135,36.59217],[127.78314,36.59322],[127.78502,36.59417],[127.78697,36.59502],[127.78899,36.59577],[127.79106,36.5964],[127.79318,36.59693],[127.79534,36.59734],[127.79752,36.59763],[127.79973,36.59781],[127.80194,36.59787]]]]},"properties":{"uac_lbl_1":"(UA 61) BOEUN2","uac_lbl_2":"1000FT HEI","uac_lbl_3":"SFC"},"id":"LT_C_AISUAC.46"},{"type":"Feature","geometry":{"type":"MultiPolygon","coordinates":[[[[126.62361,37.57778],[126.6275,37.57944],[126.62722,37.58194],[126.63278,37.58611],[126.63972,37.585],[126.64667,37.57889],[126.64667,37.57167],[126.66306,37.57278],[126.66333,37.56972],[126.65472,37.56861],[126.645,37.56583],[126.63528,37.56417],[126.62972,37.56278],[126.625,37.55917],[126.62417,37.56611],[126.62361,37.57778]]]]},"properties":{"uac_lbl_1":"(UA 62) INCHEON","uac_lbl_2":"1000FT HEI","uac_lbl_3":"SFC"},"id":"LT_C_AISUAC.47"},{"type":"Feature","geometry":{"type":"MultiPolygon","coordinates":[[[[128.13861,36.24278],[128.14083,36.24274],[128.14304,36.24262],[128.14524,36.24242],[128.14743,36.24215],[128.1496,36.24179],[128.15175,36.24136],[128.15387,36.24085],[128.15597,36.24026],[128.15803,36.2396],[128.16005,36.23887],[128.16203,36.23807],[128.16396,36.23719],[128.16585,36.23625],[128.16768,36.23524],[128.16945,36.23417],[128.17117,36.23303],[128.17281,36.23183],[128.1744,36.23058],[128.17591,36.22927],[128.17735,36.2279],[128.17871,36.22649],[128.18,36.22503],[128.1812,36.22352],[128.18232,36.22197],[128.18336,36.22039],[128.18431,36.21876],[128.18516,36.21711],[128.18593,36.21543],[128.1866,36.21372],[128.18718,36.21199],[128.18767,36.21023],[128.18806,36.20847],[128.18835,36.20669],[128.18854,36.2049],[128.18864,36.20311],[128.18864,36.20131],[128.18854,36.19952],[128.18834,36.19773],[128.18805,36.19596],[128.18766,36.19419],[128.18717,36.19244],[128.18659,36.19071],[128.18591,36.189],[128.18515,36.18732],[128.18429,36.18566],[128.18334,36.18404],[128.1823,36.18246],[128.18118,36.18091],[128.17997,36.1794],[128.17869,36.17794],[128.17732,36.17653],[128.17588,36.17517],[128.17437,36.17386],[128.17279,36.1726],[128.17114,36.17141],[128.16943,36.17027],[128.16765,36.1692],[128.16582,36.16819],[128.16394,36.16725],[128.16201,36.16637],[128.16003,36.16557],[128.15801,36.16484],[128.15595,36.16418],[128.15386,36.16359],[128.15173,36.16308],[128.14959,36.16265],[128.14742,36.1623],[128.14523,36.16202],[128.14303,36.16182],[128.14082,36.1617],[128.13861,36.16166],[128.1364,36.1617],[128.13419,36.16182],[128.13199,36.16202],[128.1298,36.1623],[128.12764,36.16265],[128.12549,36.16308],[128.12337,36.16359],[128.12127,36.16418],[128.11921,36.16484],[128.11719,36.16557],[128.11522,36.16637],[128.11328,36.16725],[128.1114,36.16819],[128.10957,36.1692],[128.1078,36.17027],[128.10608,36.17141],[128.10443,36.1726],[128.10285,36.17386],[128.10134,36.17517],[128.0999,36.17653],[128.09853,36.17794],[128.09725,36.1794],[128.09604,36.18091],[128.09492,36.18246],[128.09388,36.18404],[128.09294,36.18566],[128.09208,36.18732],[128.09131,36.189],[128.09063,36.19071],[128.09005,36.19244],[128.08956,36.19419],[128.08917,36.19596],[128.08888,36.19773],[128.08868,36.19952],[128.08858,36.20131],[128.08858,36.20311],[128.08868,36.2049],[128.08887,36.20669],[128.08916,36.20847],[128.08955,36.21023],[128.09004,36.21199],[128.09062,36.21372],[128.09129,36.21543],[128.09206,36.21711],[128.09292,36.21876],[128.09386,36.22039],[128.0949,36.22197],[128.09602,36.22352],[128.09722,36.22503],[128.09851,36.22649],[128.09987,36.2279],[128.10131,36.22927],[128.10282,36.23058],[128.10441,36.23183],[128.10606,36.23303],[128.10777,36.23417],[128.10954,36.23524],[128.11138,36.23625],[128.11326,36.23719],[128.11519,36.23807],[128.11717,36.23887],[128.1192,36.2396],[128.12126,36.24026],[128.12335,36.24085],[128.12547,36.24136],[128.12762,36.24179],[128.1298,36.24215],[128.13198,36.24242],[128.13419,36.24262],[128.1364,36.24274],[128.13861,36.24278]]]]},"properties":{"uac_lbl_1":"(UA 63) GIMCHEON","uac_lbl_2":"1000FT HEI","uac_lbl_3":"SFC"},"id":"LT_C_AISUAC.48"},{"type":"Feature","geometry":{"type":"MultiPolygon","coordinates":[[[[127.38333,37.50278],[127.38557,37.50278],[127.38781,37.50278],[127.39005,37.50278],[127.39229,37.50278],[127.39453,37.50278],[127.39677,37.50279],[127.399,37.50279],[127.40124,37.50279],[127.40348,37.50279],[127.40572,37.50279],[127.40796,37.50279],[127.4102,37.50279],[127.41244,37.50279],[127.41468,37.50279],[127.41692,37.50279],[127.41915,37.50279],[127.42139,37.5028],[127.42363,37.5028],[127.42587,37.5028],[127.42811,37.5028],[127.43035,37.5028],[127.43259,37.5028],[127.43483,37.5028],[127.43706,37.5028],[127.4393,37.5028],[127.44154,37.5028],[127.44378,37.5028],[127.44602,37.5028],[127.44826,37.5028],[127.4505,37.5028],[127.45274,37.5028],[127.45497,37.5028],[127.45721,37.5028],[127.45945,37.5028],[127.46169,37.5028],[127.46393,37.5028],[127.46617,37.5028],[127.46841,37.5028],[127.47065,37.5028],[127.47289,37.5028],[127.47512,37.5028],[127.47736,37.5028],[127.4796,37.5028],[127.48184,37.5028],[127.48408,37.5028],[127.48632,37.5028],[127.48856,37.5028],[127.4908,37.5028],[127.49303,37.5028],[127.49527,37.5028],[127.49751,37.50279],[127.49975,37.50279],[127.50199,37.50279],[127.50423,37.50279],[127.50647,37.50279],[127.50871,37.50279],[127.51095,37.50279],[127.51318,37.50279],[127.51542,37.50279],[127.51766,37.50279],[127.5199,37.50279],[127.52214,37.50278],[127.52438,37.50278],[127.52662,37.50278],[127.52886,37.50278],[127.53109,37.50278],[127.53333,37.50278],[127.53333,37.50102],[127.53333,37.49926],[127.53333,37.4975],[127.53333,37.49574],[127.53333,37.49398],[127.53333,37.49222],[127.53333,37.49046],[127.53333,37.4887],[127.53333,37.48694],[127.53333,37.48518],[127.53333,37.48343],[127.53333,37.48167],[127.53333,37.47991],[127.53333,37.47815],[127.53333,37.47639],[127.53333,37.47463],[127.53333,37.47287],[127.53333,37.47111],[127.53333,37.46935],[127.53333,37.46759],[127.53333,37.46583],[127.53333,37.46407],[127.53333,37.46231],[127.53333,37.46056],[127.53333,37.4588],[127.53333,37.45704],[127.53333,37.45528],[127.53333,37.45352],[127.53333,37.45176],[127.53333,37.45],[127.53109,37.45],[127.52886,37.45],[127.52662,37.45],[127.52438,37.45001],[127.52214,37.45001],[127.5199,37.45001],[127.51766,37.45001],[127.51542,37.45001],[127.51318,37.45001],[127.51095,37.45001],[127.50871,37.45001],[127.50647,37.45001],[127.50423,37.45001],[127.50199,37.45002],[127.49975,37.45002],[127.49751,37.45002],[127.49527,37.45002],[127.49303,37.45002],[127.4908,37.45002],[127.48856,37.45002],[127.48632,37.45002],[127.48408,37.45002],[127.48184,37.45002],[127.4796,37.45002],[127.47736,37.45002],[127.47512,37.45002],[127.47289,37.45002],[127.47065,37.45002],[127.46841,37.45002],[127.46617,37.45002],[127.46393,37.45002],[127.46169,37.45002],[127.45945,37.45002],[127.45721,37.45002],[127.45497,37.45002],[127.45274,37.45002],[127.4505,37.45002],[127.44826,37.45002],[127.44602,37.45002],[127.44378,37.45002],[127.44154,37.45002],[127.4393,37.45002],[127.43706,37.45002],[127.43483,37.45002],[127.43259,37.45002],[127.43035,37.45002],[127.42811,37.45002],[127.42587,37.45002],[127.42363,37.45002],[127.42139,37.45002],[127.41915,37.45002],[127.41692,37.45002],[127.41468,37.45002],[127.41244,37.45001],[127.4102,37.45001],[127.40796,37.45001],[127.40572,37.45001],[127.40348,37.45001],[127.40124,37.45001],[127.399,37.45001],[127.39677,37.45001],[127.39453,37.45001],[127.39229,37.45001],[127.39005,37.45],[127.38781,37.45],[127.38557,37.45],[127.38333,37.45],[127.38333,37.45176],[127.38333,37.45352],[127.38333,37.45528],[127.38333,37.45704],[127.38333,37.4588],[127.38333,37.46056],[127.38333,37.46231],[127.38333,37.46407],[127.38333,37.46583],[127.38333,37.46759],[127.38333,37.46935],[127.38333,37.47111],[127.38333,37.47287],[127.38333,37.47463],[127.38333,37.47639],[127.38333,37.47815],[127.38333,37.47991],[127.38333,37.48167],[127.38333,37.48343],[127.38333,37.48518],[127.38333,37.48694],[127.38333,37.4887],[127.38333,37.49046],[127.38333,37.49222],[127.38333,37.49398],[127.38333,37.49574],[127.38333,37.4975],[127.38333,37.49926],[127.38333,37.50102],[127.38333,37.50278]]]]},"properties":{"uac_lbl_1":"(UA 9) YANGPYEONG","uac_lbl_2":"500FT HEI","uac_lbl_3":"SFC"},"id":"LT_C_AISUAC.5"},{"type":"Feature","geometry":{"type":"MultiPolygon","coordinates":[[[[126.73139,35.42314],[126.73357,35.42309],[126.73576,35.42296],[126.73793,35.42275],[126.74008,35.42244],[126.74221,35.42205],[126.74432,35.42158],[126.7464,35.42102],[126.74844,35.42038],[126.75044,35.41966],[126.7524,35.41886],[126.75431,35.41799],[126.75616,35.41703],[126.75795,35.41601],[126.75968,35.41492],[126.76134,35.41375],[126.76294,35.41253],[126.76445,35.41124],[126.76589,35.40989],[126.76725,35.40849],[126.76852,35.40703],[126.7697,35.40553],[126.77079,35.40398],[126.77179,35.40238],[126.7727,35.40075],[126.7735,35.39909],[126.77421,35.3974],[126.77481,35.39568],[126.77531,35.39393],[126.77571,35.39217],[126.776,35.3904],[126.77618,35.38862],[126.77626,35.38683],[126.77623,35.38504],[126.7761,35.38325],[126.77586,35.38147],[126.77551,35.37971],[126.77506,35.37795],[126.77451,35.37622],[126.77385,35.37452],[126.7731,35.37284],[126.77224,35.37119],[126.77129,35.36958],[126.77024,35.36801],[126.7691,35.36648],[126.76788,35.365],[126.76656,35.36357],[126.76516,35.3622],[126.76368,35.36088],[126.76213,35.35962],[126.7605,35.35843],[126.75881,35.3573],[126.75704,35.35624],[126.75522,35.35525],[126.75334,35.35434],[126.75141,35.3535],[126.74943,35.35274],[126.74741,35.35206],[126.74535,35.35147],[126.74326,35.35095],[126.74114,35.35052],[126.739,35.35017],[126.73684,35.34991],[126.73466,35.34974],[126.73248,35.34965],[126.7303,35.34965],[126.72811,35.34974],[126.72594,35.34991],[126.72378,35.35017],[126.72164,35.35052],[126.71952,35.35095],[126.71742,35.35147],[126.71536,35.35206],[126.71334,35.35274],[126.71137,35.3535],[126.70943,35.35434],[126.70756,35.35525],[126.70573,35.35624],[126.70397,35.3573],[126.70228,35.35843],[126.70065,35.35962],[126.69909,35.36088],[126.69762,35.3622],[126.69622,35.36357],[126.6949,35.365],[126.69367,35.36648],[126.69253,35.36801],[126.69149,35.36958],[126.69054,35.37119],[126.68968,35.37284],[126.68892,35.37452],[126.68827,35.37622],[126.68771,35.37795],[126.68726,35.37971],[126.68692,35.38147],[126.68668,35.38325],[126.68654,35.38504],[126.68652,35.38683],[126.6866,35.38862],[126.68678,35.3904],[126.68707,35.39217],[126.68747,35.39393],[126.68797,35.39568],[126.68857,35.3974],[126.68928,35.39909],[126.69008,35.40075],[126.69098,35.40238],[126.69198,35.40398],[126.69307,35.40553],[126.69426,35.40703],[126.69553,35.40849],[126.69689,35.40989],[126.69832,35.41124],[126.69984,35.41253],[126.70143,35.41375],[126.7031,35.41492],[126.70483,35.41601],[126.70662,35.41703],[126.70847,35.41799],[126.71038,35.41886],[126.71233,35.41966],[126.71433,35.42038],[126.71638,35.42102],[126.71845,35.42158],[126.72056,35.42205],[126.7227,35.42244],[126.72485,35.42275],[126.72702,35.42296],[126.7292,35.42309],[126.73139,35.42314]]]]},"properties":{"uac_lbl_1":"(UA 10) GOCHANG","uac_lbl_2":"500FT HEI","uac_lbl_3":"SFC"},"id":"LT_C_AISUAC.6"},{"type":"Feature","geometry":{"type":"MultiPolygon","coordinates":[[[[127.00917,36.51056],[127.12028,36.50056],[127.09806,36.43444],[126.96389,36.45806],[127.00917,36.51056]]]]},"properties":{"uac_lbl_1":"(UA 14) GONGJU","uac_lbl_2":"500FT HEI","uac_lbl_3":"SFC"},"id":"LT_C_AISUAC.7"},{"type":"Feature","geometry":{"type":"MultiPolygon","coordinates":[[[[126.55528,37.23722],[126.70417,37.2975],[126.83333,37.29],[126.83333,37.24167],[126.77444,37.22083],[126.67472,37.21222],[126.56167,37.21222],[126.55528,37.23722]]]]},"properties":{"uac_lbl_1":"(UA 19) SIHWAHO","uac_lbl_2":"500FT HEI","uac_lbl_3":"SFC"},"id":"LT_C_AISUAC.8"},{"type":"Feature","geometry":{"type":"MultiPolygon","coordinates":[[[[126.73806,35.47606],[126.73985,35.47602],[126.74163,35.4759],[126.74341,35.4757],[126.74517,35.47542],[126.74691,35.47506],[126.74862,35.47462],[126.7503,35.47411],[126.75194,35.47352],[126.75354,35.47286],[126.75509,35.47212],[126.75659,35.47132],[126.75804,35.47045],[126.75942,35.46952],[126.76074,35.46853],[126.76199,35.46747],[126.76317,35.46637],[126.76427,35.46521],[126.76529,35.464],[126.76623,35.46275],[126.76709,35.46146],[126.76785,35.46014],[126.76853,35.45878],[126.76911,35.45739],[126.7696,35.45598],[126.76999,35.45455],[126.77028,35.4531],[126.77048,35.45164],[126.77058,35.45018],[126.77058,35.44871],[126.77048,35.44725],[126.77028,35.44579],[126.76999,35.44434],[126.7696,35.44291],[126.76911,35.4415],[126.76853,35.44011],[126.76785,35.43875],[126.76709,35.43742],[126.76623,35.43613],[126.76529,35.43488],[126.76427,35.43368],[126.76317,35.43252],[126.76199,35.43141],[126.76074,35.43036],[126.75942,35.42937],[126.75804,35.42843],[126.75659,35.42756],[126.75509,35.42676],[126.75354,35.42603],[126.75194,35.42536],[126.7503,35.42477],[126.74862,35.42426],[126.74691,35.42382],[126.74517,35.42346],[126.74341,35.42318],[126.74163,35.42298],[126.73985,35.42286],[126.73806,35.42282],[126.73626,35.42286],[126.73448,35.42298],[126.7327,35.42318],[126.73094,35.42346],[126.7292,35.42382],[126.72749,35.42426],[126.72581,35.42477],[126.72417,35.42536],[126.72257,35.42603],[126.72102,35.42676],[126.71952,35.42756],[126.71807,35.42843],[126.71669,35.42937],[126.71537,35.43036],[126.71412,35.43141],[126.71294,35.43252],[126.71184,35.43368],[126.71082,35.43488],[126.70988,35.43613],[126.70903,35.43742],[126.70826,35.43875],[126.70759,35.44011],[126.707,35.4415],[126.70652,35.44291],[126.70612,35.44434],[126.70583,35.44579],[126.70563,35.44725],[126.70553,35.44871],[126.70553,35.45018],[126.70563,35.45164],[126.70583,35.4531],[126.70612,35.45455],[126.70652,35.45598],[126.707,35.45739],[126.70759,35.45878],[126.70826,35.46014],[126.70903,35.46146],[126.70988,35.46275],[126.71082,35.464],[126.71184,35.46521],[126.71294,35.46637],[126.71412,35.46747],[126.71537,35.46853],[126.71669,35.46952],[126.71807,35.47045],[126.71952,35.47132],[126.72102,35.47212],[126.72257,35.47286],[126.72417,35.47352],[126.72581,35.47411],[126.72749,35.47462],[126.7292,35.47506],[126.73094,35.47542],[126.7327,35.4757],[126.73448,35.4759],[126.73626,35.47602],[126.73806,35.47606]]]]},"properties":{"uac_lbl_1":"(UA 21) BANGJANGSAN","uac_lbl_2":"500FT HEI","uac_lbl_3":"SFC"},"id":"LT_C_AISUAC.9"}]}